{"type":"FeatureCollection","features":[{"id":"0","type":"Feature","properties":{"landuse":"cemetery","amenity":"unknown","military":"unknown","base_elevation":83},"geometry":{"type":"Polygon","coordinates":[[[-106.937734,40.540152],[-106.936171,40.54015],[-106.936141,40.539789],[-106.93772,40.53941],[-106.937734,40.540152]]]}},{"id":"1","type":"Feature","properties":{"landuse":"cemetery","amenity":"unknown","military":"unknown","base_elevation":191},"geometry":{"type":"Polygon","coordinates":[[[-107.027012,40.633488],[-107.027012,40.633028],[-107.027366,40.63304],[-107.027361,40.6335],[-107.027012,40.633488]]]}},{"id":"2","type":"Feature","properties":{"landuse":"commercial","amenity":"unknown","military":"unknown","base_elevation":101},"geometry":{"type":"Polygon","coordinates":[[[-106.826825,40.465484],[-106.826814,40.465986],[-106.826264,40.466037],[-106.826058,40.465549],[-106.826011,40.465085],[-106.826043,40.464532],[-106.826144,40.46428],[-106.826809,40.464273],[-106.827022,40.463976],[-106.827033,40.463475],[-106.82785,40.46347],[-106.827828,40.465172],[-106.827161,40.465217],[-106.826825,40.465484]]]}},{"id":"3","type":"Feature","properties":{"landuse":"commercial","amenity":"unknown","military":"unknown","base_elevation":105},"geometry":{"type":"Polygon","coordinates":[[[-106.825923,40.469536],[-106.825595,40.469596],[-106.825395,40.468981],[-106.825301,40.468255],[-106.824893,40.46808],[-106.824708,40.467857],[-106.824837,40.467346],[-106.822242,40.466902],[-106.822639,40.465747],[-106.821638,40.465301],[-106.821547,40.465116],[-106.82029,40.464829],[-106.820411,40.46438],[-106.820773,40.463855],[-106.820942,40.463805],[-106.821859,40.464806],[-106.822775,40.464171],[-106.82497,40.463179],[-106.825393,40.464334],[-106.824768,40.464611],[-106.824489,40.465324],[-106.823815,40.465328],[-106.823819,40.466355],[-106.823957,40.46647],[-106.825768,40.466345],[-106.825985,40.468633],[-106.825923,40.469536]]]}},{"id":"4","type":"Feature","properties":{"landuse":"commercial","amenity":"unknown","military":"unknown","base_elevation":90},"geometry":{"type":"Polygon","coordinates":[[[-106.830612,40.4786],[-106.829622,40.478592],[-106.829577,40.47798],[-106.830615,40.478003],[-106.830612,40.4786]]]}},{"id":"5","type":"Feature","properties":{"landuse":"commercial","amenity":"unknown","military":"unknown","base_elevation":90},"geometry":{"type":"Polygon","coordinates":[[[-106.832181,40.479745],[-106.832439,40.480304],[-106.832128,40.48072],[-106.8308,40.480126],[-106.830792,40.479808],[-106.832181,40.479745]]]}},{"id":"6","type":"Feature","properties":{"landuse":"commercial","amenity":"unknown","military":"unknown","base_elevation":91},"geometry":{"type":"Polygon","coordinates":[[[-106.835605,40.481836],[-106.836096,40.481849],[-106.836376,40.481995],[-106.836142,40.482337],[-106.835461,40.481997],[-106.835605,40.481836]]]}},{"id":"7","type":"Feature","properties":{"landuse":"commercial","amenity":"unknown","military":"unknown","base_elevation":83},"geometry":{"type":"Polygon","coordinates":[[[-106.837953,40.48878],[-106.837532,40.489172],[-106.837031,40.488864],[-106.83665,40.489045],[-106.836298,40.488827],[-106.836119,40.48898],[-106.835757,40.488803],[-106.835188,40.488446],[-106.835585,40.488001],[-106.835209,40.487777],[-106.834745,40.488183],[-106.83117,40.486057],[-106.83147,40.485726],[-106.830577,40.485196],[-106.830239,40.485529],[-106.827764,40.484062],[-106.828196,40.483645],[-106.827639,40.483303],[-106.827912,40.483216],[-106.828769,40.482678],[-106.829255,40.482979],[-106.829697,40.482553],[-106.830777,40.48317],[-106.830862,40.483087],[-106.831305,40.483345],[-106.831218,40.483427],[-106.831873,40.483805],[-106.832235,40.48344],[-106.833294,40.484031],[-106.833533,40.48377],[-106.835022,40.484486],[-106.835349,40.484776],[-106.835864,40.484968],[-106.836349,40.485327],[-106.837194,40.485788],[-106.837951,40.486416],[-106.837776,40.486577],[-106.837661,40.4865],[-106.837232,40.486922],[-106.837784,40.487252],[-106.838171,40.486895],[-106.839678,40.487795],[-106.838833,40.48865],[-106.839386,40.48897],[-106.838971,40.489369],[-106.837953,40.48878]]]}},{"id":"8","type":"Feature","properties":{"landuse":"commercial","amenity":"unknown","military":"unknown","base_elevation":78},"geometry":{"type":"Polygon","coordinates":[[[-106.847228,40.490153],[-106.849468,40.491159],[-106.849023,40.491846],[-106.846992,40.490535],[-106.847228,40.490153]]]}},{"id":"9","type":"Feature","properties":{"landuse":"commercial","amenity":"unknown","military":"unknown","base_elevation":77},"geometry":{"type":"Polygon","coordinates":[[[-106.851659,40.492109],[-106.851179,40.49275],[-106.851024,40.492758],[-106.850184,40.492379],[-106.85068,40.491695],[-106.851659,40.492109]]]}},{"id":"10","type":"Feature","properties":{"landuse":"construction","amenity":"unknown","military":"unknown","base_elevation":117},"geometry":{"type":"Polygon","coordinates":[[[-106.824519,40.467825],[-106.824803,40.467686],[-106.82483,40.467549],[-106.823073,40.467227],[-106.822944,40.467414],[-106.822966,40.4676],[-106.824519,40.467825]]]}},{"id":"11","type":"Feature","properties":{"landuse":"education","amenity":"school","military":"unknown","base_elevation":130},"geometry":{"type":"Polygon","coordinates":[[[-106.82356,40.511553],[-106.827225,40.51159],[-106.828434,40.512124],[-106.829194,40.512172],[-106.830249,40.512016],[-106.830911,40.51215],[-106.830998,40.511763],[-106.831319,40.511254],[-106.831248,40.509501],[-106.8307,40.509453],[-106.830523,40.50823],[-106.829626,40.508235],[-106.829039,40.507631],[-106.827198,40.507708],[-106.826857,40.508119],[-106.823587,40.508209],[-106.82356,40.511553]]]}},{"id":"12","type":"Feature","properties":{"landuse":"industrial","amenity":"unknown","military":"unknown","base_elevation":100},"geometry":{"type":"Polygon","coordinates":[[[-106.828459,40.465387],[-106.82855,40.465197],[-106.829699,40.46522],[-106.829744,40.46617],[-106.829492,40.466445],[-106.82815,40.466417],[-106.828185,40.465386],[-106.828459,40.465387]]]}},{"id":"13","type":"Feature","properties":{"landuse":"industrial","amenity":"unknown","military":"unknown","base_elevation":78},"geometry":{"type":"Polygon","coordinates":[[[-106.845722,40.49105],[-106.844565,40.490557],[-106.84384,40.490156],[-106.843113,40.489674],[-106.843192,40.489456],[-106.847231,40.491326],[-106.848325,40.491914],[-106.84719,40.491736],[-106.846655,40.491561],[-106.845722,40.49105]]]}},{"id":"14","type":"Feature","properties":{"landuse":"industrial","amenity":"unknown","military":"unknown","base_elevation":76},"geometry":{"type":"Polygon","coordinates":[[[-106.854087,40.493178],[-106.855508,40.493794],[-106.854932,40.494541],[-106.853585,40.493906],[-106.854087,40.493178]]]}},{"id":"15","type":"Feature","properties":{"landuse":"industrial","amenity":"unknown","military":"unknown","base_elevation":75},"geometry":{"type":"Polygon","coordinates":[[[-106.856364,40.494174],[-106.856697,40.494447],[-106.85674,40.494688],[-106.856906,40.494428],[-106.857389,40.494741],[-106.857619,40.495071],[-106.857606,40.495375],[-106.8573,40.495379],[-106.856933,40.495089],[-106.856579,40.495289],[-106.855396,40.494728],[-106.855932,40.49398],[-106.856364,40.494174]]]}},{"id":"16","type":"Feature","properties":{"landuse":"industrial","amenity":"unknown","military":"unknown","base_elevation":82},"geometry":{"type":"Polygon","coordinates":[[[-106.855497,40.508547],[-106.853954,40.508498],[-106.853611,40.506046],[-106.8518,40.505769],[-106.852561,40.504848],[-106.853418,40.504889],[-106.856076,40.504522],[-106.856322,40.505027],[-106.859398,40.504384],[-106.862151,40.504538],[-106.863298,40.50475],[-106.862559,40.506209],[-106.86258,40.508245],[-106.863448,40.508254],[-106.864394,40.510104],[-106.861405,40.510056],[-106.861305,40.50915],[-106.85988,40.509435],[-106.859168,40.510363],[-106.859462,40.513076],[-106.858144,40.514241],[-106.85688,40.514274],[-106.855551,40.512987],[-106.851843,40.513117],[-106.851929,40.512001],[-106.852679,40.511757],[-106.85255,40.510869],[-106.851918,40.510535],[-106.851811,40.509932],[-106.854169,40.50994],[-106.855251,40.509647],[-106.855497,40.508547]]]}},{"id":"17","type":"Feature","properties":{"landuse":"quarry","amenity":"unknown","military":"unknown","base_elevation":44},"geometry":{"type":"Polygon","coordinates":[[[-106.931861,40.499538],[-106.931711,40.498452],[-106.930918,40.498558],[-106.930899,40.496392],[-106.929619,40.496591],[-106.92905,40.497088],[-106.926761,40.497905],[-106.925921,40.497919],[-106.925136,40.498296],[-106.923025,40.498736],[-106.922773,40.500625],[-106.927238,40.500284],[-106.931861,40.499538]]]}},{"id":"18","type":"Feature","properties":{"landuse":"residential","amenity":"unknown","military":"unknown","base_elevation":126},"geometry":{"type":"Polygon","coordinates":[[[-106.844864,40.4124],[-106.846007,40.41088],[-106.849172,40.410843],[-106.849208,40.413291],[-106.845219,40.4133],[-106.844903,40.41304],[-106.844864,40.4124]]]}},{"id":"19","type":"Feature","properties":{"landuse":"residential","amenity":"unknown","military":"unknown","base_elevation":153},"geometry":{"type":"Polygon","coordinates":[[[-106.840112,40.430238],[-106.839236,40.43027],[-106.839288,40.429272],[-106.840633,40.429107],[-106.841044,40.429272],[-106.84163,40.428859],[-106.843191,40.428686],[-106.844037,40.428207],[-106.844948,40.428001],[-106.845251,40.427663],[-106.844872,40.427349],[-106.844286,40.427052],[-106.844438,40.42678],[-106.84421,40.42626],[-106.844221,40.42588],[-106.845013,40.42588],[-106.845164,40.4255],[-106.845652,40.425484],[-106.846129,40.425236],[-106.846617,40.424097],[-106.846444,40.423635],[-106.845598,40.423445],[-106.845403,40.423065],[-106.844503,40.422653],[-106.844471,40.4221],[-106.84459,40.421472],[-106.84549,40.421192],[-106.846812,40.421547],[-106.848265,40.421514],[-106.84935,40.421687],[-106.849284,40.422092],[-106.848807,40.422438],[-106.847268,40.422612],[-106.84742,40.422999],[-106.848157,40.42347],[-106.848038,40.424163],[-106.847517,40.425104],[-106.847756,40.425674],[-106.847365,40.426029],[-106.847604,40.426276],[-106.848385,40.426169],[-106.848569,40.426565],[-106.848352,40.427176],[-106.847951,40.427498],[-106.846975,40.427778],[-106.847192,40.427927],[-106.848179,40.428224],[-106.847973,40.428768],[-106.847083,40.428934],[-106.846021,40.429445],[-106.844167,40.429965],[-106.842606,40.430213],[-106.841565,40.430535],[-106.840969,40.431467],[-106.839819,40.431954],[-106.840101,40.431508],[-106.839538,40.43122],[-106.839483,40.430914],[-106.840784,40.430848],[-106.840112,40.430238]]]}},{"id":"20","type":"Feature","properties":{"landuse":"residential","amenity":"unknown","military":"unknown","base_elevation":171},"geometry":{"type":"Polygon","coordinates":[[[-106.847149,40.42928],[-106.849761,40.428595],[-106.852721,40.427663],[-106.850347,40.426945],[-106.850445,40.426433],[-106.852125,40.424931],[-106.85283,40.424832],[-106.853036,40.425954],[-106.851431,40.426631],[-106.853925,40.427572],[-106.851908,40.429173],[-106.852689,40.429288],[-106.854163,40.429107],[-106.854727,40.429338],[-106.85644,40.429718],[-106.857611,40.429239],[-106.85876,40.429355],[-106.859086,40.428777],[-106.860148,40.428612],[-106.860061,40.427291],[-106.858999,40.427176],[-106.857763,40.427291],[-106.855009,40.426548],[-106.853513,40.425855],[-106.853491,40.425063],[-106.853968,40.424419],[-106.854532,40.424337],[-106.855248,40.423792],[-106.856397,40.424436],[-106.858023,40.424171],[-106.858999,40.424205],[-106.859801,40.425789],[-106.860669,40.425707],[-106.860105,40.424518],[-106.860582,40.424171],[-106.861514,40.425046],[-106.862295,40.425327],[-106.863574,40.425145],[-106.865266,40.425558],[-106.866393,40.425393],[-106.866393,40.424056],[-106.864789,40.422521],[-106.865808,40.422224],[-106.86713,40.423049],[-106.867672,40.424716],[-106.867434,40.42673],[-106.866783,40.427374],[-106.864485,40.427687],[-106.863032,40.426862],[-106.862924,40.426367],[-106.861536,40.426598],[-106.861471,40.427242],[-106.86288,40.427902],[-106.862056,40.429718],[-106.862989,40.431022],[-106.862143,40.431236],[-106.859823,40.431583],[-106.856635,40.431187],[-106.855898,40.430642],[-106.853773,40.431302],[-106.852949,40.431187],[-106.850087,40.43117],[-106.849935,40.430692],[-106.848677,40.431352],[-106.847398,40.431748],[-106.847376,40.432491],[-106.846704,40.432804],[-106.844818,40.431764],[-106.841619,40.431872],[-106.841511,40.43141],[-106.841869,40.431154],[-106.844796,40.430634],[-106.846455,40.429841],[-106.847149,40.42928]]]}},{"id":"21","type":"Feature","properties":{"landuse":"residential","amenity":"unknown","military":"unknown","base_elevation":87},"geometry":{"type":"Polygon","coordinates":[[[-106.843527,40.487591],[-106.843346,40.487082],[-106.842144,40.48702],[-106.841341,40.486493],[-106.841945,40.485498],[-106.842525,40.485397],[-106.843924,40.485547],[-106.84401,40.48522],[-106.847894,40.485265],[-106.848242,40.484959],[-106.84858,40.484796],[-106.848602,40.4844],[-106.849068,40.484433],[-106.849176,40.484764],[-106.848838,40.484955],[-106.848891,40.485294],[-106.849369,40.485498],[-106.849793,40.485061],[-106.850249,40.485176],[-106.850324,40.485433],[-106.850501,40.485567],[-106.850259,40.485751],[-106.849578,40.485914],[-106.849895,40.486261],[-106.849621,40.486481],[-106.849117,40.48631],[-106.848891,40.486494],[-106.849074,40.486783],[-106.849138,40.487138],[-106.847695,40.487138],[-106.84755,40.488068],[-106.846724,40.488081],[-106.846729,40.489023],[-106.846097,40.488966],[-106.846005,40.489358],[-106.845889,40.48946],[-106.844723,40.488945],[-106.843205,40.488668],[-106.843248,40.488346],[-106.843688,40.488293],[-106.843822,40.488166],[-106.843902,40.487624],[-106.843527,40.487591]]]}},{"id":"22","type":"Feature","properties":{"landuse":"residential","amenity":"unknown","military":"unknown","base_elevation":79},"geometry":{"type":"Polygon","coordinates":[[[-106.844892,40.491618],[-106.845231,40.491404],[-106.846524,40.492147],[-106.84842,40.49286],[-106.848576,40.493111],[-106.848144,40.493582],[-106.847782,40.493766],[-106.846834,40.493532],[-106.845275,40.492269],[-106.844418,40.491798],[-106.844606,40.491523],[-106.844892,40.491618]]]}},{"id":"23","type":"Feature","properties":{"landuse":"residential","amenity":"unknown","military":"unknown","base_elevation":95},"geometry":{"type":"Polygon","coordinates":[[[-106.846528,40.493967],[-106.848961,40.494529],[-106.849536,40.494815],[-106.849902,40.495205],[-106.851052,40.495543],[-106.851134,40.496057],[-106.851045,40.496533],[-106.847687,40.49645],[-106.84429,40.496757],[-106.844419,40.494423],[-106.846058,40.494168],[-106.846528,40.493967]]]}},{"id":"24","type":"Feature","properties":{"landuse":"residential","amenity":"unknown","military":"unknown","base_elevation":113},"geometry":{"type":"Polygon","coordinates":[[[-106.848873,40.499295],[-106.848951,40.498307],[-106.849661,40.498311],[-106.851151,40.500615],[-106.849843,40.502038],[-106.849862,40.50284],[-106.848578,40.502869],[-106.847414,40.501831],[-106.847528,40.499353],[-106.848873,40.499295]]]}},{"id":"25","type":"Feature","properties":{"landuse":"residential","amenity":"unknown","military":"unknown","base_elevation":63},"geometry":{"type":"Polygon","coordinates":[[[-106.869368,40.502996],[-106.866791,40.502992],[-106.865637,40.502777],[-106.864028,40.502837],[-106.863913,40.502336],[-106.863259,40.502343],[-106.863254,40.500456],[-106.863942,40.500459],[-106.864562,40.500837],[-106.865412,40.500673],[-106.865618,40.499822],[-106.866658,40.499908],[-106.866984,40.500076],[-106.867412,40.501341],[-106.867994,40.501995],[-106.86864,40.502244],[-106.869183,40.50208],[-106.869308,40.502217],[-106.869421,40.50239],[-106.869368,40.502996]]]}},{"id":"26","type":"Feature","properties":{"landuse":"residential","amenity":"unknown","military":"unknown","base_elevation":69},"geometry":{"type":"Polygon","coordinates":[[[-106.862906,40.50288],[-106.862357,40.502869],[-106.862448,40.500452],[-106.863011,40.500499],[-106.862906,40.50288]]]}},{"id":"27","type":"Feature","properties":{"landuse":"residential","amenity":"unknown","military":"unknown","base_elevation":54},"geometry":{"type":"Polygon","coordinates":[[[-106.90375,40.505475],[-106.903332,40.505384],[-106.90324,40.50545],[-106.902888,40.505411],[-106.903023,40.503409],[-106.903097,40.503027],[-106.904249,40.502757],[-106.905238,40.502744],[-106.906379,40.503091],[-106.906549,40.503378],[-106.90683,40.503593],[-106.907536,40.504686],[-106.907488,40.504825],[-106.907113,40.504951],[-106.906926,40.505163],[-106.9046,40.505502],[-106.90375,40.505475]]]}},{"id":"28","type":"Feature","properties":{"landuse":"residential","amenity":"unknown","military":"unknown","base_elevation":61},"geometry":{"type":"Polygon","coordinates":[[[-106.879964,40.506216],[-106.879131,40.506112],[-106.87911,40.504394],[-106.881423,40.505176],[-106.882102,40.505778],[-106.881501,40.506033],[-106.879964,40.506216]]]}},{"id":"29","type":"Feature","properties":{"landuse":"residential","amenity":"unknown","military":"unknown","base_elevation":91},"geometry":{"type":"Polygon","coordinates":[[[-106.864148,40.505883],[-106.864073,40.506217],[-106.863649,40.506144],[-106.863998,40.505189],[-106.864475,40.504781],[-106.865097,40.504557],[-106.866063,40.504525],[-106.867023,40.504655],[-106.868466,40.504708],[-106.86941,40.50501],[-106.869475,40.505503],[-106.869142,40.505936],[-106.868729,40.506119],[-106.867758,40.506095],[-106.866841,40.506405],[-106.86639,40.506437],[-106.865881,40.506421],[-106.865113,40.505418],[-106.864808,40.505157],[-106.864148,40.505883]]]}},{"id":"30","type":"Feature","properties":{"landuse":"residential","amenity":"unknown","military":"unknown","base_elevation":93},"geometry":{"type":"Polygon","coordinates":[[[-106.864706,40.506482],[-106.866739,40.506523],[-106.86698,40.506635],[-106.867452,40.506376],[-106.868075,40.50634],[-106.869834,40.506486],[-106.869984,40.506698],[-106.869797,40.507938],[-106.867383,40.507926],[-106.865875,40.508183],[-106.864845,40.508061],[-106.864513,40.507498],[-106.864373,40.507424],[-106.864357,40.506605],[-106.864706,40.506482]]]}},{"id":"31","type":"Feature","properties":{"landuse":"residential","amenity":"unknown","military":"unknown","base_elevation":55},"geometry":{"type":"Polygon","coordinates":[[[-106.902513,40.510465],[-106.902836,40.506048],[-106.904956,40.505955],[-106.910166,40.505169],[-106.910221,40.505444],[-106.910559,40.505413],[-106.911037,40.505702],[-106.911613,40.505272],[-106.912367,40.504906],[-106.911831,40.510556],[-106.910469,40.510585],[-106.910465,40.510456],[-106.90935,40.510588],[-106.902513,40.510465]]]}},{"id":"32","type":"Feature","properties":{"landuse":"residential","amenity":"unknown","military":"unknown","base_elevation":75},"geometry":{"type":"Polygon","coordinates":[[[-106.900621,40.511319],[-106.900608,40.511235],[-106.900806,40.511082],[-106.900762,40.510425],[-106.901041,40.510428],[-106.902166,40.51139],[-106.902583,40.511553],[-106.90307,40.511347],[-106.904782,40.510876],[-106.905722,40.510735],[-106.905969,40.510763],[-106.906044,40.511117],[-106.907014,40.511035],[-106.9072,40.510854],[-106.908527,40.510826],[-106.908907,40.511135],[-106.909312,40.511893],[-106.909267,40.512459],[-106.910541,40.512208],[-106.910813,40.512395],[-106.91101,40.513132],[-106.910489,40.513592],[-106.909581,40.513851],[-106.907927,40.513758],[-106.903243,40.51409],[-106.899258,40.51394],[-106.898425,40.513674],[-106.898173,40.513457],[-106.897832,40.512971],[-106.897804,40.512805],[-106.897967,40.511511],[-106.898332,40.511509],[-106.898925,40.511688],[-106.899078,40.511626],[-106.898888,40.511792],[-106.899715,40.512383],[-106.900337,40.511979],[-106.900854,40.511457],[-106.900621,40.511319]]]}},{"id":"33","type":"Feature","properties":{"landuse":"residential","amenity":"unknown","military":"unknown","base_elevation":130},"geometry":{"type":"Polygon","coordinates":[[[-106.846716,40.437315],[-106.847303,40.438652],[-106.847447,40.440326],[-106.846652,40.441741],[-106.84557,40.442695],[-106.844178,40.443391],[-106.843995,40.446427],[-106.843705,40.448993],[-106.841621,40.449019],[-106.838298,40.449219],[-106.836529,40.449053],[-106.83528,40.447683],[-106.834365,40.444856],[-106.834246,40.438739],[-106.835168,40.435799],[-106.841444,40.435563],[-106.846318,40.435509],[-106.846992,40.43474],[-106.848388,40.435609],[-106.846716,40.437315]]]}},{"id":"34","type":"Feature","properties":{"landuse":"residential","amenity":"unknown","military":"unknown","base_elevation":103},"geometry":{"type":"Polygon","coordinates":[[[-106.813265,40.450863],[-106.813265,40.450156],[-106.813193,40.44989],[-106.812942,40.449679],[-106.812264,40.449999],[-106.811303,40.449434],[-106.811284,40.449124],[-106.811451,40.44894],[-106.812356,40.448917],[-106.812574,40.448788],[-106.812736,40.448638],[-106.812772,40.448235],[-106.813088,40.448263],[-106.813492,40.448465],[-106.813752,40.448424],[-106.814492,40.448792],[-106.814761,40.44964],[-106.814615,40.450075],[-106.814594,40.450823],[-106.813265,40.450863]]]}},{"id":"35","type":"Feature","properties":{"landuse":"residential","amenity":"unknown","military":"unknown","base_elevation":113},"geometry":{"type":"Polygon","coordinates":[[[-106.835757,40.449389],[-106.837115,40.450621],[-106.837016,40.453178],[-106.831731,40.453609],[-106.830173,40.454041],[-106.829335,40.453689],[-106.82876,40.452274],[-106.829254,40.451373],[-106.830651,40.45163],[-106.831884,40.449466],[-106.834138,40.448651],[-106.835757,40.449389]]]}},{"id":"36","type":"Feature","properties":{"landuse":"residential","amenity":"unknown","military":"unknown","base_elevation":107},"geometry":{"type":"Polygon","coordinates":[[[-106.834054,40.4615],[-106.832364,40.461546],[-106.831042,40.461373],[-106.83022,40.461682],[-106.829771,40.46148],[-106.830365,40.460554],[-106.830546,40.460004],[-106.830058,40.460049],[-106.829675,40.459247],[-106.829784,40.458458],[-106.829993,40.457784],[-106.829823,40.457403],[-106.829753,40.457001],[-106.831665,40.456797],[-106.831586,40.456145],[-106.832713,40.455738],[-106.83247,40.455473],[-106.831404,40.455373],[-106.830811,40.455485],[-106.829825,40.455297],[-106.829604,40.454377],[-106.82994,40.454242],[-106.832439,40.454193],[-106.834885,40.454635],[-106.834953,40.459724],[-106.835048,40.461016],[-106.834054,40.4615]]]}},{"id":"37","type":"Feature","properties":{"landuse":"residential","amenity":"unknown","military":"unknown","base_elevation":105},"geometry":{"type":"Polygon","coordinates":[[[-106.821859,40.464806],[-106.820942,40.463805],[-106.821869,40.463555],[-106.82351,40.462517],[-106.823823,40.462159],[-106.824412,40.461971],[-106.825068,40.462924],[-106.82497,40.463179],[-106.822775,40.464171],[-106.821859,40.464806]]]}},{"id":"38","type":"Feature","properties":{"landuse":"residential","amenity":"unknown","military":"unknown","base_elevation":101},"geometry":{"type":"Polygon","coordinates":[[[-106.826814,40.465986],[-106.826825,40.465484],[-106.827161,40.465217],[-106.827828,40.465172],[-106.827742,40.46622],[-106.827538,40.466495],[-106.826853,40.466678],[-106.826481,40.466623],[-106.826264,40.466037],[-106.826814,40.465986]]]}},{"id":"39","type":"Feature","properties":{"landuse":"residential","amenity":"unknown","military":"unknown","base_elevation":96},"geometry":{"type":"Polygon","coordinates":[[[-106.829482,40.466791],[-106.82952,40.468739],[-106.829051,40.468727],[-106.829053,40.468878],[-106.828045,40.468849],[-106.828098,40.466591],[-106.828971,40.466594],[-106.829482,40.466791]]]}},{"id":"40","type":"Feature","properties":{"landuse":"residential","amenity":"unknown","military":"unknown","base_elevation":164},"geometry":{"type":"Polygon","coordinates":[[[-106.813698,40.478544],[-106.813536,40.477765],[-106.814076,40.477246],[-106.81429,40.476593],[-106.815021,40.47621],[-106.815387,40.475868],[-106.816221,40.475555],[-106.816667,40.475774],[-106.817288,40.475735],[-106.817896,40.476001],[-106.817821,40.476432],[-106.816308,40.478646],[-106.815583,40.478686],[-106.813698,40.478544]]]}},{"id":"41","type":"Feature","properties":{"landuse":"residential","amenity":"unknown","military":"unknown","base_elevation":89},"geometry":{"type":"Polygon","coordinates":[[[-106.828464,40.4779],[-106.828413,40.477544],[-106.828539,40.477225],[-106.828528,40.476817],[-106.828335,40.47674],[-106.828391,40.476609],[-106.828829,40.476438],[-106.829834,40.475501],[-106.830331,40.475695],[-106.830331,40.475971],[-106.830202,40.476244],[-106.830202,40.477368],[-106.830427,40.477384],[-106.830615,40.477539],[-106.830663,40.477747],[-106.831154,40.47797],[-106.831529,40.478366],[-106.831543,40.478851],[-106.831116,40.47887],[-106.831149,40.479188],[-106.831275,40.479368],[-106.831288,40.4797],[-106.829569,40.479663],[-106.829622,40.478592],[-106.830612,40.4786],[-106.830615,40.478003],[-106.828464,40.4779]]]}},{"id":"42","type":"Feature","properties":{"landuse":"residential","amenity":"unknown","military":"unknown","base_elevation":88},"geometry":{"type":"Polygon","coordinates":[[[-106.829145,40.479977],[-106.829094,40.479351],[-106.828437,40.477915],[-106.829424,40.477954],[-106.829427,40.479498],[-106.829518,40.480149],[-106.829311,40.480135],[-106.829145,40.479977]]]}},{"id":"43","type":"Feature","properties":{"landuse":"residential","amenity":"unknown","military":"unknown","base_elevation":100},"geometry":{"type":"Polygon","coordinates":[[[-106.823469,40.481358],[-106.821585,40.48214],[-106.820514,40.482302],[-106.819293,40.482959],[-106.823497,40.48218],[-106.824289,40.482137],[-106.824903,40.482409],[-106.824031,40.482897],[-106.81815,40.483986],[-106.816844,40.483602],[-106.815542,40.483097],[-106.81444,40.482416],[-106.813897,40.481976],[-106.814462,40.481656],[-106.815287,40.4816],[-106.816427,40.481007],[-106.81834,40.480403],[-106.819426,40.48042],[-106.820184,40.479942],[-106.820005,40.479654],[-106.817334,40.479514],[-106.816972,40.479102],[-106.816882,40.478661],[-106.817248,40.478123],[-106.81718,40.477833],[-106.819074,40.475146],[-106.81957,40.474973],[-106.819973,40.475066],[-106.820267,40.475257],[-106.820272,40.474688],[-106.819392,40.474629],[-106.819757,40.474144],[-106.820876,40.474332],[-106.821322,40.47416],[-106.822427,40.474532],[-106.823184,40.474887],[-106.823619,40.475302],[-106.823545,40.476145],[-106.824094,40.476672],[-106.823646,40.477191],[-106.822446,40.477284],[-106.821906,40.477209],[-106.822067,40.476637],[-106.82163,40.476567],[-106.821424,40.476944],[-106.821458,40.477438],[-106.822059,40.477865],[-106.821709,40.478247],[-106.822631,40.477976],[-106.822871,40.478111],[-106.823158,40.478505],[-106.823589,40.478356],[-106.824171,40.477951],[-106.824781,40.478062],[-106.825172,40.478518],[-106.825193,40.479639],[-106.826105,40.479658],[-106.826238,40.480319],[-106.826565,40.481134],[-106.825622,40.481361],[-106.824787,40.481185],[-106.823469,40.481358]]]}},{"id":"44","type":"Feature","properties":{"landuse":"residential","amenity":"unknown","military":"unknown","base_elevation":90},"geometry":{"type":"Polygon","coordinates":[[[-106.823294,40.489338],[-106.823018,40.489145],[-106.822207,40.489271],[-106.821553,40.489276],[-106.821269,40.488682],[-106.818805,40.48865],[-106.819071,40.489501],[-106.819029,40.490312],[-106.817685,40.489916],[-106.817055,40.487429],[-106.81751,40.487379],[-106.817528,40.486656],[-106.821578,40.486803],[-106.824605,40.486772],[-106.827062,40.484253],[-106.826536,40.483912],[-106.826899,40.483606],[-106.831139,40.486113],[-106.830704,40.486543],[-106.83192,40.487268],[-106.830976,40.488169],[-106.831932,40.488712],[-106.832947,40.487747],[-106.832026,40.48713],[-106.832447,40.486816],[-106.834745,40.488183],[-106.835209,40.487777],[-106.835585,40.488001],[-106.835188,40.488446],[-106.836119,40.48898],[-106.836298,40.488827],[-106.83665,40.489045],[-106.837031,40.488864],[-106.837532,40.489172],[-106.837735,40.488984],[-106.838752,40.489243],[-106.838971,40.489369],[-106.837911,40.49051],[-106.837596,40.4905],[-106.836179,40.48964],[-106.83527,40.490569],[-106.838274,40.49062],[-106.838594,40.490477],[-106.838927,40.490473],[-106.839097,40.490873],[-106.838982,40.492291],[-106.838474,40.492296],[-106.838413,40.494031],[-106.836004,40.494004],[-106.835961,40.495293],[-106.835362,40.49701],[-106.834399,40.496996],[-106.833388,40.496181],[-106.833509,40.495146],[-106.832974,40.49509],[-106.832995,40.494805],[-106.830234,40.494791],[-106.830247,40.493976],[-106.827086,40.493838],[-106.827044,40.494165],[-106.826281,40.494124],[-106.826281,40.494262],[-106.823176,40.494418],[-106.823091,40.495219],[-106.822576,40.495772],[-106.821402,40.495546],[-106.821808,40.492388],[-106.822222,40.492353],[-106.824042,40.492614],[-106.82422,40.491016],[-106.821901,40.490949],[-106.822047,40.48995],[-106.824349,40.490053],[-106.824423,40.489453],[-106.823294,40.489338]],[[-106.828474,40.491128],[-106.828957,40.491532],[-106.828914,40.491636],[-106.82922,40.492093],[-106.830937,40.491009],[-106.83097,40.490471],[-106.830531,40.490441],[-106.83034,40.490279],[-106.82909,40.490395],[-106.828474,40.491128]],[[-106.825694,40.491343],[-106.825328,40.491725],[-106.826457,40.491819],[-106.827329,40.491504],[-106.82725,40.491394],[-106.825694,40.491343]]]}},{"id":"45","type":"Feature","properties":{"landuse":"residential","amenity":"unknown","military":"unknown","base_elevation":111},"geometry":{"type":"Polygon","coordinates":[[[-106.807935,40.445814],[-106.808416,40.445716],[-106.808688,40.445764],[-106.808538,40.448852],[-106.80844,40.44927],[-106.807896,40.449756],[-106.806665,40.449772],[-106.806307,40.449608],[-106.805217,40.44979],[-106.805001,40.449611],[-106.80449,40.448754],[-106.804225,40.448024],[-106.805154,40.447565],[-106.805829,40.44756],[-106.806352,40.447251],[-106.806387,40.447372],[-106.806394,40.446987],[-106.805978,40.44724],[-106.805354,40.447158],[-106.805369,40.445782],[-106.806352,40.445864],[-106.806343,40.446401],[-106.806441,40.446219],[-106.807302,40.446189],[-106.807314,40.445816],[-106.807935,40.445814]],[[-106.806387,40.447372],[-106.806301,40.448542],[-106.806328,40.44924],[-106.806387,40.447372]]]}},{"id":"46","type":"Feature","properties":{"landuse":"residential","amenity":"unknown","military":"unknown","base_elevation":123},"geometry":{"type":"Polygon","coordinates":[[[-106.805201,40.445966],[-106.805112,40.447133],[-106.804912,40.44741],[-106.804275,40.44779],[-106.804072,40.447431],[-106.804054,40.44601],[-106.804141,40.445905],[-106.805201,40.445966]]]}},{"id":"47","type":"Feature","properties":{"landuse":"residential","amenity":"unknown","military":"unknown","base_elevation":129},"geometry":{"type":"Polygon","coordinates":[[[-106.801937,40.449936],[-106.80168,40.451022],[-106.800069,40.450969],[-106.799456,40.452031],[-106.79949,40.45235],[-106.794064,40.452387],[-106.793873,40.443857],[-106.794638,40.444193],[-106.795403,40.443829],[-106.796323,40.443911],[-106.797112,40.44453],[-106.798352,40.442749],[-106.799239,40.442629],[-106.799418,40.442147],[-106.799848,40.441629],[-106.800481,40.441619],[-106.801539,40.441742],[-106.801682,40.442065],[-106.801575,40.445666],[-106.801814,40.445648],[-106.802038,40.44543],[-106.802865,40.445434],[-106.802946,40.445653],[-106.803415,40.445796],[-106.803759,40.446023],[-106.803908,40.446287],[-106.803968,40.447269],[-106.803175,40.447789],[-106.803926,40.447842],[-106.804709,40.449408],[-106.804234,40.449856],[-106.803439,40.449859],[-106.802847,40.44975],[-106.80265,40.449299],[-106.802244,40.448806],[-106.801739,40.448861],[-106.801417,40.448804],[-106.801267,40.448149],[-106.801142,40.448777],[-106.801175,40.449854],[-106.801937,40.449936]],[[-106.802155,40.447793],[-106.802561,40.44779],[-106.803003,40.447783],[-106.802155,40.447793]],[[-106.801605,40.447765],[-106.802017,40.447794],[-106.802155,40.447793],[-106.801605,40.447765]]]}},{"id":"48","type":"Feature","properties":{"landuse":"residential","amenity":"unknown","military":"unknown","base_elevation":105},"geometry":{"type":"Polygon","coordinates":[[[-106.808831,40.448026],[-106.809369,40.447406],[-106.809617,40.447269],[-106.811048,40.448113],[-106.811631,40.447592],[-106.81258,40.448242],[-106.812628,40.448408],[-106.812518,40.448636],[-106.81227,40.448829],[-106.811505,40.448847],[-106.811215,40.448956],[-106.811114,40.449142],[-106.808772,40.449177],[-106.808831,40.448026]]]}},{"id":"49","type":"Feature","properties":{"landuse":"residential","amenity":"unknown","military":"unknown","base_elevation":108},"geometry":{"type":"Polygon","coordinates":[[[-106.808876,40.451018],[-106.808888,40.449336],[-106.811021,40.449272],[-106.812225,40.45019],[-106.812213,40.450875],[-106.808876,40.451018]]]}},{"id":"50","type":"Feature","properties":{"landuse":"residential","amenity":"unknown","military":"unknown","base_elevation":107},"geometry":{"type":"Polygon","coordinates":[[[-106.813142,40.450866],[-106.812416,40.450868],[-106.812443,40.450077],[-106.812897,40.449879],[-106.813172,40.450059],[-106.813142,40.450866]]]}},{"id":"51","type":"Feature","properties":{"landuse":"residential","amenity":"unknown","military":"unknown","base_elevation":116},"geometry":{"type":"Polygon","coordinates":[[[-106.808437,40.449929],[-106.808443,40.450768],[-106.808371,40.451029],[-106.806289,40.451102],[-106.806291,40.450891],[-106.805533,40.450891],[-106.805488,40.450395],[-106.805282,40.449881],[-106.808437,40.449929]]]}},{"id":"52","type":"Feature","properties":{"landuse":"retail","amenity":"unknown","military":"unknown","base_elevation":105},"geometry":{"type":"Polygon","coordinates":[[[-106.820729,40.462367],[-106.821348,40.461868],[-106.821474,40.461451],[-106.821231,40.460799],[-106.821266,40.460282],[-106.821613,40.460162],[-106.822454,40.460271],[-106.823688,40.461295],[-106.823845,40.461723],[-106.823823,40.462159],[-106.82351,40.462517],[-106.821869,40.463555],[-106.820942,40.463805],[-106.820318,40.462539],[-106.820729,40.462367]]]}},{"id":"53","type":"Feature","properties":{"landuse":"retail","amenity":"unknown","military":"unknown","base_elevation":105},"geometry":{"type":"Polygon","coordinates":[[[-106.823957,40.46647],[-106.823819,40.466355],[-106.823815,40.465328],[-106.824489,40.465324],[-106.824768,40.464611],[-106.825393,40.464334],[-106.825768,40.466345],[-106.823957,40.46647]]]}},{"id":"54","type":"Feature","properties":{"landuse":"retail","amenity":"unknown","military":"unknown","base_elevation":73},"geometry":{"type":"Polygon","coordinates":[[[-106.857951,40.501182],[-106.859216,40.501259],[-106.85965,40.50143],[-106.859923,40.501797],[-106.859875,40.502583],[-106.859746,40.502783],[-106.858385,40.502734],[-106.856944,40.502269],[-106.856392,40.501923],[-106.856606,40.501238],[-106.856247,40.50097],[-106.855845,40.500379],[-106.855851,40.49989],[-106.85501,40.499906],[-106.854292,40.498309],[-106.855465,40.497987],[-106.855647,40.498798],[-106.856756,40.498802],[-106.85673,40.500037],[-106.856922,40.500509],[-106.857474,40.500998],[-106.857951,40.501182]]]}},{"id":"55","type":"Feature","properties":{"landuse":"unknown","amenity":"clinic","military":"unknown","base_elevation":103},"geometry":{"type":"Polygon","coordinates":[[[-106.826402,40.464423],[-106.826707,40.464427],[-106.826701,40.464695],[-106.826196,40.464688],[-106.826251,40.464333],[-106.826404,40.464335],[-106.826402,40.464423]]]}},{"id":"56","type":"Feature","properties":{"landuse":"unknown","amenity":"college","military":"unknown","base_elevation":100},"geometry":{"type":"Polygon","coordinates":[[[-106.838927,40.490473],[-106.839908,40.4902],[-106.840767,40.490929],[-106.841337,40.490684],[-106.842127,40.491423],[-106.841746,40.492548],[-106.841383,40.492985],[-106.84052,40.493625],[-106.839673,40.495459],[-106.840007,40.496829],[-106.837552,40.496828],[-106.837962,40.494245],[-106.838413,40.494031],[-106.838474,40.492296],[-106.838982,40.492291],[-106.839097,40.490873],[-106.838927,40.490473]]]}},{"id":"57","type":"Feature","properties":{"landuse":"unknown","amenity":"hospital","military":"unknown","base_elevation":121},"geometry":{"type":"Polygon","coordinates":[[[-106.817279,40.462075],[-106.817322,40.46343],[-106.816372,40.463548],[-106.814473,40.464377],[-106.814071,40.464177],[-106.813127,40.464058],[-106.812698,40.46387],[-106.812472,40.463646],[-106.812424,40.462756],[-106.812628,40.462666],[-106.813379,40.462817],[-106.813899,40.462744],[-106.815433,40.462083],[-106.817279,40.462075]]]}},{"id":"58","type":"Feature","properties":{"landuse":"unknown","amenity":"school","military":"unknown","base_elevation":108},"geometry":{"type":"Polygon","coordinates":[[[-106.818441,40.485992],[-106.819068,40.485802],[-106.819778,40.484955],[-106.820845,40.484733],[-106.820796,40.48441],[-106.823973,40.484376],[-106.824939,40.48409],[-106.824859,40.48529],[-106.825942,40.485168],[-106.824424,40.486665],[-106.821876,40.486689],[-106.819618,40.48662],[-106.818233,40.486494],[-106.818441,40.485992]]]}},{"id":"59","type":"Feature","properties":{"landuse":"unknown","amenity":"school","military":"unknown","base_elevation":96},"geometry":{"type":"Polygon","coordinates":[[[-106.830741,40.485398],[-106.830632,40.485477],[-106.830479,40.485395],[-106.830564,40.485303],[-106.830741,40.485398]]]}},{"id":"60","type":"Feature","properties":{"landuse":"unknown","amenity":"school","military":"unknown","base_elevation":94},"geometry":{"type":"Polygon","coordinates":[[[-106.831878,40.48732],[-106.83279,40.487879],[-106.831967,40.488617],[-106.831076,40.488111],[-106.831878,40.48732]]]}},{"id":"61","type":"Feature","properties":{"landuse":"unknown","amenity":"school","military":"unknown","base_elevation":98},"geometry":{"type":"Polygon","coordinates":[[[-106.828914,40.491636],[-106.828957,40.491532],[-106.828474,40.491128],[-106.82904,40.490806],[-106.829327,40.490422],[-106.830269,40.490414],[-106.830242,40.491487],[-106.82922,40.492093],[-106.828914,40.491636]]]}},{"id":"62","type":"Feature","properties":{"landuse":"unknown","amenity":"school","military":"unknown","base_elevation":130},"geometry":{"type":"Polygon","coordinates":[[[-106.81909,40.495365],[-106.818421,40.495559],[-106.818365,40.495412],[-106.818256,40.495436],[-106.818038,40.494863],[-106.818379,40.494787],[-106.81832,40.494632],[-106.817973,40.494709],[-106.817864,40.494421],[-106.818292,40.494371],[-106.818253,40.494269],[-106.818093,40.494226],[-106.818179,40.494042],[-106.818318,40.494072],[-106.818283,40.49398],[-106.818362,40.493912],[-106.818536,40.493924],[-106.818627,40.494161],[-106.818295,40.494234],[-106.818327,40.494318],[-106.818668,40.494243],[-106.818779,40.494533],[-106.818439,40.494608],[-106.818497,40.494759],[-106.818831,40.494686],[-106.81909,40.495365]]]}},{"id":"63","type":"Feature","properties":{"landuse":"unknown","amenity":"school","military":"unknown","base_elevation":137},"geometry":{"type":"Polygon","coordinates":[[[-106.818955,40.496821],[-106.818803,40.496854],[-106.81878,40.496519],[-106.819448,40.496363],[-106.819517,40.496549],[-106.819583,40.496535],[-106.819493,40.496294],[-106.819866,40.496214],[-106.820007,40.496596],[-106.819518,40.496653],[-106.819688,40.497071],[-106.81938,40.497137],[-106.819332,40.497007],[-106.819209,40.497034],[-106.819256,40.497162],[-106.818963,40.497225],[-106.818882,40.497008],[-106.819014,40.496979],[-106.818955,40.496821]]]}},{"id":"64","type":"Feature","properties":{"landuse":"unknown","amenity":"school","military":"unknown","base_elevation":53},"geometry":{"type":"Polygon","coordinates":[[[-106.909626,40.504125],[-106.909124,40.504386],[-106.908759,40.504217],[-106.90815,40.504245],[-106.908066,40.503984],[-106.908219,40.503264],[-106.90944,40.503532],[-106.909658,40.503678],[-106.910516,40.503603],[-106.910619,40.503255],[-106.910826,40.503246],[-106.910663,40.503952],[-106.909626,40.504125]]]}},{"id":"65","type":"Feature","properties":{"landuse":"unknown","amenity":"school","military":"unknown","base_elevation":72},"geometry":{"type":"Polygon","coordinates":[[[-106.902679,40.508184],[-106.899196,40.508115],[-106.89925,40.505808],[-106.899979,40.505622],[-106.901285,40.505632],[-106.902836,40.506048],[-106.902679,40.508184]]]}},{"id":"66","type":"Feature","properties":{"landuse":null,"amenity":"school","military":null,"base_elevation":303},"geometry":{"type":"Point","coordinates":[-107.031163,40.300813]}},{"id":"67","type":"Feature","properties":{"landuse":"quarry","amenity":null,"military":null,"base_elevation":314},"geometry":{"type":"Point","coordinates":[-106.983939,40.316646]}},{"id":"68","type":"Feature","properties":{"landuse":"quarry","amenity":null,"military":null,"base_elevation":283},"geometry":{"type":"Point","coordinates":[-107.007273,40.306646]}},{"id":"69","type":"Feature","properties":{"landuse":"quarry","amenity":null,"military":null,"base_elevation":199},"geometry":{"type":"Point","coordinates":[-107.027829,40.33859]}},{"id":"70","type":"Feature","properties":{"landuse":"quarry","amenity":null,"military":null,"base_elevation":383},"geometry":{"type":"Point","coordinates":[-107.035051,40.300535]}},{"id":"71","type":"Feature","properties":{"landuse":"quarry","amenity":null,"military":null,"base_elevation":107},"geometry":{"type":"Point","coordinates":[-107.043621,40.461101]}},{"id":"72","type":"Feature","properties":{"landuse":"quarry","amenity":null,"military":null,"base_elevation":92},"geometry":{"type":"Point","coordinates":[-107.039497,40.409421]}},{"id":"73","type":"Feature","properties":{"landuse":"quarry","amenity":null,"military":null,"base_elevation":83},"geometry":{"type":"Point","coordinates":[-107.024497,40.460254]}},{"id":"74","type":"Feature","properties":{"landuse":"quarry","amenity":null,"military":null,"base_elevation":105},"geometry":{"type":"Point","coordinates":[-107.030331,40.459143]}},{"id":"75","type":"Feature","properties":{"landuse":"quarry","amenity":null,"military":null,"base_elevation":57},"geometry":{"type":"Point","coordinates":[-107.038942,40.472476]}},{"id":"76","type":"Feature","properties":{"landuse":"quarry","amenity":null,"military":null,"base_elevation":429},"geometry":{"type":"Point","coordinates":[-107.03672,40.535252]}},{"id":"77","type":"Feature","properties":{"landuse":"quarry","amenity":null,"military":null,"base_elevation":237},"geometry":{"type":"Point","coordinates":[-107.038943,40.512197]}},{"id":"78","type":"Feature","properties":{"landuse":"quarry","amenity":null,"military":null,"base_elevation":284},"geometry":{"type":"Point","coordinates":[-106.963383,40.29998]}},{"id":"79","type":"Feature","properties":{"landuse":"quarry","amenity":null,"military":null,"base_elevation":364},"geometry":{"type":"Point","coordinates":[-106.966439,40.297202]}},{"id":"80","type":"Feature","properties":{"landuse":"quarry","amenity":null,"military":null,"base_elevation":273},"geometry":{"type":"Point","coordinates":[-106.96255,40.29998]}},{"id":"81","type":"Feature","properties":{"landuse":"quarry","amenity":null,"military":null,"base_elevation":57},"geometry":{"type":"Point","coordinates":[-106.984774,40.419144]}},{"id":"82","type":"Feature","properties":{"landuse":"quarry","amenity":null,"military":null,"base_elevation":40},"geometry":{"type":"Point","coordinates":[-106.982055,40.484631]}},{"id":"83","type":"Feature","properties":{"landuse":"quarry","amenity":null,"military":null,"base_elevation":484},"geometry":{"type":"Point","coordinates":[-106.765411,40.488399]}},{"id":"84","type":"Feature","properties":{"landuse":"quarry","amenity":null,"military":null,"base_elevation":51},"geometry":{"type":"Point","coordinates":[-106.981719,40.487198]}},{"id":"85","type":"Feature","properties":{"landuse":"quarry","amenity":null,"military":null,"base_elevation":83},"geometry":{"type":"Point","coordinates":[-106.980329,40.398866]}},{"id":"86","type":"Feature","properties":{"landuse":"quarry","amenity":null,"military":null,"base_elevation":910},"geometry":{"type":"Point","coordinates":[-106.609485,40.403592]}},{"id":"87","type":"Feature","properties":{"landuse":"quarry","amenity":null,"military":null,"base_elevation":224},"geometry":{"type":"Point","coordinates":[-106.954494,40.334424]}},{"id":"88","type":"Feature","properties":{"landuse":"quarry","amenity":null,"military":null,"base_elevation":1042},"geometry":{"type":"Point","coordinates":[-106.615318,40.41637]}},{"id":"89","type":"Feature","properties":{"landuse":"quarry","amenity":null,"military":null,"base_elevation":261},"geometry":{"type":"Point","coordinates":[-106.96005,40.315535]}},{"id":"90","type":"Feature","properties":{"landuse":"quarry","amenity":null,"military":null,"base_elevation":317},"geometry":{"type":"Point","coordinates":[-106.966439,40.290813]}},{"id":"91","type":"Feature","properties":{"landuse":"quarry","amenity":null,"military":null,"base_elevation":251},"geometry":{"type":"Point","coordinates":[-106.979495,40.332479]}},{"id":"92","type":"Feature","properties":{"landuse":"quarry","amenity":null,"military":null,"base_elevation":268},"geometry":{"type":"Point","coordinates":[-106.960606,40.324702]}},{"id":"93","type":"Feature","properties":{"landuse":"quarry","amenity":null,"military":null,"base_elevation":713},"geometry":{"type":"Point","coordinates":[-106.752825,40.537477]}},{"id":"94","type":"Feature","properties":{"landuse":"quarry","amenity":null,"military":null,"base_elevation":581},"geometry":{"type":"Point","coordinates":[-106.776992,40.538032]}},{"id":"95","type":"Feature","properties":{"landuse":"quarry","amenity":null,"military":null,"base_elevation":415},"geometry":{"type":"Point","coordinates":[-106.836993,40.552476]}},{"id":"96","type":"Feature","properties":{"landuse":"quarry","amenity":null,"military":null,"base_elevation":449},"geometry":{"type":"Point","coordinates":[-106.848105,40.54692]}},{"id":"97","type":"Feature","properties":{"landuse":"quarry","amenity":null,"military":null,"base_elevation":441},"geometry":{"type":"Point","coordinates":[-106.84366,40.543031]}},{"id":"98","type":"Feature","properties":{"landuse":"quarry","amenity":null,"military":null,"base_elevation":472},"geometry":{"type":"Point","coordinates":[-107.031162,40.293035]}},{"id":"99","type":"Feature","properties":{"landuse":"quarry","amenity":null,"military":null,"base_elevation":361},"geometry":{"type":"Point","coordinates":[-106.974773,40.318868]}},{"id":"100","type":"Feature","properties":{"landuse":"quarry","amenity":null,"military":null,"base_elevation":289},"geometry":{"type":"Point","coordinates":[-107.003662,40.314701]}},{"id":"101","type":"Feature","properties":{"landuse":"quarry","amenity":null,"military":null,"base_elevation":421},"geometry":{"type":"Point","coordinates":[-106.8364,40.5525]}},{"id":"102","type":"Feature","properties":{"landuse":"quarry","amenity":null,"military":null,"base_elevation":126},"geometry":{"type":"Point","coordinates":[-106.8352,40.38367]}},{"id":"103","type":"Feature","properties":{"landuse":"residential","amenity":null,"military":null,"base_elevation":189},"geometry":{"type":"Point","coordinates":[-106.800033,40.460721]}},{"id":"104","type":"Feature","properties":{"landuse":"residential","amenity":null,"military":null,"base_elevation":195},"geometry":{"type":"Point","coordinates":[-106.799691,40.46091]}},{"id":"105","type":"Feature","properties":{"landuse":"residential","amenity":null,"military":null,"base_elevation":195},"geometry":{"type":"Point","coordinates":[-106.799552,40.460775]}}]}