{"type":"FeatureCollection","features":[{"id":"('node', 3708986003)","type":"Feature","properties":{"amenity":"parking","highway":null,"aeroway":null,"base_elevation":877},"geometry":{"type":"Point","coordinates":[-106.722084,40.373728]}},{"id":"('node', 3708986004)","type":"Feature","properties":{"amenity":"parking","highway":null,"aeroway":null,"base_elevation":881},"geometry":{"type":"Point","coordinates":[-106.723258,40.373683]}},{"id":"('node', 3836362571)","type":"Feature","properties":{"amenity":"parking","highway":null,"aeroway":null,"base_elevation":895},"geometry":{"type":"Point","coordinates":[-106.697108,40.383627]}},{"id":"('node', 3836362615)","type":"Feature","properties":{"amenity":"parking","highway":null,"aeroway":null,"base_elevation":860},"geometry":{"type":"Point","coordinates":[-106.716448,40.37969]}},{"id":"('node', 3836369767)","type":"Feature","properties":{"amenity":"parking","highway":null,"aeroway":null,"base_elevation":948},"geometry":{"type":"Point","coordinates":[-106.670938,40.37566]}},{"id":"('node', 3836369774)","type":"Feature","properties":{"amenity":"parking","highway":null,"aeroway":null,"base_elevation":951},"geometry":{"type":"Point","coordinates":[-106.636006,40.387515]}},{"id":"('node', 5003979404)","type":"Feature","properties":{"amenity":"parking","highway":null,"aeroway":null,"base_elevation":133},"geometry":{"type":"Point","coordinates":[-106.817646,40.486593]}},{"id":"('node', 9241299636)","type":"Feature","properties":{"amenity":"parking","highway":null,"aeroway":null,"base_elevation":253},"geometry":{"type":"Point","coordinates":[-106.825218,40.537018]}},{"id":"('node', 13536016461)","type":"Feature","properties":{"amenity":"parking","highway":null,"aeroway":null,"base_elevation":109},"geometry":{"type":"Point","coordinates":[-106.82055,40.459274]}},{"id":"('node', 13783480368)","type":"Feature","properties":{"amenity":"parking","highway":null,"aeroway":null,"base_elevation":101},"geometry":{"type":"Point","coordinates":[-106.828154,40.464886]}},{"id":"('way', 34580215)","type":"Feature","properties":{"amenity":null,"highway":null,"aeroway":"runway","base_elevation":134},"geometry":{"type":"LineString","coordinates":[[-106.862663,40.510835],[-106.863649,40.512304]]}},{"id":"('way', 123286162)","type":"Feature","properties":{"amenity":"parking","highway":null,"aeroway":null,"base_elevation":144},"geometry":{"type":"Polygon","coordinates":[[[-106.809211,40.455985],[-106.807682,40.456068],[-106.807678,40.456019],[-106.807623,40.455329],[-106.807822,40.455227],[-106.808138,40.455164],[-106.808406,40.455144],[-106.808975,40.455168],[-106.809096,40.455266],[-106.809173,40.455328],[-106.809149,40.455504],[-106.809223,40.455786],[-106.809207,40.455906],[-106.809211,40.455985]]]}},{"id":"('way', 123286163)","type":"Feature","properties":{"amenity":"parking","highway":null,"aeroway":null,"base_elevation":166},"geometry":{"type":"Polygon","coordinates":[[[-106.806366,40.459888],[-106.805783,40.459527],[-106.805699,40.459475],[-106.805727,40.459449],[-106.805942,40.459247],[-106.805977,40.459215],[-106.806644,40.459627],[-106.806622,40.459648],[-106.806669,40.459677],[-106.806451,40.459881],[-106.806404,40.459852],[-106.806366,40.459888]]]}},{"id":"('way', 123675980)","type":"Feature","properties":{"amenity":"parking","highway":null,"aeroway":null,"base_elevation":101},"geometry":{"type":"Polygon","coordinates":[[[-106.823493,40.458733],[-106.823412,40.45864],[-106.823347,40.458563],[-106.823352,40.458479],[-106.82336,40.458439],[-106.823475,40.458461],[-106.823566,40.458442],[-106.823635,40.458497],[-106.823678,40.458578],[-106.823673,40.458628],[-106.823493,40.458733]]]}},{"id":"('way', 123683310)","type":"Feature","properties":{"amenity":"parking","highway":null,"aeroway":null,"base_elevation":163},"geometry":{"type":"Polygon","coordinates":[[[-106.806035,40.458651],[-106.805598,40.458647],[-106.805612,40.457809],[-106.806049,40.457814],[-106.806049,40.45788],[-106.806035,40.458651]]]}},{"id":"('way', 123752254)","type":"Feature","properties":{"amenity":"parking","highway":null,"aeroway":null,"base_elevation":115},"geometry":{"type":"Polygon","coordinates":[[[-106.813952,40.458708],[-106.815281,40.458552],[-106.815349,40.458459],[-106.815403,40.458301],[-106.815432,40.456587],[-106.813722,40.456571],[-106.813695,40.458153],[-106.813805,40.458431],[-106.813888,40.458416],[-106.813952,40.458708]]]}},{"id":"('way', 153023735)","type":"Feature","properties":{"amenity":"parking","highway":null,"aeroway":null,"base_elevation":93},"geometry":{"type":"Polygon","coordinates":[[[-106.829255,40.482773],[-106.828847,40.482533],[-106.828989,40.482394],[-106.829226,40.482533],[-106.829396,40.482366],[-106.829567,40.482466],[-106.829255,40.482773]]]}},{"id":"('way', 193784755)","type":"Feature","properties":{"amenity":"parking","highway":null,"aeroway":null,"base_elevation":338},"geometry":{"type":"Polygon","coordinates":[[[-106.848806,40.559996],[-106.848693,40.559854],[-106.847985,40.559925],[-106.848084,40.560088],[-106.848336,40.560217],[-106.848363,40.560294],[-106.848561,40.560341],[-106.848806,40.559996]]]}},{"id":"('way', 200070688)","type":"Feature","properties":{"amenity":null,"highway":null,"aeroway":"taxiway","base_elevation":139},"geometry":{"type":"LineString","coordinates":[[-106.86599,40.516109],[-106.866052,40.516043],[-106.866082,40.515982],[-106.86609,40.515941]]}},{"id":"('way', 200070691)","type":"Feature","properties":{"amenity":null,"highway":null,"aeroway":"taxiway","base_elevation":132},"geometry":{"type":"LineString","coordinates":[[-106.867272,40.518286],[-106.867359,40.518214],[-106.867385,40.518175],[-106.867425,40.518112],[-106.867438,40.518045],[-106.867427,40.517933]]}},{"id":"('way', 217451177)","type":"Feature","properties":{"amenity":"parking","highway":null,"aeroway":null,"base_elevation":241},"geometry":{"type":"Polygon","coordinates":[[[-106.855854,40.284845],[-106.856476,40.284377],[-106.856233,40.284271],[-106.855623,40.284145],[-106.855444,40.284107],[-106.855344,40.284103],[-106.854639,40.284499],[-106.854614,40.284567],[-106.854591,40.284631],[-106.854973,40.284697],[-106.855363,40.284777],[-106.855556,40.284779],[-106.855662,40.284784],[-106.855854,40.284845]]]}},{"id":"('way', 218397425)","type":"Feature","properties":{"amenity":"parking","highway":null,"aeroway":null,"base_elevation":132},"geometry":{"type":"Polygon","coordinates":[[[-106.864365,40.518463],[-106.8635,40.517168],[-106.863603,40.517129],[-106.864072,40.516949],[-106.864529,40.517658],[-106.864651,40.517612],[-106.864743,40.517744],[-106.864619,40.517788],[-106.86469,40.517898],[-106.864695,40.518055],[-106.864609,40.518238],[-106.864497,40.518371],[-106.864365,40.518463]]]}},{"id":"('way', 218397427)","type":"Feature","properties":{"amenity":null,"highway":null,"aeroway":"apron","base_elevation":131},"geometry":{"type":"Polygon","coordinates":[[[-106.864196,40.516132],[-106.864695,40.51594],[-106.864732,40.516006],[-106.865046,40.516009],[-106.865274,40.516231],[-106.865433,40.516461],[-106.865513,40.516698],[-106.866494,40.518141],[-106.86662,40.518295],[-106.866743,40.51834],[-106.866802,40.518347],[-106.866872,40.518327],[-106.866982,40.518487],[-106.866803,40.518557],[-106.866044,40.518864],[-106.864981,40.519274],[-106.86522,40.519631],[-106.865201,40.519698],[-106.864821,40.519841],[-106.864763,40.519863],[-106.864711,40.519767],[-106.864724,40.519621],[-106.864284,40.519599],[-106.86371,40.519241],[-106.864008,40.519017],[-106.864487,40.519343],[-106.864569,40.519304],[-106.864505,40.519001],[-106.864548,40.518981],[-106.864553,40.518948],[-106.864409,40.518733],[-106.864866,40.518356],[-106.864819,40.518279],[-106.86485,40.51816],[-106.864845,40.518008],[-106.864869,40.517756],[-106.865193,40.517622],[-106.8646,40.516733],[-106.864501,40.516585],[-106.864196,40.516132]]]}},{"id":"('way', 221153997)","type":"Feature","properties":{"amenity":"parking","highway":null,"aeroway":null,"base_elevation":80},"geometry":{"type":"Polygon","coordinates":[[[-106.900762,40.51143],[-106.900565,40.511355],[-106.900422,40.511548],[-106.900635,40.511632],[-106.900762,40.51143]]]}},{"id":"('way', 229486221)","type":"Feature","properties":{"amenity":"parking","highway":null,"aeroway":null,"base_elevation":83},"geometry":{"type":"Polygon","coordinates":[[[-106.84145,40.489365],[-106.841212,40.48945],[-106.841464,40.489658],[-106.841662,40.489518],[-106.84145,40.489365]]]}},{"id":"('way', 229487485)","type":"Feature","properties":{"amenity":"parking","highway":null,"aeroway":null,"base_elevation":320},"geometry":{"type":"Polygon","coordinates":[[[-106.781556,40.482304],[-106.781015,40.482372],[-106.781056,40.482524],[-106.781217,40.482523],[-106.781395,40.482498],[-106.781579,40.48246],[-106.781556,40.482304]]]}},{"id":"('way', 229487486)","type":"Feature","properties":{"amenity":"parking","highway":null,"aeroway":null,"base_elevation":349},"geometry":{"type":"Polygon","coordinates":[[[-106.776434,40.481814],[-106.776353,40.481801],[-106.776264,40.481758],[-106.776239,40.481693],[-106.776229,40.481658],[-106.776249,40.481608],[-106.776295,40.481557],[-106.776468,40.481506],[-106.777165,40.481371],[-106.77727,40.481371],[-106.777384,40.481392],[-106.777501,40.481441],[-106.777507,40.481499],[-106.777513,40.481546],[-106.777347,40.481576],[-106.777216,40.481616],[-106.777107,40.481671],[-106.776851,40.481724],[-106.776676,40.481723],[-106.776546,40.481785],[-106.776434,40.481814]]]}},{"id":"('way', 233803864)","type":"Feature","properties":{"amenity":null,"highway":null,"aeroway":"runway","base_elevation":118},"geometry":{"type":"LineString","coordinates":[[-106.863649,40.512304],[-106.86609,40.515941],[-106.866264,40.516198],[-106.867427,40.517933],[-106.86776,40.518447],[-106.869926,40.521656]]}},{"id":"('way', 233805297)","type":"Feature","properties":{"amenity":"parking","highway":null,"aeroway":null,"base_elevation":93},"geometry":{"type":"Polygon","coordinates":[[[-106.864423,40.506818],[-106.86474,40.506844],[-106.86477,40.506633],[-106.864453,40.506607],[-106.864423,40.506818]]]}},{"id":"('way', 234301652)","type":"Feature","properties":{"amenity":"parking","highway":null,"aeroway":null,"base_elevation":92},"geometry":{"type":"Polygon","coordinates":[[[-106.834373,40.487248],[-106.833903,40.486963],[-106.834248,40.486635],[-106.834718,40.486921],[-106.834373,40.487248]]]}},{"id":"('way', 234301653)","type":"Feature","properties":{"amenity":"parking","highway":null,"aeroway":null,"base_elevation":97},"geometry":{"type":"Polygon","coordinates":[[[-106.829429,40.48431],[-106.82857,40.483814],[-106.828978,40.483406],[-106.829836,40.483901],[-106.829429,40.48431]]]}},{"id":"('way', 234301654)","type":"Feature","properties":{"amenity":"parking","highway":null,"aeroway":null,"base_elevation":98},"geometry":{"type":"Polygon","coordinates":[[[-106.829947,40.484548],[-106.829837,40.484486],[-106.830008,40.484313],[-106.830117,40.484375],[-106.829947,40.484548]]]}},{"id":"('way', 234301656)","type":"Feature","properties":{"amenity":"parking","highway":null,"aeroway":null,"base_elevation":90},"geometry":{"type":"Polygon","coordinates":[[[-106.834834,40.487525],[-106.834489,40.487314],[-106.834653,40.487158],[-106.834999,40.487368],[-106.834834,40.487525]]]}},{"id":"('way', 234301658)","type":"Feature","properties":{"amenity":"parking","highway":null,"aeroway":null,"base_elevation":95},"geometry":{"type":"Polygon","coordinates":[[[-106.83132,40.48537],[-106.830784,40.485057],[-106.831092,40.484753],[-106.831554,40.485024],[-106.831421,40.485155],[-106.831494,40.485198],[-106.83132,40.48537]]]}},{"id":"('way', 234579354)","type":"Feature","properties":{"amenity":"parking","highway":null,"aeroway":null,"base_elevation":112},"geometry":{"type":"Polygon","coordinates":[[[-106.825511,40.485473],[-106.824487,40.486492],[-106.82438,40.486545],[-106.824246,40.486562],[-106.823802,40.486562],[-106.823813,40.48612],[-106.824364,40.48556],[-106.824432,40.485523],[-106.824506,40.485497],[-106.825304,40.485371],[-106.825511,40.485473]]]}},{"id":"('way', 234579355)","type":"Feature","properties":{"amenity":"parking","highway":null,"aeroway":null,"base_elevation":115},"geometry":{"type":"Polygon","coordinates":[[[-106.821923,40.486555],[-106.822217,40.486558],[-106.822216,40.486619],[-106.822403,40.486621],[-106.822412,40.486171],[-106.822247,40.486169],[-106.822248,40.486094],[-106.822085,40.486092],[-106.822087,40.485957],[-106.822166,40.485958],[-106.822174,40.485507],[-106.822116,40.485506],[-106.822125,40.485003],[-106.821951,40.485002],[-106.821923,40.486555]]]}},{"id":"('way', 234704975)","type":"Feature","properties":{"amenity":"parking","highway":null,"aeroway":null,"base_elevation":132},"geometry":{"type":"Polygon","coordinates":[[[-106.819973,40.496127],[-106.819211,40.496294],[-106.81902,40.496291],[-106.818696,40.496362],[-106.818392,40.496319],[-106.818345,40.496234],[-106.818118,40.495635],[-106.818303,40.495595],[-106.818523,40.495546],[-106.818593,40.495565],[-106.818785,40.495522],[-106.818853,40.495474],[-106.818992,40.495438],[-106.819065,40.49542],[-106.819102,40.495411],[-106.819967,40.495224],[-106.820025,40.495235],[-106.820123,40.495276],[-106.820211,40.49534],[-106.820143,40.495579],[-106.820164,40.495866],[-106.820173,40.495975],[-106.820139,40.496044],[-106.820087,40.496096],[-106.819973,40.496127]]]}},{"id":"('way', 237694605)","type":"Feature","properties":{"amenity":"parking","highway":null,"aeroway":null,"base_elevation":110},"geometry":{"type":"Polygon","coordinates":[[[-106.814964,40.455174],[-106.815443,40.455173],[-106.815464,40.454911],[-106.815203,40.45491],[-106.814965,40.45488],[-106.814712,40.454892],[-106.814594,40.454948],[-106.814581,40.454995],[-106.814514,40.455026],[-106.814306,40.455191],[-106.814421,40.455255],[-106.814734,40.455022],[-106.814944,40.454994],[-106.814964,40.455174]]]}},{"id":"('way', 237710210)","type":"Feature","properties":{"amenity":"parking","highway":null,"aeroway":null,"base_elevation":159},"geometry":{"type":"Polygon","coordinates":[[[-106.801154,40.455505],[-106.801211,40.45582],[-106.801392,40.455802],[-106.801329,40.455448],[-106.801095,40.455147],[-106.800933,40.455221],[-106.801154,40.455505]]]}},{"id":"('way', 238213704)","type":"Feature","properties":{"amenity":"parking","highway":null,"aeroway":null,"base_elevation":113},"geometry":{"type":"Polygon","coordinates":[[[-106.80896,40.4421],[-106.808559,40.442222],[-106.8085,40.442177],[-106.808458,40.442182],[-106.808415,40.442195],[-106.808379,40.442214],[-106.808348,40.442238],[-106.808295,40.442136],[-106.808913,40.441949],[-106.80896,40.4421]]]}},{"id":"('way', 238463924)","type":"Feature","properties":{"amenity":"parking","highway":null,"aeroway":null,"base_elevation":103},"geometry":{"type":"Polygon","coordinates":[[[-106.826679,40.46506],[-106.826608,40.465059],[-106.826606,40.465113],[-106.826249,40.465108],[-106.82625,40.465054],[-106.826171,40.465053],[-106.826178,40.464739],[-106.82662,40.464745],[-106.826618,40.464774],[-106.826618,40.46484],[-106.826684,40.464841],[-106.826679,40.46506]]]}},{"id":"('way', 238463934)","type":"Feature","properties":{"amenity":"parking","highway":null,"aeroway":null,"base_elevation":96},"geometry":{"type":"Polygon","coordinates":[[[-106.829269,40.471826],[-106.829262,40.472373],[-106.829256,40.472481],[-106.829166,40.472482],[-106.828954,40.472479],[-106.828729,40.472475],[-106.828581,40.472473],[-106.828492,40.472471],[-106.828491,40.472407],[-106.829056,40.472398],[-106.82906,40.472447],[-106.829112,40.472445],[-106.829119,40.47236],[-106.828523,40.472367],[-106.828522,40.472335],[-106.828309,40.472325],[-106.828277,40.471829],[-106.829269,40.471826]]]}},{"id":"('way', 238463935)","type":"Feature","properties":{"amenity":"parking","highway":null,"aeroway":null,"base_elevation":102},"geometry":{"type":"Polygon","coordinates":[[[-106.827219,40.465106],[-106.82707,40.465105],[-106.827092,40.464168],[-106.827241,40.46417],[-106.827219,40.465106]]]}},{"id":"('way', 238463940)","type":"Feature","properties":{"amenity":"parking","highway":null,"aeroway":null,"base_elevation":102},"geometry":{"type":"Polygon","coordinates":[[[-106.827225,40.463773],[-106.827072,40.463773],[-106.827071,40.463507],[-106.827224,40.463506],[-106.827225,40.463773]]]}},{"id":"('way', 238463942)","type":"Feature","properties":{"amenity":"parking","highway":null,"aeroway":null,"base_elevation":101},"geometry":{"type":"Polygon","coordinates":[[[-106.82782,40.464175],[-106.827799,40.465065],[-106.82762,40.465062],[-106.827629,40.464693],[-106.827533,40.464695],[-106.827539,40.464597],[-106.827633,40.464596],[-106.827638,40.464181],[-106.82782,40.464175]]]}},{"id":"('way', 238463946)","type":"Feature","properties":{"amenity":"parking","highway":null,"aeroway":null,"base_elevation":101},"geometry":{"type":"Polygon","coordinates":[[[-106.827672,40.46415],[-106.827632,40.46415],[-106.827262,40.464145],[-106.82727,40.463819],[-106.82781,40.463827],[-106.827805,40.464077],[-106.827673,40.464116],[-106.827672,40.46415]]]}},{"id":"('way', 241701347)","type":"Feature","properties":{"amenity":"parking","highway":null,"aeroway":null,"base_elevation":265},"geometry":{"type":"Polygon","coordinates":[[[-106.860629,40.286638],[-106.860524,40.286701],[-106.859813,40.28629],[-106.859787,40.286229],[-106.859958,40.286227],[-106.860629,40.286638]]]}},{"id":"('way', 241738423)","type":"Feature","properties":{"amenity":"parking","highway":null,"aeroway":null,"base_elevation":241},"geometry":{"type":"Polygon","coordinates":[[[-106.856831,40.28601],[-106.85668,40.286075],[-106.855704,40.285296],[-106.855782,40.285175],[-106.856466,40.285666],[-106.856831,40.28601]]]}},{"id":"('way', 241742589)","type":"Feature","properties":{"amenity":"parking","highway":null,"aeroway":null,"base_elevation":250},"geometry":{"type":"Polygon","coordinates":[[[-106.831467,40.286814],[-106.831394,40.286664],[-106.831861,40.286558],[-106.831884,40.286653],[-106.831925,40.286751],[-106.831639,40.286804],[-106.831467,40.286814]]]}},{"id":"('way', 241742591)","type":"Feature","properties":{"amenity":"parking","highway":null,"aeroway":null,"base_elevation":225},"geometry":{"type":"Polygon","coordinates":[[[-106.825132,40.288747],[-106.824878,40.288739],[-106.824875,40.288559],[-106.825135,40.288561],[-106.825132,40.288747]]]}},{"id":"('way', 241742592)","type":"Feature","properties":{"amenity":"parking","highway":null,"aeroway":null,"base_elevation":182},"geometry":{"type":"Polygon","coordinates":[[[-106.805418,40.297945],[-106.804788,40.297553],[-106.804962,40.297487],[-106.805397,40.297855],[-106.805418,40.297945]]]}},{"id":"('way', 256931530)","type":"Feature","properties":{"amenity":"parking","highway":null,"aeroway":null,"base_elevation":100},"geometry":{"type":"Polygon","coordinates":[[[-106.887258,40.566969],[-106.887121,40.566955],[-106.886571,40.566896],[-106.886517,40.567169],[-106.886819,40.567268],[-106.887167,40.567383],[-106.887258,40.566969]]]}},{"id":"('way', 380292891)","type":"Feature","properties":{"amenity":"parking","highway":null,"aeroway":null,"base_elevation":940},"geometry":{"type":"Polygon","coordinates":[[[-106.681365,40.385616],[-106.681135,40.385506],[-106.680837,40.385455],[-106.680549,40.385506],[-106.680247,40.385675],[-106.680136,40.385784],[-106.68004,40.385916],[-106.68005,40.386428],[-106.681365,40.385616]]]}},{"id":"('way', 380293674)","type":"Feature","properties":{"amenity":"parking","highway":null,"aeroway":null,"base_elevation":949},"geometry":{"type":"Polygon","coordinates":[[[-106.636248,40.389181],[-106.635146,40.389201],[-106.635105,40.388984],[-106.635115,40.388887],[-106.63619,40.388889],[-106.636248,40.389181]]]}},{"id":"('way', 380293676)","type":"Feature","properties":{"amenity":"parking","highway":null,"aeroway":null,"base_elevation":925},"geometry":{"type":"Polygon","coordinates":[[[-106.619413,40.387672],[-106.620009,40.387832],[-106.619575,40.388257],[-106.61943,40.388193],[-106.619069,40.388032],[-106.618885,40.387962],[-106.618626,40.388051],[-106.618304,40.387943],[-106.618299,40.387845],[-106.618009,40.387687],[-106.618118,40.387476],[-106.618208,40.387304],[-106.618645,40.38727],[-106.619224,40.387484],[-106.619413,40.387672]]]}},{"id":"('way', 435242117)","type":"Feature","properties":{"amenity":"parking","highway":null,"aeroway":null,"base_elevation":948},"geometry":{"type":"Polygon","coordinates":[[[-106.62682,40.403718],[-106.626699,40.403749],[-106.626669,40.403839],[-106.626557,40.403792],[-106.626648,40.403694],[-106.626677,40.403585],[-106.626661,40.403506],[-106.626752,40.403494],[-106.626806,40.403555],[-106.626814,40.403654],[-106.62682,40.403718]]]}},{"id":"('way', 435242120)","type":"Feature","properties":{"amenity":"parking","highway":null,"aeroway":null,"base_elevation":960},"geometry":{"type":"Polygon","coordinates":[[[-106.618148,40.400912],[-106.617987,40.400949],[-106.617949,40.400785],[-106.6181,40.400757],[-106.618148,40.400912]]]}},{"id":"('way', 435242121)","type":"Feature","properties":{"amenity":"parking","highway":null,"aeroway":null,"base_elevation":960},"geometry":{"type":"Polygon","coordinates":[[[-106.618161,40.401367],[-106.618035,40.401051],[-106.618132,40.401026],[-106.618207,40.401141],[-106.618368,40.401145],[-106.618389,40.40132],[-106.618161,40.401367]]]}},{"id":"('way', 435242122)","type":"Feature","properties":{"amenity":"parking","highway":null,"aeroway":null,"base_elevation":945},"geometry":{"type":"Polygon","coordinates":[[[-106.626494,40.402614],[-106.6265,40.402364],[-106.626641,40.402344],[-106.626734,40.402354],[-106.626731,40.402505],[-106.626728,40.402636],[-106.626651,40.402666],[-106.626543,40.402656],[-106.626494,40.402614]]]}},{"id":"('way', 435742409)","type":"Feature","properties":{"amenity":"parking","highway":null,"aeroway":null,"base_elevation":87},"geometry":{"type":"Polygon","coordinates":[[[-106.834235,40.4828],[-106.834055,40.482984],[-106.833026,40.482488],[-106.833144,40.48236],[-106.833481,40.4825],[-106.833637,40.482517],[-106.833763,40.482447],[-106.833892,40.482527],[-106.834002,40.482635],[-106.834045,40.482696],[-106.834235,40.4828]]]}},{"id":"('way', 435742410)","type":"Feature","properties":{"amenity":"parking","highway":null,"aeroway":null,"base_elevation":87},"geometry":{"type":"Polygon","coordinates":[[[-106.833026,40.482488],[-106.832907,40.4826],[-106.83257,40.482435],[-106.832468,40.482368],[-106.832387,40.482262],[-106.832328,40.482145],[-106.832299,40.482041],[-106.832309,40.481903],[-106.832352,40.481752],[-106.83239,40.481693],[-106.833052,40.481984],[-106.83284,40.482235],[-106.833144,40.48236],[-106.833026,40.482488]]]}},{"id":"('way', 435742411)","type":"Feature","properties":{"amenity":"parking","highway":null,"aeroway":null,"base_elevation":85},"geometry":{"type":"Polygon","coordinates":[[[-106.838423,40.485366],[-106.838243,40.485472],[-106.838218,40.485452],[-106.837876,40.485179],[-106.837841,40.485202],[-106.837574,40.485016],[-106.837591,40.484997],[-106.837116,40.484644],[-106.837398,40.48434],[-106.837237,40.484256],[-106.83765,40.483789],[-106.837382,40.483628],[-106.837684,40.483306],[-106.838189,40.483571],[-106.837449,40.484377],[-106.838085,40.484771],[-106.838423,40.485366]]]}},{"id":"('way', 435742412)","type":"Feature","properties":{"amenity":"parking","highway":null,"aeroway":null,"base_elevation":85},"geometry":{"type":"Polygon","coordinates":[[[-106.83656,40.484438],[-106.836606,40.484373],[-106.835563,40.483829],[-106.835492,40.483921],[-106.83656,40.484438]]]}},{"id":"('way', 435742417)","type":"Feature","properties":{"amenity":"parking","highway":null,"aeroway":null,"base_elevation":90},"geometry":{"type":"Polygon","coordinates":[[[-106.835917,40.482531],[-106.835876,40.482492],[-106.835812,40.482431],[-106.835606,40.482307],[-106.834761,40.481923],[-106.834903,40.481766],[-106.835021,40.481827],[-106.835056,40.481794],[-106.835461,40.481997],[-106.836142,40.482337],[-106.835917,40.482531]]]}},{"id":"('way', 435742418)","type":"Feature","properties":{"amenity":"parking","highway":null,"aeroway":null,"base_elevation":88},"geometry":{"type":"Polygon","coordinates":[[[-106.83192,40.481921],[-106.83258,40.481305],[-106.832202,40.481066],[-106.83162,40.481595],[-106.831749,40.481668],[-106.831816,40.481727],[-106.831853,40.481772],[-106.83188,40.481823],[-106.831878,40.48189],[-106.83192,40.481921]]]}},{"id":"('way', 435742419)","type":"Feature","properties":{"amenity":"parking","highway":null,"aeroway":null,"base_elevation":86},"geometry":{"type":"Polygon","coordinates":[[[-106.836188,40.48307],[-106.836204,40.48331],[-106.836076,40.483469],[-106.835552,40.483781],[-106.835466,40.483707],[-106.835703,40.483592],[-106.836018,40.483372],[-106.83611,40.483229],[-106.836116,40.483067],[-106.836188,40.48307]]]}},{"id":"('way', 463675825)","type":"Feature","properties":{"amenity":"parking","highway":null,"aeroway":null,"base_elevation":106},"geometry":{"type":"Polygon","coordinates":[[[-106.820793,40.462364],[-106.821097,40.462612],[-106.822406,40.46269],[-106.822717,40.462519],[-106.822872,40.460961],[-106.822342,40.460931],[-106.822084,40.460755],[-106.821419,40.460707],[-106.821381,40.461004],[-106.821591,40.461278],[-106.822017,40.461312],[-106.821912,40.462054],[-106.821301,40.462004],[-106.820793,40.462364]]]}},{"id":"('way', 511768094)","type":"Feature","properties":{"amenity":"parking","highway":null,"aeroway":null,"base_elevation":386},"geometry":{"type":"Polygon","coordinates":[[[-106.841548,40.555817],[-106.84146,40.555877],[-106.841337,40.55601],[-106.841262,40.556095],[-106.841199,40.556167],[-106.841136,40.556232],[-106.841176,40.556278],[-106.841263,40.556293],[-106.841352,40.55628],[-106.841385,40.556166],[-106.841421,40.556054],[-106.841495,40.555947],[-106.841568,40.555887],[-106.841548,40.555817]]]}},{"id":"('way', 512666941)","type":"Feature","properties":{"amenity":"parking","highway":null,"aeroway":null,"base_elevation":78},"geometry":{"type":"Polygon","coordinates":[[[-106.848511,40.493464],[-106.848572,40.493509],[-106.84887,40.493466],[-106.848892,40.49359],[-106.849388,40.49354],[-106.849491,40.493547],[-106.8495,40.493494],[-106.849496,40.493455],[-106.849616,40.493468],[-106.849847,40.493523],[-106.849886,40.493428],[-106.849592,40.493357],[-106.849401,40.493347],[-106.848781,40.493412],[-106.848511,40.493464]]]}},{"id":"('way', 512666942)","type":"Feature","properties":{"amenity":"parking","highway":null,"aeroway":null,"base_elevation":78},"geometry":{"type":"Polygon","coordinates":[[[-106.84988,40.493707],[-106.85018,40.493763],[-106.850224,40.493613],[-106.849962,40.493551],[-106.84988,40.493707]]]}},{"id":"('way', 512666943)","type":"Feature","properties":{"amenity":"parking","highway":null,"aeroway":null,"base_elevation":79},"geometry":{"type":"Polygon","coordinates":[[[-106.84972,40.493583],[-106.849644,40.493811],[-106.849566,40.493796],[-106.849538,40.493873],[-106.848506,40.493714],[-106.848503,40.493663],[-106.848409,40.493596],[-106.848511,40.493464],[-106.848572,40.493509],[-106.848604,40.493533],[-106.848654,40.49359],[-106.848669,40.493621],[-106.848709,40.493645],[-106.848726,40.493587],[-106.849445,40.493684],[-106.849491,40.493547],[-106.8495,40.493494],[-106.849602,40.493513],[-106.849649,40.493563],[-106.84972,40.493583]]]}},{"id":"('way', 512710827)","type":"Feature","properties":{"amenity":"parking","highway":null,"aeroway":null,"base_elevation":83},"geometry":{"type":"Polygon","coordinates":[[[-106.840344,40.488758],[-106.840489,40.488813],[-106.840714,40.488948],[-106.840913,40.489153],[-106.840952,40.4892],[-106.841125,40.489159],[-106.841067,40.489054],[-106.840964,40.488933],[-106.840866,40.488833],[-106.840736,40.488757],[-106.840521,40.48864],[-106.840422,40.488673],[-106.840348,40.488698],[-106.840344,40.488758]]]}},{"id":"('way', 512710831)","type":"Feature","properties":{"amenity":"parking","highway":null,"aeroway":null,"base_elevation":83},"geometry":{"type":"Polygon","coordinates":[[[-106.83989,40.48781],[-106.839806,40.487886],[-106.839364,40.488327],[-106.839248,40.488418],[-106.839149,40.488363],[-106.83973,40.487783],[-106.839661,40.487741],[-106.839465,40.48762],[-106.839507,40.487538],[-106.839584,40.487585],[-106.83973,40.487676],[-106.839818,40.487718],[-106.83989,40.48781]]]}},{"id":"('way', 513739713)","type":"Feature","properties":{"amenity":"parking","highway":null,"aeroway":null,"base_elevation":303},"geometry":{"type":"Polygon","coordinates":[[[-106.786957,40.465209],[-106.786961,40.464999],[-106.786924,40.46483],[-106.786812,40.46467],[-106.786677,40.464687],[-106.786549,40.464789],[-106.786957,40.465209]]]}},{"id":"('way', 592489642)","type":"Feature","properties":{"amenity":"parking","highway":null,"aeroway":null,"base_elevation":116},"geometry":{"type":"Polygon","coordinates":[[[-106.817892,40.459232],[-106.8177,40.459477],[-106.816651,40.459003],[-106.816842,40.458758],[-106.817892,40.459232]]]}},{"id":"('way', 623977129)","type":"Feature","properties":{"amenity":"parking","highway":null,"aeroway":null,"base_elevation":118},"geometry":{"type":"Polygon","coordinates":[[[-106.81417,40.427839],[-106.812919,40.427052],[-106.812994,40.426987],[-106.81309,40.426947],[-106.81308,40.426895],[-106.813223,40.426884],[-106.813367,40.426881],[-106.813483,40.426885],[-106.813572,40.426896],[-106.813641,40.426914],[-106.813711,40.426936],[-106.813782,40.426971],[-106.813851,40.427005],[-106.81381,40.427045],[-106.813886,40.42709],[-106.81393,40.427052],[-106.81426,40.427261],[-106.814188,40.427329],[-106.814227,40.427355],[-106.814197,40.427383],[-106.814369,40.427506],[-106.814392,40.427448],[-106.814387,40.427353],[-106.814339,40.427247],[-106.814123,40.427107],[-106.814183,40.427043],[-106.814418,40.427192],[-106.814441,40.42724],[-106.814508,40.427431],[-106.814514,40.427477],[-106.81451,40.427516],[-106.814488,40.427552],[-106.814449,40.427595],[-106.81417,40.427839]]]}},{"id":"('way', 623988883)","type":"Feature","properties":{"amenity":"parking","highway":null,"aeroway":null,"base_elevation":154},"geometry":{"type":"Polygon","coordinates":[[[-106.799663,40.41749],[-106.799616,40.417476],[-106.799503,40.417466],[-106.799429,40.417575],[-106.798696,40.417591],[-106.798664,40.417597],[-106.798645,40.417611],[-106.798639,40.417642],[-106.798643,40.417674],[-106.798662,40.417691],[-106.79869,40.417693],[-106.799561,40.417596],[-106.799667,40.417591],[-106.799696,40.417657],[-106.799754,40.417718],[-106.799666,40.417748],[-106.798723,40.417856],[-106.798664,40.417852],[-106.798597,40.417823],[-106.798532,40.41779],[-106.798499,40.417748],[-106.79847,40.417638],[-106.798462,40.417582],[-106.798477,40.417531],[-106.798517,40.41747],[-106.798592,40.41742],[-106.798741,40.4174],[-106.799611,40.4174],[-106.799663,40.41749]]]}},{"id":"('way', 681023967)","type":"Feature","properties":{"amenity":"parking","highway":null,"aeroway":null,"base_elevation":98},"geometry":{"type":"Polygon","coordinates":[[[-106.830224,40.491436],[-106.830346,40.491438],[-106.830363,40.49067],[-106.830241,40.490668],[-106.830224,40.491436]]]}},{"id":"('way', 681023968)","type":"Feature","properties":{"amenity":"parking","highway":null,"aeroway":null,"base_elevation":98},"geometry":{"type":"Polygon","coordinates":[[[-106.82951,40.490443],[-106.829378,40.490608],[-106.829958,40.490586],[-106.830027,40.490424],[-106.82951,40.490443]]]}},{"id":"('way', 681023986)","type":"Feature","properties":{"amenity":"parking","highway":null,"aeroway":null,"base_elevation":101},"geometry":{"type":"Polygon","coordinates":[[[-106.828016,40.483795],[-106.827482,40.483464],[-106.827186,40.483733],[-106.827738,40.484056],[-106.828016,40.483795]]]}},{"id":"('way', 681023990)","type":"Feature","properties":{"amenity":"parking","highway":null,"aeroway":null,"base_elevation":92},"geometry":{"type":"Polygon","coordinates":[[[-106.828196,40.48204],[-106.828289,40.482128],[-106.82861,40.482117],[-106.828658,40.482163],[-106.829012,40.48187],[-106.829144,40.481968],[-106.829156,40.482029],[-106.829093,40.482064],[-106.829055,40.482035],[-106.828839,40.482226],[-106.828878,40.482258],[-106.82889,40.482461],[-106.829325,40.482052],[-106.828906,40.48177],[-106.828196,40.48204]]]}},{"id":"('way', 1001173057)","type":"Feature","properties":{"amenity":"parking","highway":null,"aeroway":null,"base_elevation":252},"geometry":{"type":"Polygon","coordinates":[[[-106.824519,40.53755],[-106.824772,40.537629],[-106.824927,40.537456],[-106.824973,40.537284],[-106.82493,40.537297],[-106.824784,40.53734],[-106.824677,40.537402],[-106.824519,40.53755]]]}},{"id":"('way', 1001173671)","type":"Feature","properties":{"amenity":"parking","highway":null,"aeroway":null,"base_elevation":249},"geometry":{"type":"Polygon","coordinates":[[[-106.82493,40.537297],[-106.824915,40.5371],[-106.824969,40.53681],[-106.824819,40.536758],[-106.824796,40.536652],[-106.82521,40.536755],[-106.825435,40.536904],[-106.825433,40.537004],[-106.825475,40.537042],[-106.825326,40.537122],[-106.825264,40.537204],[-106.825175,40.537132],[-106.825057,40.537175],[-106.825009,40.53722],[-106.824973,40.537284],[-106.82493,40.537297]]]}},{"id":"('way', 1001179697)","type":"Feature","properties":{"amenity":"parking","highway":null,"aeroway":null,"base_elevation":273},"geometry":{"type":"Polygon","coordinates":[[[-106.825664,40.537942],[-106.82569,40.537884],[-106.825493,40.537854],[-106.825524,40.537913],[-106.825588,40.537944],[-106.825664,40.537942]]]}},{"id":"('way', 1002178285)","type":"Feature","properties":{"amenity":"parking","highway":null,"aeroway":null,"base_elevation":111},"geometry":{"type":"Polygon","coordinates":[[[-106.826358,40.429074],[-106.826496,40.429068],[-106.826537,40.429266],[-106.826293,40.429272],[-106.826276,40.428894],[-106.826358,40.429074]]]}},{"id":"('way', 1002178286)","type":"Feature","properties":{"amenity":"parking","highway":null,"aeroway":null,"base_elevation":115},"geometry":{"type":"Polygon","coordinates":[[[-106.828878,40.432812],[-106.828447,40.432701],[-106.828382,40.43293],[-106.828716,40.433029],[-106.828878,40.432812]]]}},{"id":"('way', 1106456430)","type":"Feature","properties":{"amenity":"parking","highway":null,"aeroway":null,"base_elevation":152},"geometry":{"type":"Polygon","coordinates":[[[-106.807473,40.45589],[-106.807019,40.455913],[-106.807169,40.455616],[-106.807318,40.455406],[-106.807431,40.455355],[-106.807473,40.45589]]]}},{"id":"('way', 1107817785)","type":"Feature","properties":{"amenity":"parking","highway":null,"aeroway":null,"base_elevation":112},"geometry":{"type":"Polygon","coordinates":[[[-106.81855,40.458453],[-106.818128,40.458246],[-106.818375,40.457943],[-106.818818,40.458165],[-106.81855,40.458453]]]}},{"id":"('way', 1159681593)","type":"Feature","properties":{"amenity":"parking","highway":null,"aeroway":null,"base_elevation":120},"geometry":{"type":"Polygon","coordinates":[[[-106.917407,40.454074],[-106.917744,40.454396],[-106.917039,40.453963],[-106.917406,40.453738],[-106.917407,40.454074]]]}},{"id":"('way', 1173779123)","type":"Feature","properties":{"amenity":"parking","highway":null,"aeroway":null,"base_elevation":252},"geometry":{"type":"Polygon","coordinates":[[[-106.847186,40.285967],[-106.846825,40.285999],[-106.846744,40.285834],[-106.846825,40.285818],[-106.846868,40.28589],[-106.847168,40.285864],[-106.847186,40.285967]]]}},{"id":"('way', 1174365752)","type":"Feature","properties":{"amenity":"parking","highway":null,"aeroway":null,"base_elevation":111},"geometry":{"type":"Polygon","coordinates":[[[-106.81823,40.457197],[-106.817242,40.457559],[-106.81747,40.457918],[-106.818474,40.457587],[-106.81823,40.457197]]]}},{"id":"('way', 1174379472)","type":"Feature","properties":{"amenity":"parking","highway":null,"aeroway":null,"base_elevation":89},"geometry":{"type":"Polygon","coordinates":[[[-106.834095,40.484904],[-106.834025,40.484857],[-106.83395,40.484678],[-106.83367,40.484491],[-106.833574,40.48441],[-106.833684,40.484316],[-106.834298,40.484692],[-106.834095,40.484904]]]}},{"id":"('way', 1174379473)","type":"Feature","properties":{"amenity":"parking","highway":null,"aeroway":null,"base_elevation":96},"geometry":{"type":"Polygon","coordinates":[[[-106.828685,40.483362],[-106.828519,40.48327],[-106.828577,40.483227],[-106.828274,40.483042],[-106.828622,40.482751],[-106.829021,40.483023],[-106.828685,40.483362]]]}},{"id":"('way', 1174428839)","type":"Feature","properties":{"amenity":"parking","highway":null,"aeroway":null,"base_elevation":73},"geometry":{"type":"Polygon","coordinates":[[[-106.860572,40.502255],[-106.86044,40.502252],[-106.860266,40.502248],[-106.860153,40.502245],[-106.860152,40.502185],[-106.860137,40.501677],[-106.860419,40.501674],[-106.86054,40.501673],[-106.860572,40.502255]]]}},{"id":"('way', 1174428840)","type":"Feature","properties":{"amenity":"parking","highway":null,"aeroway":null,"base_elevation":72},"geometry":{"type":"Polygon","coordinates":[[[-106.859613,40.50108],[-106.85932,40.500996],[-106.859329,40.500682],[-106.859342,40.500269],[-106.859344,40.500186],[-106.859438,40.500223],[-106.859556,40.500205],[-106.85971,40.500223],[-106.859865,40.500258],[-106.860169,40.500366],[-106.859613,40.50108]]]}},{"id":"('way', 1221874293)","type":"Feature","properties":{"amenity":"parking","highway":null,"aeroway":null,"base_elevation":106},"geometry":{"type":"Polygon","coordinates":[[[-106.824703,40.464529],[-106.824961,40.464053],[-106.824906,40.463833],[-106.824171,40.463622],[-106.823662,40.463892],[-106.823626,40.463911],[-106.823819,40.464266],[-106.824703,40.464529]]]}},{"id":"('way', 1297473721)","type":"Feature","properties":{"amenity":"parking","highway":null,"aeroway":null,"base_elevation":951},"geometry":{"type":"Polygon","coordinates":[[[-106.636429,40.391333],[-106.636633,40.3911],[-106.636606,40.390843],[-106.636429,40.390271],[-106.636397,40.390116],[-106.636515,40.389977],[-106.636429,40.38974],[-106.636241,40.389887],[-106.635892,40.389944],[-106.635619,40.390169],[-106.635565,40.390385],[-106.635742,40.390896],[-106.635967,40.391309],[-106.636193,40.391386],[-106.636429,40.391333]]]}},{"id":"('way', 1297473728)","type":"Feature","properties":{"amenity":"parking","highway":null,"aeroway":null,"base_elevation":927},"geometry":{"type":"Polygon","coordinates":[[[-106.617179,40.388919],[-106.617329,40.388767],[-106.617362,40.388652],[-106.617463,40.38831],[-106.617757,40.387616],[-106.617795,40.387525],[-106.617672,40.387497],[-106.617511,40.387448],[-106.616744,40.387819],[-106.616572,40.388212],[-106.616444,40.388947],[-106.616755,40.389013],[-106.616964,40.389009],[-106.617179,40.388919]]]}},{"id":"('way', 1313455139)","type":"Feature","properties":{"amenity":"parking","highway":null,"aeroway":null,"base_elevation":103},"geometry":{"type":"Polygon","coordinates":[[[-106.818737,40.448544],[-106.818913,40.448449],[-106.818631,40.448222],[-106.818659,40.448133],[-106.818945,40.447947],[-106.819152,40.44777],[-106.81914,40.447557],[-106.818442,40.447045],[-106.817751,40.447093],[-106.817804,40.448104],[-106.818065,40.448332],[-106.817986,40.447142],[-106.818216,40.447125],[-106.818953,40.447665],[-106.818216,40.448264],[-106.8181,40.448308],[-106.817858,40.44853],[-106.818015,40.44865],[-106.818499,40.448269],[-106.818737,40.448544]]]}},{"id":"('way', 1313472991)","type":"Feature","properties":{"amenity":"parking","highway":null,"aeroway":null,"base_elevation":168},"geometry":{"type":"Polygon","coordinates":[[[-106.806223,40.460324],[-106.806351,40.460077],[-106.806319,40.459943],[-106.806027,40.459822],[-106.805745,40.459837],[-106.8056,40.459918],[-106.805589,40.460008],[-106.805614,40.460049],[-106.805823,40.460028],[-106.805887,40.460163],[-106.806102,40.460159],[-106.806056,40.460284],[-106.806223,40.460324]]]}},{"id":"('way', 1355067749)","type":"Feature","properties":{"amenity":"parking","highway":null,"aeroway":null,"base_elevation":83},"geometry":{"type":"Polygon","coordinates":[[[-106.838042,40.486961],[-106.837745,40.487247],[-106.837379,40.48701],[-106.837699,40.486742],[-106.838042,40.486961]]]}},{"id":"('way', 1371919032)","type":"Feature","properties":{"amenity":null,"highway":null,"aeroway":"taxiway","base_elevation":139},"geometry":{"type":"LineString","coordinates":[[-106.865348,40.516363],[-106.865512,40.516303],[-106.86599,40.516109],[-106.866121,40.516115],[-106.866197,40.516155],[-106.866264,40.516198]]}},{"id":"('way', 1371919036)","type":"Feature","properties":{"amenity":null,"highway":null,"aeroway":"taxiway","base_elevation":130},"geometry":{"type":"LineString","coordinates":[[-106.866884,40.51843],[-106.86693,40.518414],[-106.867272,40.518286],[-106.867353,40.518276],[-106.867462,40.518276],[-106.867556,40.518304],[-106.867655,40.518358],[-106.86776,40.518447]]}},{"id":"('way', 1385906911)","type":"Feature","properties":{"amenity":"parking","highway":null,"aeroway":null,"base_elevation":355},"geometry":{"type":"Polygon","coordinates":[[[-106.797111,40.376957],[-106.797247,40.376972],[-106.797431,40.376986],[-106.79758,40.376984],[-106.797828,40.376971],[-106.797898,40.376979],[-106.79787,40.377056],[-106.797854,40.377138],[-106.797645,40.377147],[-106.797437,40.377165],[-106.79721,40.377184],[-106.797038,40.377181],[-106.796796,40.377187],[-106.796612,40.377189],[-106.796612,40.377166],[-106.796782,40.377165],[-106.796884,40.377133],[-106.796985,40.377084],[-106.797104,40.377066],[-106.797148,40.377048],[-106.797102,40.377015],[-106.797111,40.376957]]]}},{"id":"('way', 1387045749)","type":"Feature","properties":{"amenity":"parking","highway":null,"aeroway":null,"base_elevation":53},"geometry":{"type":"Polygon","coordinates":[[[-106.914868,40.502578],[-106.914639,40.502597],[-106.914602,40.502385],[-106.914549,40.502187],[-106.914509,40.501968],[-106.914649,40.501945],[-106.914659,40.501977],[-106.91472,40.501969],[-106.914868,40.502578]]]}},{"id":"('way', 1387061767)","type":"Feature","properties":{"amenity":"parking","highway":null,"aeroway":null,"base_elevation":73},"geometry":{"type":"Polygon","coordinates":[[[-106.85945,40.501664],[-106.858863,40.50156],[-106.858893,40.50139],[-106.859505,40.501502],[-106.85945,40.501664]]]}},{"id":"('way', 1387061768)","type":"Feature","properties":{"amenity":"parking","highway":null,"aeroway":null,"base_elevation":75},"geometry":{"type":"Polygon","coordinates":[[[-106.859733,40.502303],[-106.859728,40.502426],[-106.859246,40.502393],[-106.859241,40.502343],[-106.859195,40.502341],[-106.859198,40.502276],[-106.859226,40.502278],[-106.859229,40.502223],[-106.859373,40.502231],[-106.859367,40.502282],[-106.859495,40.502292],[-106.859504,40.502239],[-106.859678,40.502244],[-106.85968,40.502299],[-106.859733,40.502303]]]}},{"id":"('way', 1387061769)","type":"Feature","properties":{"amenity":"parking","highway":null,"aeroway":null,"base_elevation":74},"geometry":{"type":"Polygon","coordinates":[[[-106.859535,40.501944],[-106.859508,40.502057],[-106.858972,40.501956],[-106.859,40.501841],[-106.859535,40.501944]]]}},{"id":"('way', 1387061770)","type":"Feature","properties":{"amenity":"parking","highway":null,"aeroway":null,"base_elevation":74},"geometry":{"type":"Polygon","coordinates":[[[-106.859116,40.502268],[-106.859105,40.502343],[-106.859055,40.50233],[-106.859033,40.502416],[-106.858965,40.502404],[-106.858892,40.502399],[-106.858809,40.50238],[-106.858879,40.502135],[-106.858952,40.502148],[-106.858957,40.502114],[-106.859071,40.502134],[-106.859048,40.502145],[-106.859038,40.502159],[-106.859035,40.502171],[-106.859109,40.502176],[-106.859079,40.502264],[-106.859116,40.502268]]]}},{"id":"('way', 1387061771)","type":"Feature","properties":{"amenity":"parking","highway":null,"aeroway":null,"base_elevation":75},"geometry":{"type":"Polygon","coordinates":[[[-106.858841,40.502134],[-106.858755,40.502411],[-106.858718,40.502423],[-106.858688,40.502445],[-106.858656,40.502513],[-106.858631,40.502537],[-106.858577,40.502552],[-106.85848,40.502548],[-106.858389,40.502529],[-106.858233,40.502501],[-106.858071,40.50247],[-106.857767,40.502422],[-106.857579,40.50238],[-106.857599,40.502331],[-106.857659,40.502342],[-106.857669,40.502268],[-106.857562,40.502247],[-106.857657,40.501928],[-106.857824,40.501952],[-106.857834,40.5019],[-106.857919,40.501917],[-106.857898,40.501964],[-106.858215,40.502011],[-106.858225,40.501983],[-106.858344,40.501999],[-106.858323,40.502042],[-106.858353,40.50205],[-106.858215,40.502427],[-106.858284,40.502438],[-106.858398,40.502018],[-106.858503,40.502034],[-106.858593,40.502082],[-106.858658,40.502094],[-106.858673,40.502074],[-106.858791,40.50209],[-106.858783,40.502119],[-106.858841,40.502134]]]}},{"id":"('way', 1387061772)","type":"Feature","properties":{"amenity":"parking","highway":null,"aeroway":null,"base_elevation":75},"geometry":{"type":"Polygon","coordinates":[[[-106.85778,40.501633],[-106.857757,40.50176],[-106.857747,40.501777],[-106.857301,40.501698],[-106.857223,40.501625],[-106.857272,40.50154],[-106.85778,40.501633]]]}},{"id":"('way', 1387061773)","type":"Feature","properties":{"amenity":"parking","highway":null,"aeroway":null,"base_elevation":74},"geometry":{"type":"Polygon","coordinates":[[[-106.857948,40.501441],[-106.857442,40.501345],[-106.857451,40.501294],[-106.857502,40.501302],[-106.857531,40.501197],[-106.857925,40.501265],[-106.857969,40.50137],[-106.857948,40.501441]]]}},{"id":"('way', 1412607318)","type":"Feature","properties":{"amenity":"parking","highway":null,"aeroway":null,"base_elevation":255},"geometry":{"type":"Polygon","coordinates":[[[-106.824394,40.537872],[-106.824214,40.537758],[-106.823939,40.537908],[-106.824004,40.537999],[-106.824184,40.537937],[-106.824299,40.53793],[-106.824394,40.537872]]]}},{"id":"('way', 1419740882)","type":"Feature","properties":{"amenity":"parking","highway":null,"aeroway":null,"base_elevation":146},"geometry":{"type":"Polygon","coordinates":[[[-106.816673,40.47036],[-106.816546,40.470383],[-106.816357,40.470491],[-106.816205,40.47039],[-106.816494,40.470214],[-106.816673,40.47036]]]}},{"id":"('way', 1419754746)","type":"Feature","properties":{"amenity":"parking","highway":null,"aeroway":null,"base_elevation":556},"geometry":{"type":"Polygon","coordinates":[[[-106.784211,40.534914],[-106.784131,40.534878],[-106.784191,40.534776],[-106.784492,40.534875],[-106.784791,40.534953],[-106.785137,40.534988],[-106.785407,40.534996],[-106.785745,40.53499],[-106.78592,40.534982],[-106.78578,40.535039],[-106.785579,40.535046],[-106.785344,40.53505],[-106.785104,40.535049],[-106.784917,40.535034],[-106.78478,40.535018],[-106.78462,40.534985],[-106.784465,40.534956],[-106.784333,40.534946],[-106.784211,40.534914]]]}},{"id":"('way', 1433514745)","type":"Feature","properties":{"amenity":"parking","highway":null,"aeroway":null,"base_elevation":559},"geometry":{"type":"Polygon","coordinates":[[[-106.784535,40.534541],[-106.784585,40.534631],[-106.784752,40.534601],[-106.784989,40.534644],[-106.785118,40.534642],[-106.785331,40.534596],[-106.785348,40.53447],[-106.785353,40.534402],[-106.785277,40.534346],[-106.785212,40.534337],[-106.784914,40.534413],[-106.784535,40.534541]]]}},{"id":"('way', 1433966661)","type":"Feature","properties":{"amenity":"parking","highway":null,"aeroway":null,"base_elevation":88},"geometry":{"type":"Polygon","coordinates":[[[-106.831155,40.481467],[-106.830954,40.481339],[-106.830831,40.481263],[-106.830996,40.481099],[-106.831128,40.481187],[-106.831065,40.481255],[-106.831265,40.48137],[-106.831155,40.481467]]]}},{"id":"('way', 1433966663)","type":"Feature","properties":{"amenity":"parking","highway":null,"aeroway":null,"base_elevation":88},"geometry":{"type":"Polygon","coordinates":[[[-106.830557,40.481119],[-106.830608,40.48108],[-106.830659,40.481122],[-106.830804,40.481004],[-106.830737,40.48093],[-106.830859,40.480795],[-106.831047,40.480887],[-106.831124,40.480831],[-106.831179,40.480856],[-106.831363,40.480686],[-106.831474,40.48073],[-106.831531,40.480663],[-106.830591,40.480192],[-106.830454,40.480346],[-106.830608,40.480564],[-106.830697,40.480534],[-106.830754,40.480719],[-106.830758,40.480787],[-106.830695,40.480894],[-106.830651,40.480857],[-106.830471,40.480955],[-106.830549,40.481026],[-106.830494,40.481068],[-106.830557,40.481119]]]}},{"id":"('way', 1465730337)","type":"Feature","properties":{"amenity":"parking","highway":null,"aeroway":null,"base_elevation":900},"geometry":{"type":"Polygon","coordinates":[[[-106.742041,40.368726],[-106.742135,40.368885],[-106.740979,40.37],[-106.740718,40.369993],[-106.742041,40.368726]]]}},{"id":"('way', 1474164368)","type":"Feature","properties":{"amenity":"parking","highway":null,"aeroway":null,"base_elevation":93},"geometry":{"type":"Polygon","coordinates":[[[-106.829694,40.482707],[-106.829604,40.482797],[-106.829622,40.482812],[-106.829525,40.482902],[-106.829582,40.482942],[-106.829733,40.48303],[-106.829874,40.482889],[-106.829826,40.482857],[-106.829873,40.482806],[-106.829694,40.482707]]]}},{"id":"('way', 1475442813)","type":"Feature","properties":{"amenity":"parking","highway":null,"aeroway":null,"base_elevation":74},"geometry":{"type":"Polygon","coordinates":[[[-106.863737,40.503781],[-106.864248,40.503809],[-106.864279,40.503558],[-106.864186,40.503551],[-106.864208,40.503429],[-106.864297,40.503443],[-106.864322,40.503307],[-106.864667,40.503333],[-106.864618,40.503507],[-106.864633,40.503645],[-106.864575,40.503853],[-106.864648,40.503923],[-106.864781,40.503914],[-106.864809,40.50365],[-106.864695,40.503638],[-106.864726,40.503432],[-106.864827,40.503443],[-106.864849,40.503261],[-106.863807,40.503134],[-106.863737,40.503781]]]}},{"id":"('way', 1475442819)","type":"Feature","properties":{"amenity":"parking","highway":null,"aeroway":null,"base_elevation":78},"geometry":{"type":"Polygon","coordinates":[[[-106.855295,40.50249],[-106.854824,40.502482],[-106.854815,40.502707],[-106.854714,40.50271],[-106.854711,40.502684],[-106.854644,40.502686],[-106.85462,40.502125],[-106.854796,40.502141],[-106.854804,40.502321],[-106.855295,40.502321],[-106.855169,40.502083],[-106.855354,40.502055],[-106.85541,40.502184],[-106.855336,40.502203],[-106.855361,40.502262],[-106.855436,40.502238],[-106.85548,40.502328],[-106.855399,40.50235],[-106.855422,40.502419],[-106.855515,40.502409],[-106.855534,40.502527],[-106.855461,40.50276],[-106.85521,40.502758],[-106.855208,40.502495],[-106.855295,40.50249]]]}},{"id":"('way', 1475442820)","type":"Feature","properties":{"amenity":"parking","highway":null,"aeroway":null,"base_elevation":77},"geometry":{"type":"Polygon","coordinates":[[[-106.855358,40.501986],[-106.855106,40.50204],[-106.855068,40.501955],[-106.855137,40.501929],[-106.855044,40.501811],[-106.854986,40.501835],[-106.854927,40.501767],[-106.854998,40.501735],[-106.854957,40.501697],[-106.855162,40.501611],[-106.855291,40.501783],[-106.855358,40.501986]]]}},{"id":"('way', 1475442821)","type":"Feature","properties":{"amenity":"parking","highway":null,"aeroway":null,"base_elevation":78},"geometry":{"type":"Polygon","coordinates":[[[-106.854915,40.501788],[-106.85477,40.501862],[-106.854676,40.501829],[-106.854569,40.501692],[-106.854674,40.501645],[-106.854792,40.501642],[-106.854915,40.501788]]]}},{"id":"('way', 1475442823)","type":"Feature","properties":{"amenity":"parking","highway":null,"aeroway":null,"base_elevation":79},"geometry":{"type":"Polygon","coordinates":[[[-106.853993,40.501483],[-106.853938,40.501183],[-106.853916,40.501093],[-106.853774,40.501106],[-106.853764,40.500995],[-106.853637,40.500995],[-106.85364,40.501395],[-106.853814,40.501394],[-106.853865,40.501486],[-106.853993,40.501483]]]}},{"id":"('way', 1475474365)","type":"Feature","properties":{"amenity":"parking","highway":null,"aeroway":null,"base_elevation":125},"geometry":{"type":"Polygon","coordinates":[[[-106.820426,40.467002],[-106.820006,40.466734],[-106.820043,40.466662],[-106.820409,40.466734],[-106.820388,40.466773],[-106.820404,40.466832],[-106.820471,40.466901],[-106.820488,40.466916],[-106.820426,40.467002]]]}},{"id":"('way', 1475479093)","type":"Feature","properties":{"amenity":"parking","highway":null,"aeroway":null,"base_elevation":110},"geometry":{"type":"Polygon","coordinates":[[[-106.820088,40.459228],[-106.820043,40.459281],[-106.82008,40.459299],[-106.820009,40.459389],[-106.81975,40.45926],[-106.819794,40.459208],[-106.819676,40.45915],[-106.819629,40.459202],[-106.819457,40.459126],[-106.819493,40.459071],[-106.819471,40.459047],[-106.819507,40.459007],[-106.819599,40.459053],[-106.819631,40.459009],[-106.819741,40.459067],[-106.819709,40.459111],[-106.819822,40.459168],[-106.819866,40.459119],[-106.820088,40.459228]]]}},{"id":"('way', 1475479094)","type":"Feature","properties":{"amenity":"parking","highway":null,"aeroway":null,"base_elevation":110},"geometry":{"type":"Polygon","coordinates":[[[-106.819912,40.459042],[-106.820487,40.45932],[-106.820486,40.45937],[-106.819927,40.459104],[-106.819912,40.459042]]]}},{"id":"('way', 1475479095)","type":"Feature","properties":{"amenity":"parking","highway":null,"aeroway":null,"base_elevation":109},"geometry":{"type":"Polygon","coordinates":[[[-106.82055,40.459274],[-106.820535,40.459216],[-106.820291,40.4591],[-106.820284,40.459145],[-106.8202,40.459109],[-106.820189,40.459051],[-106.820116,40.459025],[-106.820119,40.459066],[-106.820119,40.459075],[-106.82055,40.459274]]]}},{"id":"('way', 1475479096)","type":"Feature","properties":{"amenity":"parking","highway":null,"aeroway":null,"base_elevation":111},"geometry":{"type":"Polygon","coordinates":[[[-106.819771,40.458976],[-106.819787,40.459028],[-106.819695,40.45899],[-106.819686,40.458938],[-106.819771,40.458976]]]}},{"id":"('way', 1475479097)","type":"Feature","properties":{"amenity":"parking","highway":null,"aeroway":null,"base_elevation":111},"geometry":{"type":"Polygon","coordinates":[[[-106.819424,40.458803],[-106.819416,40.458857],[-106.819043,40.458673],[-106.819036,40.458618],[-106.819424,40.458803]]]}},{"id":"('way', 1475479098)","type":"Feature","properties":{"amenity":"parking","highway":null,"aeroway":null,"base_elevation":111},"geometry":{"type":"Polygon","coordinates":[[[-106.819106,40.45858],[-106.819103,40.458532],[-106.819461,40.458706],[-106.819477,40.458762],[-106.819106,40.45858]]]}},{"id":"('way', 1475479099)","type":"Feature","properties":{"amenity":"parking","highway":null,"aeroway":null,"base_elevation":111},"geometry":{"type":"Polygon","coordinates":[[[-106.819566,40.458802],[-106.819561,40.458753],[-106.819787,40.458865],[-106.819792,40.458913],[-106.819566,40.458802]]]}},{"id":"('way', 1475479100)","type":"Feature","properties":{"amenity":"parking","highway":null,"aeroway":null,"base_elevation":109},"geometry":{"type":"Polygon","coordinates":[[[-106.820006,40.458908],[-106.820078,40.458897],[-106.820272,40.458657],[-106.820216,40.458653],[-106.820006,40.458908]]]}},{"id":"('way', 1475479101)","type":"Feature","properties":{"amenity":"parking","highway":null,"aeroway":null,"base_elevation":109},"geometry":{"type":"Polygon","coordinates":[[[-106.819898,40.458843],[-106.819954,40.458853],[-106.820169,40.458596],[-106.820106,40.458588],[-106.819898,40.458843]]]}},{"id":"('way', 1475479102)","type":"Feature","properties":{"amenity":"parking","highway":null,"aeroway":null,"base_elevation":109},"geometry":{"type":"Polygon","coordinates":[[[-106.819671,40.458451],[-106.819632,40.458499],[-106.819381,40.458383],[-106.819416,40.45834],[-106.819671,40.458451]]]}},{"id":"('way', 1475479103)","type":"Feature","properties":{"amenity":"parking","highway":null,"aeroway":null,"base_elevation":110},"geometry":{"type":"Polygon","coordinates":[[[-106.819506,40.458239],[-106.819478,40.458276],[-106.819271,40.458174],[-106.819298,40.458134],[-106.819506,40.458239]]]}},{"id":"('way', 1475479104)","type":"Feature","properties":{"amenity":"parking","highway":null,"aeroway":null,"base_elevation":110},"geometry":{"type":"Polygon","coordinates":[[[-106.818997,40.458337],[-106.819059,40.458328],[-106.819215,40.45814],[-106.819152,40.458138],[-106.818997,40.458337]]]}},{"id":"('way', 1475479105)","type":"Feature","properties":{"amenity":"parking","highway":null,"aeroway":null,"base_elevation":111},"geometry":{"type":"Polygon","coordinates":[[[-106.819027,40.458003],[-106.818993,40.458044],[-106.81882,40.457964],[-106.818852,40.45792],[-106.819027,40.458003]]]}},{"id":"('way', 1475479106)","type":"Feature","properties":{"amenity":"parking","highway":null,"aeroway":null,"base_elevation":111},"geometry":{"type":"Polygon","coordinates":[[[-106.819101,40.457959],[-106.819131,40.457918],[-106.819051,40.457878],[-106.819013,40.457921],[-106.819101,40.457959]]]}},{"id":"('way', 1475479107)","type":"Feature","properties":{"amenity":"parking","highway":null,"aeroway":null,"base_elevation":110},"geometry":{"type":"Polygon","coordinates":[[[-106.819442,40.458068],[-106.819348,40.458023],[-106.81931,40.45806],[-106.819409,40.458108],[-106.819442,40.458068]]]}},{"id":"('way', 1475479108)","type":"Feature","properties":{"amenity":"parking","highway":null,"aeroway":null,"base_elevation":110},"geometry":{"type":"Polygon","coordinates":[[[-106.818894,40.457833],[-106.818834,40.457805],[-106.819009,40.45758],[-106.819069,40.457611],[-106.818894,40.457833]]]}},{"id":"('way', 1475479109)","type":"Feature","properties":{"amenity":"parking","highway":null,"aeroway":null,"base_elevation":109},"geometry":{"type":"Polygon","coordinates":[[[-106.81913,40.457664],[-106.819185,40.457682],[-106.819013,40.457883],[-106.818965,40.457858],[-106.81913,40.457664]]]}},{"id":"('way', 1475479110)","type":"Feature","properties":{"amenity":"parking","highway":null,"aeroway":null,"base_elevation":108},"geometry":{"type":"Polygon","coordinates":[[[-106.819441,40.458088],[-106.819822,40.45827],[-106.819932,40.45812],[-106.819882,40.458098],[-106.819914,40.458077],[-106.819977,40.458136],[-106.819924,40.458176],[-106.820095,40.458373],[-106.820165,40.458352],[-106.820266,40.458486],[-106.820556,40.458709],[-106.820683,40.458908],[-106.820741,40.458879],[-106.820612,40.458675],[-106.820444,40.458486],[-106.820141,40.458132],[-106.819891,40.457846],[-106.819681,40.457909],[-106.819617,40.457885],[-106.819441,40.458088]]]}},{"id":"('way', 1475479111)","type":"Feature","properties":{"amenity":"parking","highway":null,"aeroway":null,"base_elevation":108},"geometry":{"type":"Polygon","coordinates":[[[-106.81988,40.458337],[-106.819911,40.458291],[-106.820197,40.45843],[-106.820168,40.458478],[-106.81988,40.458337]]]}},{"id":"('way', 1475479112)","type":"Feature","properties":{"amenity":"parking","highway":null,"aeroway":null,"base_elevation":108},"geometry":{"type":"Polygon","coordinates":[[[-106.820581,40.459189],[-106.820653,40.459189],[-106.820614,40.458945],[-106.820467,40.458718],[-106.820406,40.458745],[-106.820546,40.458957],[-106.820581,40.459189]]]}},{"id":"('way', 1505424195)","type":"Feature","properties":{"amenity":null,"highway":"pedestrian","aeroway":null,"base_elevation":147},"geometry":{"type":"Polygon","coordinates":[[[-106.804976,40.457015],[-106.805072,40.457132],[-106.804872,40.457387],[-106.80484,40.457428],[-106.804882,40.457448],[-106.804794,40.45757],[-106.804631,40.4575],[-106.804614,40.457518],[-106.804565,40.457575],[-106.804123,40.457566],[-106.804009,40.457593],[-106.803929,40.457662],[-106.803905,40.457717],[-106.803825,40.457714],[-106.80381,40.457606],[-106.803836,40.457503],[-106.803915,40.45739],[-106.803956,40.457392],[-106.803983,40.457393],[-106.804148,40.457409],[-106.804156,40.457307],[-106.804152,40.457196],[-106.804222,40.457061],[-106.804512,40.457105],[-106.804803,40.457149],[-106.8049,40.457074],[-106.804976,40.457015]]]}},{"id":"('way', 1506000523)","type":"Feature","properties":{"amenity":null,"highway":"pedestrian","aeroway":null,"base_elevation":148},"geometry":{"type":"LineString","coordinates":[[-106.806081,40.456921],[-106.805903,40.457025],[-106.805447,40.456866],[-106.805185,40.456747],[-106.805041,40.456763],[-106.804918,40.456864],[-106.804897,40.456977],[-106.804888,40.457025],[-106.8049,40.457074],[-106.804884,40.457171],[-106.804689,40.457357],[-106.804414,40.457469],[-106.803916,40.457572]]}},{"id":"('way', 1506000537)","type":"Feature","properties":{"amenity":null,"highway":"pedestrian","aeroway":null,"base_elevation":158},"geometry":{"type":"LineString","coordinates":[[-106.805903,40.457025],[-106.80595,40.457129],[-106.805905,40.457518],[-106.806044,40.45763],[-106.806158,40.457741]]}},{"id":"('way', 1506000538)","type":"Feature","properties":{"amenity":null,"highway":"pedestrian","aeroway":null,"base_elevation":147},"geometry":{"type":"LineString","coordinates":[[-106.804897,40.456977],[-106.804643,40.456962],[-106.804324,40.45689]]}},{"id":"('way', 1506000547)","type":"Feature","properties":{"amenity":null,"highway":"pedestrian","aeroway":null,"base_elevation":156},"geometry":{"type":"LineString","coordinates":[[-106.80636,40.457731],[-106.806158,40.457741],[-106.805182,40.457779],[-106.804901,40.457668],[-106.804869,40.457655]]}},{"id":"('way', 1506000552)","type":"Feature","properties":{"amenity":null,"highway":"pedestrian","aeroway":null,"base_elevation":145},"geometry":{"type":"LineString","coordinates":[[-106.804578,40.456496],[-106.804379,40.456583],[-106.804281,40.456626],[-106.803999,40.456953],[-106.803886,40.457132],[-106.803956,40.457245],[-106.803956,40.457392],[-106.803916,40.457572],[-106.803899,40.458048],[-106.803862,40.458304],[-106.803961,40.458545],[-106.803805,40.458736]]}},{"id":"('way', 1507588199)","type":"Feature","properties":{"amenity":null,"highway":"pedestrian","aeroway":null,"base_elevation":157},"geometry":{"type":"LineString","coordinates":[[-106.807514,40.457904],[-106.807701,40.457889],[-106.807901,40.457905],[-106.808001,40.457958],[-106.808092,40.45801],[-106.808258,40.458],[-106.808346,40.457929],[-106.808371,40.45785],[-106.808339,40.457765],[-106.808242,40.457668]]}},{"id":"('way', 1507588201)","type":"Feature","properties":{"amenity":null,"highway":"pedestrian","aeroway":null,"base_elevation":167},"geometry":{"type":"LineString","coordinates":[[-106.807043,40.457941],[-106.807025,40.458011],[-106.807019,40.458106],[-106.807021,40.458228],[-106.807011,40.458331],[-106.807011,40.458407],[-106.807048,40.458451],[-106.807111,40.458482],[-106.807187,40.458489],[-106.807262,40.458476],[-106.807333,40.458433],[-106.807366,40.458371],[-106.807341,40.458297],[-106.807286,40.458229],[-106.80726,40.458156],[-106.807275,40.458075],[-106.807295,40.458007],[-106.807363,40.457956],[-106.807438,40.457935],[-106.807514,40.457904],[-106.807561,40.457851],[-106.807564,40.457779],[-106.807534,40.457719],[-106.807463,40.457678],[-106.807363,40.457671],[-106.807269,40.457717],[-106.807192,40.457783],[-106.807144,40.457848],[-106.807043,40.457941]]}},{"id":"('way', 1507588205)","type":"Feature","properties":{"amenity":null,"highway":"pedestrian","aeroway":null,"base_elevation":158},"geometry":{"type":"LineString","coordinates":[[-106.802565,40.459326],[-106.802702,40.459273],[-106.802824,40.459215],[-106.803,40.459218],[-106.803138,40.45925],[-106.80331,40.459384],[-106.803373,40.459429],[-106.803441,40.45939],[-106.803446,40.459246],[-106.803504,40.459189],[-106.803601,40.45919],[-106.803701,40.459168],[-106.80373,40.459101],[-106.803716,40.459003],[-106.803715,40.458928]]}},{"id":"('way', 1507589672)","type":"Feature","properties":{"amenity":"parking","highway":null,"aeroway":null,"base_elevation":115},"geometry":{"type":"Polygon","coordinates":[[[-106.819362,40.461652],[-106.819242,40.461692],[-106.819307,40.461825],[-106.819451,40.461791],[-106.819362,40.461652]]]}}]}