{"type":"FeatureCollection","features":[{"id":"('way', 17136950)","type":"Feature","properties":{"railway":"rail","bridge":null,"layer":null,"name":"UP Energy Spur","base_elevation":22},"geometry":{"type":"LineString","coordinates":[[-107.00364,40.483725],[-107.003933,40.483424],[-107.004094,40.483211],[-107.004242,40.48295],[-107.004334,40.482737],[-107.004423,40.482464],[-107.004478,40.482169],[-107.004479,40.481809],[-107.004439,40.481574],[-107.004336,40.481276],[-107.004203,40.481016],[-107.004076,40.480783],[-107.003824,40.480487],[-107.003406,40.480016],[-107.003107,40.479659]]}},{"id":"('way', 17139748)","type":"Feature","properties":{"railway":"rail","bridge":null,"layer":null,"name":null,"base_elevation":18},"geometry":{"type":"LineString","coordinates":[[-107.034835,40.484116],[-107.034358,40.484],[-107.034073,40.483956],[-107.029968,40.483331],[-107.021014,40.482001],[-107.020422,40.481904],[-107.019699,40.481775],[-107.019038,40.481636]]}},{"id":"('way', 99978667)","type":"Feature","properties":{"railway":"rail","bridge":null,"layer":null,"name":null,"base_elevation":116},"geometry":{"type":"LineString","coordinates":[[-107.041119,40.367816],[-107.041667,40.367273],[-107.041919,40.367086],[-107.042155,40.366946],[-107.042422,40.366825],[-107.042709,40.366718],[-107.042957,40.366634],[-107.043975,40.366434],[-107.044267,40.366369],[-107.04453,40.366287],[-107.044735,40.366209],[-107.045024,40.366069],[-107.045278,40.365901],[-107.045491,40.365727],[-107.045785,40.365429],[-107.046117,40.365014],[-107.046788,40.364304],[-107.047575,40.363456],[-107.048253,40.3627],[-107.05021,40.360883],[-107.052515,40.358792],[-107.053386,40.358007],[-107.05351,40.357893],[-107.054164,40.357296],[-107.054962,40.356624],[-107.055316,40.356373],[-107.055512,40.356265],[-107.055941,40.356056],[-107.056169,40.355951],[-107.056585,40.35575],[-107.057145,40.35548],[-107.057895,40.355118],[-107.058413,40.354866],[-107.058988,40.354591],[-107.059735,40.354233],[-107.060376,40.353924],[-107.061086,40.35358],[-107.061875,40.353151],[-107.062619,40.352753],[-107.063171,40.352456],[-107.06377,40.352129],[-107.064257,40.35186],[-107.066384,40.350707]]}},{"id":"('way', 116481791)","type":"Feature","properties":{"railway":"rail","bridge":"yes","layer":"1","name":"UP Craig Subdivision","base_elevation":53},"geometry":{"type":"LineString","coordinates":[[-106.905158,40.501396],[-106.905878,40.501415]]}},{"id":"('way', 116481796)","type":"Feature","properties":{"railway":"rail","bridge":null,"layer":null,"name":"UP Craig Subdivision","base_elevation":37},"geometry":{"type":"LineString","coordinates":[[-106.905878,40.501415],[-106.906425,40.501435],[-106.907891,40.501467],[-106.908435,40.501455],[-106.90962,40.501398],[-106.918318,40.500939],[-106.922189,40.50074],[-106.9222,40.500739],[-106.923638,40.500657],[-106.927115,40.500478],[-106.928273,40.500369],[-106.929585,40.500179],[-106.930072,40.500081],[-106.931669,40.499737],[-106.932638,40.499468],[-106.933395,40.499226],[-106.933877,40.499054],[-106.935738,40.498394],[-106.947676,40.494129],[-106.951065,40.492902],[-106.95138,40.492782],[-106.95213,40.492526],[-106.953955,40.491867],[-106.965679,40.487675],[-106.968004,40.486844]]}},{"id":"('way', 116481805)","type":"Feature","properties":{"railway":"rail","bridge":null,"layer":null,"name":"UP Energy Spur","base_elevation":20},"geometry":{"type":"LineString","coordinates":[[-107.002515,40.479032],[-107.000975,40.477306],[-107.000453,40.476701],[-106.999139,40.475255],[-106.998842,40.474901],[-106.998648,40.474627],[-106.998519,40.474376],[-106.998435,40.474137],[-106.998362,40.47384],[-106.998303,40.473451]]}},{"id":"('way', 116481816)","type":"Feature","properties":{"railway":"rail","bridge":"yes","layer":"1","name":"UP Energy Spur","base_elevation":20},"geometry":{"type":"LineString","coordinates":[[-107.003107,40.479659],[-107.002515,40.479032]]}},{"id":"('way', 116674780)","type":"Feature","properties":{"railway":"rail","bridge":"yes","layer":"1","name":"UP Craig Subdivision","base_elevation":113},"geometry":{"type":"LineString","coordinates":[[-106.824344,40.440135],[-106.824412,40.440604]]}},{"id":"('way', 116674783)","type":"Feature","properties":{"railway":"rail","bridge":"yes","layer":"1","name":"UP Craig Subdivision","base_elevation":91},"geometry":{"type":"LineString","coordinates":[[-106.827764,40.476441],[-106.827791,40.476947]]}},{"id":"('way', 116674785)","type":"Feature","properties":{"railway":"rail","bridge":null,"layer":null,"name":"UP Craig Subdivision","base_elevation":99},"geometry":{"type":"LineString","coordinates":[[-106.824412,40.440604],[-106.824676,40.442091],[-106.825513,40.447001],[-106.82576,40.448525],[-106.826542,40.453156],[-106.82751,40.458925],[-106.827687,40.460035]]}},{"id":"('way', 116674787)","type":"Feature","properties":{"railway":"rail","bridge":"yes","layer":"1","name":"UP Craig Subdivision","base_elevation":115},"geometry":{"type":"LineString","coordinates":[[-106.834154,40.412114],[-106.833892,40.412619]]}},{"id":"('way', 116674788)","type":"Feature","properties":{"railway":"rail","bridge":null,"layer":null,"name":"UP Craig Subdivision","base_elevation":109},"geometry":{"type":"LineString","coordinates":[[-106.833892,40.412619],[-106.829281,40.421586],[-106.827869,40.424426],[-106.826657,40.426829],[-106.826019,40.428122],[-106.825643,40.428865],[-106.824846,40.430326],[-106.824678,40.430788],[-106.824293,40.431913],[-106.824086,40.432648],[-106.82388,40.433684],[-106.82379,40.434438],[-106.823755,40.435005],[-106.823745,40.435754],[-106.823814,40.436749],[-106.824046,40.438367],[-106.824344,40.440135]]}},{"id":"('way', 116674791)","type":"Feature","properties":{"railway":"rail","bridge":null,"layer":null,"name":"UP Craig Subdivision","base_elevation":88},"geometry":{"type":"LineString","coordinates":[[-106.827791,40.476947],[-106.828047,40.478051],[-106.828294,40.47872],[-106.828593,40.479282],[-106.828693,40.47947]]}},{"id":"('way', 116674798)","type":"Feature","properties":{"railway":"rail","bridge":"yes","layer":"1","name":"UP Craig Subdivision","base_elevation":99},"geometry":{"type":"LineString","coordinates":[[-106.827687,40.460035],[-106.827775,40.460585]]}},{"id":"('way', 116674800)","type":"Feature","properties":{"railway":"rail","bridge":null,"layer":null,"name":"UP Craig Subdivision","base_elevation":99},"geometry":{"type":"LineString","coordinates":[[-106.827775,40.460585],[-106.827946,40.461938],[-106.827995,40.462637],[-106.827995,40.464397],[-106.828003,40.465245],[-106.827984,40.466391]]}},{"id":"('way', 119910898)","type":"Feature","properties":{"railway":"rail","bridge":null,"layer":null,"name":"UP Energy Spur","base_elevation":32},"geometry":{"type":"LineString","coordinates":[[-106.986954,40.46831],[-106.986428,40.468095],[-106.985979,40.467771],[-106.985648,40.467462],[-106.985351,40.466964],[-106.985271,40.466665],[-106.985225,40.466395],[-106.985222,40.466057],[-106.985278,40.465637],[-106.985344,40.465208],[-106.985402,40.46482],[-106.985462,40.464186],[-106.985585,40.463318],[-106.985595,40.462961],[-106.985567,40.462541],[-106.985487,40.462116],[-106.98527,40.461433]]}},{"id":"('way', 119910902)","type":"Feature","properties":{"railway":"rail","bridge":"yes","layer":"1","name":"UP Energy Spur","base_elevation":27},"geometry":{"type":"LineString","coordinates":[[-106.998303,40.473451],[-106.998276,40.473243]]}},{"id":"('way', 119910904)","type":"Feature","properties":{"railway":"rail","bridge":"yes","layer":"1","name":"UP Energy Spur","base_elevation":31},"geometry":{"type":"LineString","coordinates":[[-106.987178,40.468379],[-106.986954,40.46831]]}},{"id":"('way', 119910906)","type":"Feature","properties":{"railway":"rail","bridge":null,"layer":null,"name":"UP Energy Spur","base_elevation":26},"geometry":{"type":"LineString","coordinates":[[-106.998276,40.473243],[-106.998242,40.47302],[-106.99821,40.4727],[-106.99818,40.472539],[-106.998123,40.472226],[-106.99801,40.471911],[-106.997842,40.471595],[-106.997622,40.471294],[-106.997371,40.471032],[-106.997134,40.470847],[-106.996942,40.470716],[-106.996689,40.470566],[-106.996447,40.470451],[-106.995933,40.470255],[-106.995228,40.470011],[-106.994179,40.469648],[-106.993408,40.469379],[-106.993032,40.469272],[-106.99254,40.469177],[-106.991225,40.468988],[-106.98915,40.468686],[-106.988028,40.468529],[-106.98746,40.468444],[-106.987178,40.468379]]}},{"id":"('way', 153023704)","type":"Feature","properties":{"railway":"rail","bridge":"yes","layer":"1","name":"UP Craig Subdivision","base_elevation":88},"geometry":{"type":"LineString","coordinates":[[-106.828693,40.47947],[-106.829003,40.47996]]}},{"id":"('way', 153023705)","type":"Feature","properties":{"railway":"rail","bridge":null,"layer":null,"name":"UP Craig Subdivision","base_elevation":53},"geometry":{"type":"LineString","coordinates":[[-106.843573,40.489546],[-106.84455,40.489998],[-106.848629,40.491839],[-106.851287,40.493032],[-106.854147,40.494332],[-106.855695,40.495025],[-106.857105,40.495671],[-106.857758,40.495961],[-106.858679,40.496383],[-106.859642,40.49681],[-106.860571,40.497236],[-106.86154,40.497668],[-106.86236,40.498045],[-106.863611,40.498579],[-106.864217,40.498804],[-106.86497,40.499063],[-106.865869,40.499327],[-106.86655,40.49951],[-106.867127,40.49965],[-106.867961,40.499826],[-106.868561,40.49994],[-106.8694,40.500067],[-106.870202,40.500164],[-106.87088,40.500223],[-106.872093,40.500286],[-106.875062,40.500382],[-106.878046,40.500489],[-106.89533,40.501069],[-106.902361,40.501297],[-106.904272,40.501359],[-106.905158,40.501396]]}},{"id":"('way', 217608831)","type":"Feature","properties":{"railway":"rail","bridge":null,"layer":null,"name":null,"base_elevation":77},"geometry":{"type":"LineString","coordinates":[[-106.844093,40.489182],[-106.845506,40.489833],[-106.846563,40.490333],[-106.847481,40.490922],[-106.848823,40.491829],[-106.849134,40.492011],[-106.849617,40.492225],[-106.850817,40.492762],[-106.851287,40.493032]]}},{"id":"('way', 217608832)","type":"Feature","properties":{"railway":"rail","bridge":null,"layer":null,"name":null,"base_elevation":78},"geometry":{"type":"LineString","coordinates":[[-106.847368,40.491642],[-106.847946,40.491674],[-106.848108,40.491715],[-106.848525,40.491847]]}},{"id":"('way', 217608834)","type":"Feature","properties":{"railway":"rail","bridge":null,"layer":null,"name":null,"base_elevation":74},"geometry":{"type":"LineString","coordinates":[[-106.843573,40.489546],[-106.844012,40.489797],[-106.844353,40.489961],[-106.848525,40.491847],[-106.850475,40.492723],[-106.856402,40.495403],[-106.857105,40.495671]]}},{"id":"('way', 217608838)","type":"Feature","properties":{"railway":"rail","bridge":null,"layer":null,"name":null,"base_elevation":77},"geometry":{"type":"LineString","coordinates":[[-106.849047,40.491808],[-106.849157,40.491934],[-106.849291,40.492036],[-106.849617,40.492225]]}},{"id":"('way', 217608843)","type":"Feature","properties":{"railway":"rail","bridge":null,"layer":null,"name":null,"base_elevation":78},"geometry":{"type":"LineString","coordinates":[[-106.845506,40.490367],[-106.849134,40.492011]]}},{"id":"('way', 221151696)","type":"Feature","properties":{"railway":"rail","bridge":null,"layer":null,"name":"Craig Subdivision","base_elevation":54},"geometry":{"type":"LineString","coordinates":[[-107.010063,40.41484],[-107.009532,40.414828],[-107.008798,40.414828],[-107.00815,40.414877],[-107.007792,40.414946],[-107.005906,40.415336],[-107.004977,40.41553],[-107.002728,40.416049],[-107.001223,40.416411],[-107.000799,40.41656],[-107.000472,40.416707],[-107.000134,40.416888],[-106.999704,40.417209],[-106.999407,40.417493],[-106.999141,40.417825],[-106.998891,40.418252],[-106.998671,40.418748],[-106.998537,40.419206],[-106.997929,40.422269],[-106.997842,40.422557],[-106.997698,40.422859],[-106.99752,40.423147],[-106.997288,40.423445],[-106.997014,40.423706],[-106.996657,40.423976],[-106.99623,40.424221],[-106.995831,40.424409],[-106.995373,40.424562],[-106.994986,40.424654],[-106.994405,40.42474],[-106.994134,40.42476],[-106.993792,40.424768],[-106.993316,40.424756],[-106.992848,40.424703],[-106.992473,40.424633],[-106.992011,40.424527],[-106.991677,40.424417],[-106.991368,40.424287]]}},{"id":"('way', 221151697)","type":"Feature","properties":{"railway":"rail","bridge":null,"layer":null,"name":"UP Energy Spur","base_elevation":40},"geometry":{"type":"LineString","coordinates":[[-106.986894,40.454816],[-106.987036,40.454611],[-106.987572,40.453857],[-106.987822,40.453491],[-106.988014,40.453093],[-106.988077,40.452765],[-106.988105,40.452408],[-106.988085,40.451464],[-106.988104,40.450142],[-106.988123,40.448335],[-106.988105,40.447893],[-106.988027,40.447581],[-106.987894,40.447235],[-106.987734,40.446934],[-106.987434,40.446534],[-106.987101,40.446192],[-106.986672,40.445887],[-106.985979,40.44545],[-106.985202,40.444976],[-106.984575,40.444598],[-106.9842,40.444277],[-106.984019,40.444028],[-106.983925,40.443823],[-106.98388,40.443675],[-106.983845,40.443364],[-106.983881,40.443161],[-106.983946,40.442896],[-106.984007,40.442728],[-106.984125,40.442531],[-106.984475,40.442027],[-106.984981,40.441371],[-106.985193,40.441004],[-106.985322,40.440613],[-106.98539,40.440263],[-106.985378,40.439936],[-106.985352,40.439669],[-106.9852,40.438668],[-106.985119,40.438477],[-106.984973,40.438214],[-106.984798,40.438002],[-106.98349,40.437013],[-106.983162,40.436707],[-106.98298,40.436469],[-106.982866,40.436259],[-106.982792,40.436059],[-106.982782,40.435781],[-106.982805,40.43555],[-106.982887,40.435275],[-106.983008,40.435034],[-106.983181,40.434852],[-106.984372,40.433698],[-106.984681,40.433324],[-106.984872,40.432985],[-106.984956,40.432728],[-106.985011,40.432484],[-106.98503,40.432155],[-106.985004,40.431224],[-106.984943,40.43038],[-106.984927,40.429865],[-106.984862,40.429573],[-106.984733,40.429228],[-106.984561,40.42891],[-106.98356,40.427475],[-106.983384,40.427086],[-106.983329,40.42679],[-106.983345,40.426515],[-106.98343,40.426201],[-106.983552,40.425975],[-106.98376,40.425753],[-106.984021,40.42554],[-106.984373,40.425313],[-106.986336,40.42417],[-106.987213,40.423671],[-106.987554,40.42353],[-106.98793,40.423433],[-106.988296,40.423383],[-106.988613,40.423371],[-106.989004,40.423401],[-106.989448,40.423483],[-106.989883,40.423637],[-106.990713,40.424049],[-106.991067,40.424206],[-106.991509,40.424402],[-106.992097,40.424593],[-106.992655,40.424722],[-106.993273,40.424797],[-106.99354,40.424813],[-106.993912,40.424817],[-106.994298,40.424806],[-106.994837,40.424743],[-106.995345,40.424642],[-106.995896,40.424484],[-106.996366,40.424308],[-106.996841,40.424053],[-106.997144,40.423821],[-106.99743,40.423556],[-106.997672,40.423259],[-106.997894,40.422841],[-106.998012,40.422474],[-106.998135,40.421915],[-106.998351,40.420856],[-106.998506,40.420015],[-106.998755,40.418844],[-106.998891,40.418417],[-106.99903,40.418161],[-106.999272,40.417797],[-106.999616,40.417419],[-106.999922,40.41718],[-107.00031,40.416904],[-107.000716,40.416706],[-107.001058,40.416566],[-107.001499,40.416433],[-107.002987,40.416116],[-107.004471,40.415775],[-107.005819,40.415453],[-107.00781,40.414988],[-107.008247,40.414908],[-107.008809,40.414872],[-107.010063,40.41484],[-107.010568,40.414827],[-107.010947,40.414799],[-107.011267,40.414729],[-107.011581,40.414631],[-107.011965,40.41446],[-107.012258,40.414265],[-107.012501,40.414039],[-107.013264,40.413133],[-107.014188,40.411982],[-107.01478,40.411232],[-107.01501,40.410847],[-107.015119,40.410596],[-107.015218,40.410286],[-107.015292,40.409903],[-107.015242,40.409316],[-107.015159,40.40902],[-107.015069,40.408769],[-107.014917,40.408471],[-107.014675,40.408131],[-107.014448,40.407876],[-107.014211,40.407639],[-107.013846,40.407373],[-107.013401,40.407103],[-107.012582,40.406674],[-107.012203,40.406436],[-107.011904,40.40618],[-107.01164,40.405898],[-107.011366,40.405501],[-107.011219,40.405172],[-107.011118,40.404868],[-107.011085,40.404514],[-107.011016,40.404055],[-107.010932,40.401905],[-107.010921,40.401349],[-107.010938,40.401051],[-107.011043,40.400571],[-107.011177,40.400211],[-107.011391,40.399796],[-107.013527,40.396392],[-107.013755,40.395973],[-107.013899,40.395627],[-107.014021,40.395274],[-107.014104,40.394844],[-107.014138,40.394455],[-107.014074,40.392779],[-107.0141,40.3923],[-107.014195,40.391748],[-107.01429,40.391431],[-107.014494,40.390907],[-107.014961,40.389753],[-107.015265,40.389052],[-107.015728,40.387922],[-107.01621,40.386766],[-107.01648,40.386102],[-107.016894,40.385087],[-107.017437,40.383795],[-107.018154,40.382058],[-107.018785,40.38053],[-107.019116,40.379901],[-107.019393,40.379506],[-107.019768,40.379058],[-107.020228,40.378623],[-107.020741,40.378244],[-107.021365,40.377888],[-107.021925,40.377618],[-107.022455,40.377415],[-107.023022,40.377235],[-107.025264,40.376568],[-107.026817,40.376097],[-107.028352,40.375634],[-107.028931,40.375433],[-107.029525,40.375186],[-107.030077,40.374899],[-107.030544,40.374627],[-107.031073,40.374265],[-107.032361,40.373225],[-107.032719,40.372951],[-107.033036,40.37276],[-107.033321,40.372625],[-107.034233,40.372276],[-107.036574,40.371428],[-107.037453,40.371106],[-107.037805,40.370936],[-107.038067,40.370763],[-107.038384,40.370507],[-107.03971,40.369209],[-107.040673,40.368255],[-107.041119,40.367816],[-107.04146,40.367514],[-107.041723,40.3673],[-107.041916,40.367158],[-107.042065,40.367058],[-107.042249,40.366953],[-107.042376,40.366888],[-107.042553,40.366815],[-107.042733,40.366744],[-107.042919,40.366686],[-107.043555,40.366541],[-107.04406,40.366453],[-107.044422,40.366371],[-107.044685,40.366275],[-107.045033,40.366101],[-107.045338,40.365903],[-107.045573,40.365701],[-107.045838,40.365429],[-107.046253,40.364941],[-107.04662,40.36454],[-107.046948,40.364193],[-107.047453,40.363648],[-107.048422,40.362589],[-107.049401,40.361688],[-107.0502,40.360955],[-107.050537,40.360644],[-107.053489,40.358009],[-107.055009,40.356651],[-107.055444,40.356386],[-107.055949,40.356105],[-107.056235,40.355966],[-107.056832,40.35568],[-107.059184,40.354564],[-107.060342,40.353995],[-107.062054,40.353104],[-107.063867,40.352119],[-107.065292,40.351359],[-107.066015,40.350966],[-107.066572,40.350636],[-107.066925,40.350366],[-107.067872,40.349423],[-107.068788,40.348495],[-107.069217,40.348129],[-107.069775,40.347884],[-107.070254,40.347744],[-107.075025,40.346503]]}},{"id":"('way', 221151700)","type":"Feature","properties":{"railway":"rail","bridge":"yes","layer":"1","name":"UP Energy Spur","base_elevation":39},"geometry":{"type":"LineString","coordinates":[[-106.986755,40.455017],[-106.986894,40.454816]]}},{"id":"('way', 221152359)","type":"Feature","properties":{"railway":"rail","bridge":null,"layer":null,"name":"UP Craig Subdivision","base_elevation":32},"geometry":{"type":"LineString","coordinates":[[-107.003224,40.484112],[-107.002698,40.484591],[-107.002252,40.485004],[-107.002005,40.485198],[-107.001707,40.485414],[-107.001434,40.485588],[-107.001112,40.485769],[-107.000758,40.485922],[-107.000466,40.486043],[-107.000126,40.486155],[-106.999701,40.486271],[-106.999316,40.486351],[-106.998964,40.4864],[-106.998278,40.486455],[-106.997719,40.486453],[-106.997201,40.486402],[-106.994664,40.485995],[-106.99327,40.485763],[-106.99078,40.485349],[-106.98871,40.485009],[-106.987375,40.484788],[-106.98445,40.484303],[-106.983357,40.484124],[-106.982174,40.483958],[-106.980881,40.483858],[-106.980227,40.483842],[-106.979728,40.483835],[-106.979215,40.48384],[-106.978807,40.483867]]}},{"id":"('way', 221152361)","type":"Feature","properties":{"railway":"rail","bridge":"yes","layer":null,"name":"UP Energy Spur","base_elevation":45},"geometry":{"type":"LineString","coordinates":[[-106.985539,40.457362],[-106.985588,40.457153]]}},{"id":"('way', 221152362)","type":"Feature","properties":{"railway":"rail","bridge":"yes","layer":null,"name":"UP Energy Spur","base_elevation":34},"geometry":{"type":"LineString","coordinates":[[-106.98527,40.461433],[-106.985225,40.461269]]}},{"id":"('way', 221152363)","type":"Feature","properties":{"railway":"rail","bridge":"yes","layer":null,"name":"UP Craig Subdivision","base_elevation":36},"geometry":{"type":"LineString","coordinates":[[-106.968004,40.486844],[-106.968704,40.486587]]}},{"id":"('way', 221152365)","type":"Feature","properties":{"railway":"rail","bridge":null,"layer":null,"name":"UP Energy Spur","base_elevation":34},"geometry":{"type":"LineString","coordinates":[[-106.985225,40.461269],[-106.985033,40.460595],[-106.984964,40.460098],[-106.98496,40.459719],[-106.984991,40.459453],[-106.985147,40.458771],[-106.985413,40.457886],[-106.985539,40.457362]]}},{"id":"('way', 221152366)","type":"Feature","properties":{"railway":"rail","bridge":null,"layer":null,"name":"UP Energy Spur","base_elevation":39},"geometry":{"type":"LineString","coordinates":[[-106.985588,40.457153],[-106.985671,40.456807],[-106.985778,40.456499],[-106.986148,40.455842],[-106.986431,40.455462],[-106.986723,40.455069],[-106.986755,40.455017]]}},{"id":"('way', 221152369)","type":"Feature","properties":{"railway":"rail","bridge":null,"layer":null,"name":"UP Craig Subdivision","base_elevation":32},"geometry":{"type":"LineString","coordinates":[[-106.968704,40.486587],[-106.969124,40.486432],[-106.970105,40.486086],[-106.971578,40.485563],[-106.97264,40.485172],[-106.973669,40.484765],[-106.974499,40.484518],[-106.975625,40.484241],[-106.976656,40.484051],[-106.97816,40.483856],[-106.978612,40.483824]]}},{"id":"('way', 229446118)","type":"Feature","properties":{"railway":"rail","bridge":null,"layer":null,"name":"UP Craig Subdivision","base_elevation":91},"geometry":{"type":"LineString","coordinates":[[-106.827975,40.466697],[-106.827958,40.467927],[-106.82789,40.472363],[-106.827888,40.472458],[-106.827872,40.472768],[-106.827861,40.473494],[-106.827841,40.474542],[-106.827797,40.475406],[-106.827764,40.476441]]}},{"id":"('way', 229446119)","type":"Feature","properties":{"railway":"rail","bridge":"yes","layer":null,"name":"UP Craig Subdivision","base_elevation":100},"geometry":{"type":"LineString","coordinates":[[-106.827984,40.466391],[-106.827975,40.466697]]}},{"id":"('way', 234162187)","type":"Feature","properties":{"railway":"rail","bridge":null,"layer":null,"name":null,"base_elevation":84},"geometry":{"type":"LineString","coordinates":[[-106.845506,40.489833],[-106.845237,40.489741],[-106.84497,40.489673],[-106.843428,40.489321]]}},{"id":"('way', 260036308)","type":"Feature","properties":{"railway":"rail","bridge":"yes","layer":null,"name":"UP Craig Subdivision","base_elevation":214},"geometry":{"type":"LineString","coordinates":[[-106.943382,40.343511],[-106.943284,40.343608]]}},{"id":"('way', 260036309)","type":"Feature","properties":{"railway":"rail","bridge":null,"layer":null,"name":"UP Craig Subdivision","base_elevation":169},"geometry":{"type":"LineString","coordinates":[[-106.943284,40.343608],[-106.942736,40.344158],[-106.941923,40.345009],[-106.941451,40.345484],[-106.941064,40.345821],[-106.9406,40.34622],[-106.93992,40.346772],[-106.938807,40.34755],[-106.93833,40.347868],[-106.937771,40.348245],[-106.936986,40.348783],[-106.936112,40.349365],[-106.935515,40.349788],[-106.934523,40.350434],[-106.933711,40.350986],[-106.933351,40.351205],[-106.932725,40.351522],[-106.932248,40.351726],[-106.931454,40.351997],[-106.93094,40.352136],[-106.930234,40.352296],[-106.929673,40.352391],[-106.92899,40.352462],[-106.927735,40.352547],[-106.926346,40.352652],[-106.915174,40.353431],[-106.914325,40.353483],[-106.913195,40.353562],[-106.912212,40.353673],[-106.911485,40.353784],[-106.910668,40.353927],[-106.909874,40.354071],[-106.909557,40.354119],[-106.905428,40.354852],[-106.903819,40.355138],[-106.898798,40.356024],[-106.894878,40.356716],[-106.893521,40.356962],[-106.887884,40.357948],[-106.886363,40.358215],[-106.88278,40.358852]]}},{"id":"('way', 261018314)","type":"Feature","properties":{"railway":"rail","bridge":null,"layer":null,"name":null,"base_elevation":129},"geometry":{"type":"LineString","coordinates":[[-106.844546,40.391642],[-106.844774,40.391073],[-106.844919,40.390769],[-106.845118,40.390442],[-106.845356,40.390107],[-106.84563,40.389749],[-106.845895,40.389455],[-106.846394,40.388965],[-106.847143,40.388291],[-106.847698,40.38787],[-106.848307,40.387461],[-106.849079,40.387014],[-106.849782,40.386673],[-106.850463,40.386383],[-106.851083,40.386147],[-106.8517,40.385951],[-106.852274,40.385798],[-106.85296,40.385641],[-106.854213,40.385424],[-106.855592,40.385189],[-106.857359,40.384897],[-106.859127,40.384605],[-106.860216,40.384424]]}},{"id":"('way', 465330304)","type":"Feature","properties":{"railway":"rail","bridge":null,"layer":null,"name":null,"base_elevation":134},"geometry":{"type":"LineString","coordinates":[[-106.860412,40.384393],[-106.860886,40.384315],[-106.862764,40.383992],[-106.863614,40.383851],[-106.864711,40.383669],[-106.865332,40.383596]]}},{"id":"('way', 465330305)","type":"Feature","properties":{"railway":"rail","bridge":"yes","layer":"1","name":null,"base_elevation":134},"geometry":{"type":"LineString","coordinates":[[-106.860216,40.384424],[-106.860412,40.384393]]}},{"id":"('way', 465330306)","type":"Feature","properties":{"railway":"rail","bridge":"yes","layer":"1","name":"UP Craig Subdivision","base_elevation":134},"geometry":{"type":"LineString","coordinates":[[-106.860403,40.384431],[-106.860237,40.384459]]}},{"id":"('way', 465330307)","type":"Feature","properties":{"railway":"rail","bridge":null,"layer":null,"name":"UP Craig Subdivision","base_elevation":115},"geometry":{"type":"LineString","coordinates":[[-106.860237,40.384459],[-106.857852,40.384863],[-106.856538,40.385084],[-106.854459,40.385426],[-106.853239,40.385629],[-106.852182,40.385877],[-106.851554,40.386046],[-106.850968,40.386249],[-106.850207,40.386535],[-106.849822,40.386699],[-106.849387,40.386911],[-106.848953,40.387145],[-106.848431,40.387456],[-106.847981,40.387744],[-106.847574,40.38804],[-106.847052,40.388446],[-106.846603,40.388837],[-106.846172,40.389272],[-106.84568,40.389835],[-106.845372,40.390245],[-106.845049,40.390728],[-106.844546,40.391642],[-106.84433,40.392034],[-106.844054,40.392575],[-106.843262,40.394182],[-106.842583,40.395387],[-106.841913,40.396809],[-106.8409,40.398812],[-106.834154,40.412114]]}},{"id":"('way', 465945329)","type":"Feature","properties":{"railway":"rail","bridge":null,"layer":null,"name":"UP Craig Subdivision","base_elevation":214},"geometry":{"type":"LineString","coordinates":[[-106.961776,40.29742],[-106.961766,40.298966],[-106.961778,40.301409],[-106.961792,40.301838],[-106.961825,40.302118],[-106.962,40.302683],[-106.962626,40.304151],[-106.962864,40.304856],[-106.96299,40.305662],[-106.962995,40.30603],[-106.96284,40.306735],[-106.962633,40.307266],[-106.962289,40.30805],[-106.961255,40.309811],[-106.960925,40.310439],[-106.960431,40.311302],[-106.96022,40.311687],[-106.959901,40.312296],[-106.959745,40.312663],[-106.959651,40.312953],[-106.959599,40.313224],[-106.959546,40.313525],[-106.959501,40.314024],[-106.959469,40.3149],[-106.959412,40.316112],[-106.959405,40.316762],[-106.959278,40.319693],[-106.959242,40.320537],[-106.959189,40.321862],[-106.959165,40.322776],[-106.959135,40.323598],[-106.959105,40.32452],[-106.959007,40.326864],[-106.958971,40.327377],[-106.958889,40.327943],[-106.958789,40.328472],[-106.958603,40.329253],[-106.958442,40.329764],[-106.958254,40.330317],[-106.958094,40.330751],[-106.957848,40.331298],[-106.957429,40.332161],[-106.957153,40.332646],[-106.956881,40.33306],[-106.956571,40.333436],[-106.956189,40.333804],[-106.955647,40.334189],[-106.95528,40.334397],[-106.95453,40.334752],[-106.953677,40.33512],[-106.95265,40.335595],[-106.952082,40.335887],[-106.951288,40.336323],[-106.950618,40.336732],[-106.94982,40.33727],[-106.94897,40.337912],[-106.94826,40.338505],[-106.947573,40.339132],[-106.947286,40.33944],[-106.946866,40.339863],[-106.944629,40.342191],[-106.943382,40.343511]]}},{"id":"('way', 468745093)","type":"Feature","properties":{"railway":"rail","bridge":"yes","layer":"1","name":"UP Craig Subdivision","base_elevation":32},"geometry":{"type":"LineString","coordinates":[[-106.978807,40.483867],[-106.978613,40.483877]]}},{"id":"('way', 468745094)","type":"Feature","properties":{"railway":"rail","bridge":null,"layer":null,"name":"UP Craig Subdivision","base_elevation":33},"geometry":{"type":"LineString","coordinates":[[-106.978613,40.483877],[-106.97777,40.483944],[-106.976945,40.484052],[-106.97564,40.484287],[-106.974632,40.484529],[-106.97392,40.484731],[-106.973381,40.484915],[-106.97264,40.485172]]}},{"id":"('way', 468745095)","type":"Feature","properties":{"railway":"rail","bridge":null,"layer":null,"name":"UP Craig Subdivision","base_elevation":15},"geometry":{"type":"LineString","coordinates":[[-107.00364,40.483725],[-107.004931,40.482564],[-107.005513,40.482016],[-107.007147,40.480618],[-107.007782,40.480254],[-107.008804,40.479832],[-107.009577,40.479652],[-107.010576,40.479583],[-107.011189,40.47958],[-107.011922,40.47969],[-107.012878,40.479944],[-107.014321,40.480363],[-107.017796,40.481372],[-107.01877,40.481614],[-107.019707,40.481824],[-107.021019,40.482054],[-107.022614,40.482297],[-107.023832,40.482473],[-107.027326,40.483015],[-107.029929,40.483374],[-107.034408,40.484056],[-107.034835,40.484116],[-107.035351,40.484205],[-107.040487,40.484966],[-107.041658,40.485092],[-107.042633,40.485117],[-107.043464,40.485087],[-107.045007,40.484869],[-107.047702,40.484374],[-107.049534,40.484002],[-107.050789,40.483789],[-107.055271,40.482931],[-107.056425,40.482779],[-107.05725,40.482706],[-107.058097,40.482697],[-107.059042,40.48275],[-107.069598,40.484038],[-107.076788,40.484914],[-107.077812,40.485033],[-107.079787,40.485275],[-107.084222,40.485823],[-107.08849,40.486342],[-107.089232,40.486384],[-107.089853,40.486365],[-107.090474,40.486296],[-107.091082,40.486155],[-107.09169,40.485954],[-107.094183,40.485027],[-107.094792,40.484848],[-107.095459,40.484687],[-107.096319,40.484511],[-107.096986,40.484423],[-107.097794,40.484358],[-107.098883,40.484359],[-107.099588,40.484374],[-107.101131,40.484625],[-107.101708,40.484752],[-107.102746,40.485068],[-107.103288,40.485271],[-107.104017,40.485611],[-107.105319,40.486304],[-107.107582,40.48746],[-107.108124,40.487659],[-107.108642,40.487781],[-107.1091,40.487876],[-107.109771,40.487946],[-107.110428,40.487932],[-107.111029,40.487859],[-107.111542,40.487758],[-107.112066,40.487637],[-107.112676,40.487416],[-107.114393,40.486509],[-107.116237,40.485551],[-107.117075,40.485161],[-107.118443,40.484644],[-107.12098,40.483857],[-107.121533,40.483665],[-107.121851,40.483498],[-107.12223,40.483269],[-107.122838,40.482807],[-107.123159,40.482515],[-107.124122,40.481176],[-107.124655,40.480449],[-107.127014,40.477121],[-107.127454,40.476592],[-107.127982,40.476128],[-107.128457,40.475824],[-107.129019,40.475528],[-107.129708,40.475254],[-107.130486,40.475039],[-107.131636,40.474897],[-107.132348,40.474914],[-107.132936,40.474965],[-107.134104,40.475135],[-107.135144,40.475288],[-107.136135,40.475437],[-107.136787,40.475575],[-107.137236,40.475715],[-107.137547,40.475832],[-107.138143,40.476105],[-107.13866,40.476445],[-107.139168,40.476874],[-107.139546,40.477263],[-107.140066,40.477858],[-107.140171,40.477984],[-107.140535,40.478422],[-107.145375,40.483676],[-107.145917,40.484148],[-107.146355,40.484425],[-107.146869,40.48466],[-107.147433,40.484906],[-107.148366,40.485176],[-107.149425,40.485511],[-107.154374,40.487903],[-107.15618,40.488778],[-107.156851,40.489171],[-107.15739,40.489578],[-107.158329,40.490455]]}},{"id":"('way', 468745096)","type":"Feature","properties":{"railway":"rail","bridge":"yes","layer":"1","name":"UP Craig Subdivision","base_elevation":32},"geometry":{"type":"LineString","coordinates":[[-106.978612,40.483824],[-106.978809,40.483817]]}},{"id":"('way', 1313094896)","type":"Feature","properties":{"railway":"rail","bridge":null,"layer":null,"name":"UP Craig Subdivision","base_elevation":275},"geometry":{"type":"LineString","coordinates":[[-106.957697,40.275172],[-106.958279,40.275264],[-106.958562,40.275292],[-106.958839,40.275318],[-106.959234,40.275337],[-106.960214,40.275359],[-106.961076,40.275379],[-106.961821,40.27537],[-106.962491,40.275405],[-106.962878,40.275455],[-106.963246,40.275541],[-106.963628,40.275672],[-106.96399,40.275831],[-106.964455,40.276123],[-106.964654,40.276297],[-106.964875,40.276501],[-106.965197,40.276918],[-106.965363,40.277254],[-106.965658,40.27804],[-106.965893,40.278698],[-106.96612,40.279297],[-106.967514,40.283238],[-106.96781,40.283991],[-106.967883,40.284281],[-106.968153,40.285053],[-106.9682,40.285563],[-106.968219,40.28581],[-106.968198,40.286003],[-106.968099,40.286319],[-106.967916,40.286639],[-106.967754,40.286875],[-106.967361,40.28728],[-106.966759,40.28786],[-106.966368,40.288215],[-106.966155,40.28843],[-106.96598,40.288659],[-106.96585,40.288891],[-106.965789,40.289075],[-106.965723,40.289464],[-106.965681,40.289668],[-106.965564,40.289977],[-106.965316,40.290341],[-106.965071,40.290585],[-106.964717,40.290937],[-106.964387,40.291293],[-106.964215,40.291575],[-106.964153,40.291766],[-106.964138,40.292265],[-106.964139,40.293663],[-106.964084,40.29382],[-106.963948,40.294018],[-106.963624,40.294424],[-106.962895,40.295279],[-106.962347,40.2959],[-106.962067,40.296275],[-106.961915,40.296537],[-106.961826,40.296786],[-106.961784,40.297033],[-106.961776,40.29742]]}},{"id":"('way', 1313094897)","type":"Feature","properties":{"railway":"rail","bridge":null,"layer":null,"name":"UP Craig Subdivision","base_elevation":136},"geometry":{"type":"LineString","coordinates":[[-106.8778,40.371274],[-106.87715,40.372097],[-106.876573,40.372842],[-106.874912,40.374985],[-106.873345,40.377003],[-106.872979,40.377478],[-106.872503,40.378242],[-106.872096,40.378954],[-106.871683,40.37971],[-106.871365,40.380295],[-106.871088,40.380741],[-106.870873,40.381028],[-106.870645,40.381309],[-106.870394,40.381565],[-106.870081,40.381836],[-106.869764,40.382088],[-106.869395,40.382324],[-106.869038,40.38254],[-106.868561,40.38278],[-106.868092,40.382973],[-106.867599,40.383145],[-106.867103,40.383287],[-106.866611,40.383398],[-106.865397,40.383585],[-106.865332,40.383596],[-106.864383,40.383766],[-106.864058,40.383825]]}},{"id":"('way', 1313094898)","type":"Feature","properties":{"railway":"rail","bridge":null,"layer":null,"name":"UP Craig Subdivision","base_elevation":151},"geometry":{"type":"LineString","coordinates":[[-106.88278,40.358852],[-106.882313,40.358937],[-106.881981,40.359032],[-106.881686,40.359153],[-106.881408,40.3593],[-106.88117,40.35947],[-106.880912,40.359705],[-106.88074,40.35994],[-106.880584,40.360202],[-106.8805,40.360447],[-106.880453,40.360748],[-106.88042,40.363085],[-106.880403,40.363743],[-106.880363,40.363982],[-106.880309,40.364184],[-106.880234,40.364353],[-106.880074,40.364587],[-106.879855,40.36483],[-106.879611,40.365027],[-106.879358,40.365195],[-106.878786,40.365457],[-106.878114,40.365726],[-106.877825,40.36587],[-106.877639,40.365982],[-106.87738,40.366189],[-106.877176,40.366382],[-106.87706,40.366554],[-106.876931,40.36675],[-106.876854,40.366955],[-106.876795,40.36719],[-106.87677,40.367434],[-106.876775,40.367673],[-106.876832,40.367895],[-106.876912,40.3681],[-106.877027,40.368304],[-106.877158,40.368485],[-106.877802,40.369227],[-106.877941,40.369431],[-106.878046,40.369653],[-106.878115,40.369854],[-106.878142,40.370019],[-106.878163,40.37022],[-106.878153,40.370397],[-106.878129,40.37054],[-106.878074,40.370759],[-106.877981,40.370975],[-106.8778,40.371274]]}},{"id":"('way', 1313094899)","type":"Feature","properties":{"railway":"rail","bridge":null,"layer":null,"name":"UP Craig Subdivision","base_elevation":134},"geometry":{"type":"LineString","coordinates":[[-106.864058,40.383825],[-106.863609,40.383901],[-106.861367,40.384274],[-106.860403,40.384431]]}},{"id":"('way', 1313094900)","type":"Feature","properties":{"railway":"rail","bridge":null,"layer":null,"name":"UP Craig Subdivision","base_elevation":84},"geometry":{"type":"LineString","coordinates":[[-106.829003,40.47996],[-106.829119,40.480145],[-106.82959,40.480716],[-106.829916,40.481046],[-106.830376,40.481453],[-106.83078,40.481777],[-106.831432,40.482209],[-106.831849,40.482471],[-106.832742,40.482923],[-106.835148,40.484125],[-106.836551,40.484868],[-106.837679,40.485535],[-106.838977,40.486453],[-106.839595,40.48697],[-106.839996,40.487297]]}},{"id":"('way', 1313094901)","type":"Feature","properties":{"railway":"rail","bridge":null,"layer":null,"name":"UP Craig Subdivision","base_elevation":82},"geometry":{"type":"LineString","coordinates":[[-106.839996,40.487297],[-106.840691,40.487926],[-106.84128,40.488413],[-106.841723,40.488685],[-106.842046,40.48885],[-106.843573,40.489546]]}},{"id":"('way', 1313094902)","type":"Feature","properties":{"railway":"rail","bridge":null,"layer":null,"name":"UP Craig Subdivision","base_elevation":32},"geometry":{"type":"LineString","coordinates":[[-106.978809,40.483817],[-106.97951,40.483787],[-106.980584,40.483798],[-106.982188,40.48391],[-106.983213,40.48406],[-106.988897,40.484998],[-106.993506,40.485771],[-106.994696,40.485951],[-106.996677,40.48629],[-106.997325,40.486376],[-106.997981,40.486415],[-106.998655,40.486393],[-106.999178,40.486331],[-106.999607,40.48625],[-107.000116,40.486117],[-107.000663,40.485929],[-107.001119,40.485714],[-107.001548,40.485465],[-107.0019,40.485228],[-107.002389,40.484806],[-107.003224,40.484112],[-107.00364,40.483725]]}},{"id":"('way', 1340191350)","type":"Feature","properties":{"railway":"rail","bridge":null,"layer":null,"name":null,"base_elevation":126},"geometry":{"type":"LineString","coordinates":[[-107.06635,40.350678],[-107.065828,40.350962],[-107.065009,40.351396],[-107.064316,40.351783],[-107.063387,40.352305],[-107.062724,40.352662],[-107.061895,40.353096],[-107.06081,40.353662],[-107.059592,40.354252],[-107.05813,40.35496],[-107.057503,40.355259],[-107.056511,40.35573],[-107.055667,40.356145],[-107.055323,40.356304],[-107.055007,40.356533],[-107.054813,40.356684],[-107.054202,40.357206],[-107.053664,40.357679],[-107.05351,40.357893]]}}]}