{"type":"FeatureCollection","features":[{"id":"('node', 357939384)","type":"Feature","properties":{"amenity":"parking","highway":null,"aeroway":null,"base_elevation":1817},"geometry":{"type":"Point","coordinates":[-111.480518,45.15715]}},{"id":"('node', 3726907983)","type":"Feature","properties":{"amenity":"parking","highway":null,"aeroway":null,"base_elevation":789},"geometry":{"type":"Point","coordinates":[-111.435398,45.331429]}},{"id":"('node', 3726908714)","type":"Feature","properties":{"amenity":"parking","highway":null,"aeroway":null,"base_elevation":718},"geometry":{"type":"Point","coordinates":[-111.457379,45.352092]}},{"id":"('node', 3726951303)","type":"Feature","properties":{"amenity":"parking","highway":null,"aeroway":null,"base_elevation":541},"geometry":{"type":"Point","coordinates":[-111.332402,45.244236]}},{"id":"('node', 3726957921)","type":"Feature","properties":{"amenity":"parking","highway":null,"aeroway":null,"base_elevation":707},"geometry":{"type":"Point","coordinates":[-111.408906,45.242812]}},{"id":"('node', 4708838618)","type":"Feature","properties":{"amenity":"parking","highway":null,"aeroway":null,"base_elevation":416},"geometry":{"type":"Point","coordinates":[-111.284483,45.270625]}},{"id":"('node', 6838673609)","type":"Feature","properties":{"amenity":"parking","highway":null,"aeroway":null,"base_elevation":540},"geometry":{"type":"Point","coordinates":[-111.3235,45.276038]}},{"id":"('node', 9015554406)","type":"Feature","properties":{"amenity":"parking","highway":null,"aeroway":null,"base_elevation":821},"geometry":{"type":"Point","coordinates":[-111.400051,45.284552]}},{"id":"('node', 10166134492)","type":"Feature","properties":{"amenity":"parking","highway":null,"aeroway":null,"base_elevation":439},"geometry":{"type":"Point","coordinates":[-111.553554,45.156671]}},{"id":"('node', 10166294932)","type":"Feature","properties":{"amenity":"parking","highway":null,"aeroway":null,"base_elevation":945},"geometry":{"type":"Point","coordinates":[-111.385526,45.306907]}},{"id":"('node', 10186585148)","type":"Feature","properties":{"amenity":"parking","highway":null,"aeroway":null,"base_elevation":824},"geometry":{"type":"Point","coordinates":[-111.401691,45.289137]}},{"id":"('node', 10186585150)","type":"Feature","properties":{"amenity":"parking","highway":null,"aeroway":null,"base_elevation":826},"geometry":{"type":"Point","coordinates":[-111.401622,45.287083]}},{"id":"('node', 10186585151)","type":"Feature","properties":{"amenity":"parking","highway":null,"aeroway":null,"base_elevation":812},"geometry":{"type":"Point","coordinates":[-111.399014,45.286259]}},{"id":"('node', 10268262558)","type":"Feature","properties":{"amenity":"parking","highway":null,"aeroway":null,"base_elevation":716},"geometry":{"type":"Point","coordinates":[-111.334053,45.284676]}},{"id":"('way', 174317977)","type":"Feature","properties":{"amenity":"parking","highway":null,"aeroway":null,"base_elevation":958},"geometry":{"type":"Polygon","coordinates":[[[-111.422075,45.295352],[-111.422008,45.295431],[-111.421854,45.295472],[-111.421795,45.295499],[-111.421764,45.295541],[-111.42173,45.295657],[-111.421625,45.296027],[-111.420879,45.29566],[-111.420972,45.295611],[-111.421085,45.295509],[-111.421182,45.295408],[-111.421235,45.295327],[-111.421327,45.29519],[-111.421726,45.295326],[-111.4218,45.295312],[-111.421844,45.295255],[-111.422075,45.295352]]]}},{"id":"('way', 232400968)","type":"Feature","properties":{"amenity":"parking","highway":null,"aeroway":null,"base_elevation":457},"geometry":{"type":"Polygon","coordinates":[[[-111.310735,45.258918],[-111.310963,45.258948],[-111.310935,45.259044],[-111.311098,45.259211],[-111.311061,45.259235],[-111.311065,45.259254],[-111.311085,45.259268],[-111.311112,45.25927],[-111.3115,45.259272],[-111.311506,45.259037],[-111.311574,45.259037],[-111.311577,45.26002],[-111.311583,45.260153],[-111.311563,45.260189],[-111.31102,45.260013],[-111.311081,45.25992],[-111.311086,45.259878],[-111.311083,45.259505],[-111.311007,45.259504],[-111.311006,45.259342],[-111.310952,45.259365],[-111.310687,45.259099],[-111.310735,45.258918]]]}},{"id":"('way', 232593550)","type":"Feature","properties":{"amenity":"parking","highway":null,"aeroway":null,"base_elevation":806},"geometry":{"type":"Polygon","coordinates":[[[-111.399707,45.28592],[-111.399268,45.286333],[-111.398669,45.286713],[-111.398276,45.286791],[-111.398202,45.286732],[-111.398372,45.286529],[-111.39875,45.286155],[-111.399659,45.285477],[-111.399853,45.285496],[-111.399853,45.285776],[-111.399707,45.28592]]]}},{"id":"('way', 232595244)","type":"Feature","properties":{"amenity":"parking","highway":null,"aeroway":null,"base_elevation":810},"geometry":{"type":"Polygon","coordinates":[[[-111.398275,45.284975],[-111.398181,45.284922],[-111.398595,45.284561],[-111.398668,45.284603],[-111.398688,45.284614],[-111.398275,45.284975]]]}},{"id":"('way', 232654653)","type":"Feature","properties":{"amenity":"parking","highway":null,"aeroway":null,"base_elevation":816},"geometry":{"type":"Polygon","coordinates":[[[-111.400123,45.285053],[-111.40034,45.284865],[-111.40037,45.284831],[-111.400383,45.284791],[-111.400384,45.284673],[-111.400326,45.284673],[-111.400329,45.284555],[-111.400223,45.284476],[-111.400222,45.284314],[-111.400082,45.284316],[-111.400082,45.284223],[-111.400167,45.284224],[-111.400158,45.284116],[-111.400125,45.284062],[-111.400064,45.284008],[-111.399989,45.283971],[-111.39997,45.283966],[-111.399947,45.28398],[-111.399817,45.283959],[-111.399548,45.284099],[-111.39949,45.28414],[-111.39945,45.284301],[-111.399516,45.284303],[-111.399662,45.28451],[-111.400123,45.285053]]]}},{"id":"('way', 232789949)","type":"Feature","properties":{"amenity":"parking","highway":null,"aeroway":null,"base_elevation":459},"geometry":{"type":"Polygon","coordinates":[[[-111.312979,45.25955],[-111.313706,45.259562],[-111.313798,45.259448],[-111.313801,45.25925],[-111.313135,45.259254],[-111.31313,45.259047],[-111.312885,45.259046],[-111.312883,45.259323],[-111.312542,45.259324],[-111.312546,45.259427],[-111.312496,45.259461],[-111.312501,45.259585],[-111.312609,45.259612],[-111.31279,45.259454],[-111.312979,45.25955]]]}},{"id":"('way', 232848624)","type":"Feature","properties":{"amenity":"parking","highway":null,"aeroway":null,"base_elevation":836},"geometry":{"type":"Polygon","coordinates":[[[-111.402809,45.287859],[-111.402887,45.287893],[-111.403362,45.287351],[-111.403284,45.287317],[-111.402912,45.287741],[-111.402809,45.287859]]]}},{"id":"('way', 232848713)","type":"Feature","properties":{"amenity":"parking","highway":null,"aeroway":null,"base_elevation":819},"geometry":{"type":"Polygon","coordinates":[[[-111.402736,45.290059],[-111.40222,45.290217],[-111.401804,45.28997],[-111.401591,45.28978],[-111.401408,45.289508],[-111.40125,45.289241],[-111.401142,45.288948],[-111.401043,45.288617],[-111.40101,45.288328],[-111.401034,45.288077],[-111.401103,45.287843],[-111.401175,45.287634],[-111.401196,45.287364],[-111.401223,45.287322],[-111.401324,45.287324],[-111.401375,45.287345],[-111.401447,45.287546],[-111.401639,45.288189],[-111.401741,45.288454],[-111.401963,45.288891],[-111.402154,45.289226],[-111.402286,45.289431],[-111.402736,45.290059]]]}},{"id":"('way', 323238263)","type":"Feature","properties":{"amenity":"parking","highway":null,"aeroway":null,"base_elevation":422},"geometry":{"type":"Polygon","coordinates":[[[-111.292764,45.267169],[-111.292488,45.266835],[-111.292761,45.266717],[-111.29263,45.266559],[-111.292346,45.266684],[-111.292434,45.266789],[-111.292204,45.266882],[-111.292531,45.267265],[-111.292764,45.267169]]]}},{"id":"('way', 323238266)","type":"Feature","properties":{"amenity":"parking","highway":null,"aeroway":null,"base_elevation":422},"geometry":{"type":"Polygon","coordinates":[[[-111.292187,45.266876],[-111.292204,45.26681],[-111.291994,45.266776],[-111.291986,45.26685],[-111.292187,45.266876]]]}},{"id":"('way', 323238269)","type":"Feature","properties":{"amenity":"parking","highway":null,"aeroway":null,"base_elevation":421},"geometry":{"type":"Polygon","coordinates":[[[-111.29189,45.26685],[-111.291742,45.266689],[-111.291412,45.266825],[-111.291546,45.266989],[-111.29189,45.26685]]]}},{"id":"('way', 323238271)","type":"Feature","properties":{"amenity":"parking","highway":null,"aeroway":null,"base_elevation":422},"geometry":{"type":"Polygon","coordinates":[[[-111.291906,45.266618],[-111.291815,45.266506],[-111.291587,45.266602],[-111.291681,45.2667],[-111.291906,45.266618]]]}},{"id":"('way', 323238273)","type":"Feature","properties":{"amenity":"parking","highway":null,"aeroway":null,"base_elevation":418},"geometry":{"type":"Polygon","coordinates":[[[-111.291308,45.267503],[-111.291681,45.267341],[-111.291268,45.266893],[-111.290753,45.267108],[-111.290981,45.267378],[-111.291053,45.267358],[-111.291195,45.267308],[-111.291246,45.267361],[-111.291206,45.267384],[-111.291308,45.267503]]]}},{"id":"('way', 323238277)","type":"Feature","properties":{"amenity":"parking","highway":null,"aeroway":null,"base_elevation":418},"geometry":{"type":"Polygon","coordinates":[[[-111.291387,45.267873],[-111.291136,45.267584],[-111.290943,45.267665],[-111.291186,45.267946],[-111.291387,45.267873]]]}},{"id":"('way', 323238279)","type":"Feature","properties":{"amenity":"parking","highway":null,"aeroway":null,"base_elevation":417},"geometry":{"type":"Polygon","coordinates":[[[-111.291053,45.266768],[-111.290986,45.266612],[-111.290653,45.266672],[-111.290372,45.266774],[-111.290492,45.266914],[-111.290758,45.266814],[-111.291053,45.266768]]]}},{"id":"('way', 323238281)","type":"Feature","properties":{"amenity":"parking","highway":null,"aeroway":null,"base_elevation":453},"geometry":{"type":"Polygon","coordinates":[[[-111.309574,45.259551],[-111.309467,45.259466],[-111.309374,45.259495],[-111.309338,45.259457],[-111.309186,45.259529],[-111.309106,45.259447],[-111.309012,45.259419],[-111.307893,45.259282],[-111.307752,45.259887],[-111.308405,45.25997],[-111.308954,45.259846],[-111.309177,45.259752],[-111.309307,45.259692],[-111.309574,45.259551]]]}},{"id":"('way', 323252369)","type":"Feature","properties":{"amenity":"parking","highway":null,"aeroway":null,"base_elevation":457},"geometry":{"type":"Polygon","coordinates":[[[-111.311274,45.260179],[-111.311233,45.260245],[-111.311137,45.260263],[-111.310975,45.260464],[-111.310798,45.260405],[-111.310811,45.260314],[-111.31079,45.260165],[-111.310864,45.260108],[-111.310927,45.26014],[-111.310957,45.260136],[-111.310988,45.260079],[-111.311274,45.260179]]]}},{"id":"('way', 323252372)","type":"Feature","properties":{"amenity":"parking","highway":null,"aeroway":null,"base_elevation":455},"geometry":{"type":"Polygon","coordinates":[[[-111.310335,45.2606],[-111.310261,45.260425],[-111.310122,45.260443],[-111.309995,45.260441],[-111.309993,45.260389],[-111.309692,45.260386],[-111.30959,45.260608],[-111.309763,45.260637],[-111.30992,45.260641],[-111.310142,45.26063],[-111.310335,45.2606]]]}},{"id":"('way', 323252373)","type":"Feature","properties":{"amenity":"parking","highway":null,"aeroway":null,"base_elevation":455},"geometry":{"type":"Polygon","coordinates":[[[-111.309851,45.260749],[-111.309859,45.260687],[-111.309656,45.260673],[-111.309641,45.260735],[-111.309851,45.260749]]]}},{"id":"('way', 323252375)","type":"Feature","properties":{"amenity":"parking","highway":null,"aeroway":null,"base_elevation":453},"geometry":{"type":"Polygon","coordinates":[[[-111.309552,45.260717],[-111.309455,45.260664],[-111.309064,45.260603],[-111.308983,45.260598],[-111.308859,45.26061],[-111.308867,45.260664],[-111.308798,45.260671],[-111.308831,45.26081],[-111.308907,45.260808],[-111.30892,45.260851],[-111.309375,45.260794],[-111.309451,45.260774],[-111.30951,45.260753],[-111.309552,45.260717]]]}},{"id":"('way', 323252378)","type":"Feature","properties":{"amenity":"parking","highway":null,"aeroway":null,"base_elevation":454},"geometry":{"type":"Polygon","coordinates":[[[-111.309472,45.260587],[-111.30952,45.260466],[-111.309461,45.260453],[-111.309413,45.260573],[-111.309472,45.260587]]]}},{"id":"('way', 323252380)","type":"Feature","properties":{"amenity":"parking","highway":null,"aeroway":null,"base_elevation":454},"geometry":{"type":"Polygon","coordinates":[[[-111.309552,45.260393],[-111.309639,45.260185],[-111.309558,45.26017],[-111.309507,45.260377],[-111.309552,45.260393]]]}},{"id":"('way', 323252393)","type":"Feature","properties":{"amenity":"parking","highway":null,"aeroway":null,"base_elevation":360},"geometry":{"type":"Polygon","coordinates":[[[-111.254058,45.265174],[-111.253826,45.265374],[-111.253734,45.26534],[-111.253751,45.265276],[-111.253949,45.265122],[-111.254058,45.265174]]]}},{"id":"('way', 323252395)","type":"Feature","properties":{"amenity":"parking","highway":null,"aeroway":null,"base_elevation":361},"geometry":{"type":"Polygon","coordinates":[[[-111.254729,45.265067],[-111.25454,45.265019],[-111.254497,45.265095],[-111.254436,45.265081],[-111.254422,45.265095],[-111.254385,45.265076],[-111.254331,45.265132],[-111.254453,45.265162],[-111.254601,45.265141],[-111.254729,45.265067]]]}},{"id":"('way', 323252400)","type":"Feature","properties":{"amenity":"parking","highway":null,"aeroway":null,"base_elevation":360},"geometry":{"type":"Polygon","coordinates":[[[-111.253957,45.264875],[-111.253867,45.264894],[-111.253863,45.264941],[-111.253945,45.265013],[-111.253957,45.264875]]]}},{"id":"('way', 323255233)","type":"Feature","properties":{"amenity":"parking","highway":null,"aeroway":null,"base_elevation":420},"geometry":{"type":"Polygon","coordinates":[[[-111.293019,45.267631],[-111.292734,45.267538],[-111.29264,45.267419],[-111.292954,45.267296],[-111.292902,45.267237],[-111.292403,45.267451],[-111.292345,45.267501],[-111.292342,45.267554],[-111.292491,45.267725],[-111.292809,45.267823],[-111.29286,45.267732],[-111.292977,45.267697],[-111.293019,45.267631]]]}},{"id":"('way', 323255234)","type":"Feature","properties":{"amenity":"parking","highway":null,"aeroway":null,"base_elevation":420},"geometry":{"type":"Polygon","coordinates":[[[-111.292708,45.26793],[-111.29274,45.267875],[-111.292462,45.267793],[-111.292426,45.267768],[-111.292338,45.267684],[-111.292209,45.267515],[-111.292125,45.267542],[-111.292384,45.267832],[-111.292708,45.26793]]]}},{"id":"('way', 323255235)","type":"Feature","properties":{"amenity":"parking","highway":null,"aeroway":null,"base_elevation":420},"geometry":{"type":"Polygon","coordinates":[[[-111.292536,45.267328],[-111.292488,45.267269],[-111.29217,45.267399],[-111.292219,45.26746],[-111.292536,45.267328]]]}},{"id":"('way', 323255236)","type":"Feature","properties":{"amenity":"parking","highway":null,"aeroway":null,"base_elevation":418},"geometry":{"type":"Polygon","coordinates":[[[-111.292439,45.268377],[-111.292228,45.268028],[-111.292154,45.268056],[-111.292157,45.268083],[-111.291982,45.268133],[-111.292037,45.268213],[-111.291882,45.268272],[-111.292053,45.268501],[-111.292303,45.268407],[-111.292368,45.2684],[-111.292439,45.268377]]]}},{"id":"('way', 323255237)","type":"Feature","properties":{"amenity":"parking","highway":null,"aeroway":null,"base_elevation":419},"geometry":{"type":"Polygon","coordinates":[[[-111.293878,45.268138],[-111.293509,45.268106],[-111.293398,45.26798],[-111.293298,45.268008],[-111.293233,45.267992],[-111.293194,45.268046],[-111.293084,45.268138],[-111.292802,45.268384],[-111.292987,45.268475],[-111.293107,45.268395],[-111.293321,45.268544],[-111.293878,45.268138]]]}},{"id":"('way', 323255240)","type":"Feature","properties":{"amenity":"parking","highway":null,"aeroway":null,"base_elevation":416},"geometry":{"type":"Polygon","coordinates":[[[-111.291749,45.268605],[-111.291574,45.268391],[-111.29146,45.268409],[-111.29134,45.268345],[-111.291214,45.268459],[-111.29147,45.268617],[-111.291625,45.268656],[-111.291749,45.268605]]]}},{"id":"('way', 368850776)","type":"Feature","properties":{"amenity":"parking","highway":null,"aeroway":null,"base_elevation":769},"geometry":{"type":"Polygon","coordinates":[[[-111.369889,45.257888],[-111.369772,45.258034],[-111.369448,45.25795],[-111.369157,45.257934],[-111.368428,45.257897],[-111.368034,45.257837],[-111.368084,45.257665],[-111.368863,45.25777],[-111.369154,45.257761],[-111.369506,45.257788],[-111.369809,45.257854],[-111.369889,45.257888]]]}},{"id":"('way', 368850777)","type":"Feature","properties":{"amenity":"parking","highway":null,"aeroway":null,"base_elevation":776},"geometry":{"type":"Polygon","coordinates":[[[-111.369833,45.258107],[-111.369341,45.257968],[-111.369254,45.258121],[-111.369745,45.25826],[-111.369833,45.258107]]]}},{"id":"('way', 368853031)","type":"Feature","properties":{"amenity":"parking","highway":null,"aeroway":null,"base_elevation":706},"geometry":{"type":"Polygon","coordinates":[[[-111.410571,45.241769],[-111.410307,45.241262],[-111.40962,45.24144],[-111.409884,45.241946],[-111.410571,45.241769]]]}},{"id":"('way', 468561072)","type":"Feature","properties":{"amenity":"parking","highway":null,"aeroway":null,"base_elevation":445},"geometry":{"type":"Polygon","coordinates":[[[-111.303394,45.26106],[-111.303499,45.260647],[-111.303384,45.260635],[-111.303331,45.260628],[-111.303341,45.260574],[-111.303145,45.260548],[-111.303129,45.260609],[-111.303057,45.260599],[-111.303008,45.260591],[-111.302943,45.260582],[-111.302874,45.260936],[-111.30282,45.260935],[-111.302811,45.260996],[-111.302673,45.261008],[-111.302675,45.261028],[-111.302682,45.261103],[-111.303049,45.261109],[-111.303051,45.261055],[-111.303104,45.261055],[-111.303115,45.261106],[-111.303316,45.261113],[-111.303319,45.261055],[-111.303394,45.26106]]]}},{"id":"('way', 629308181)","type":"Feature","properties":{"amenity":"parking","highway":null,"aeroway":null,"base_elevation":760},"geometry":{"type":"Polygon","coordinates":[[[-111.433023,45.311951],[-111.432974,45.311957],[-111.432769,45.311901],[-111.432563,45.311926],[-111.432396,45.311899],[-111.432265,45.311866],[-111.432167,45.311795],[-111.431957,45.311389],[-111.431901,45.311298],[-111.431822,45.311241],[-111.431858,45.311032],[-111.431608,45.31089],[-111.431734,45.310701],[-111.432025,45.310757],[-111.432211,45.310736],[-111.432304,45.310741],[-111.432783,45.310866],[-111.432883,45.310915],[-111.433232,45.311248],[-111.433348,45.311414],[-111.433359,45.311561],[-111.433321,45.311727],[-111.433217,45.311825],[-111.433023,45.311951]]]}},{"id":"('way', 630737211)","type":"Feature","properties":{"amenity":"parking","highway":null,"aeroway":null,"base_elevation":821},"geometry":{"type":"Polygon","coordinates":[[[-111.401503,45.287368],[-111.401584,45.287425],[-111.401691,45.287425],[-111.401745,45.287338],[-111.401788,45.287266],[-111.401788,45.287206],[-111.401788,45.287168],[-111.402233,45.287097],[-111.402125,45.28678],[-111.401696,45.286855],[-111.401573,45.286776],[-111.401498,45.286666],[-111.401417,45.286591],[-111.401299,45.286508],[-111.400999,45.286791],[-111.401299,45.287032],[-111.40138,45.2871],[-111.401337,45.287138],[-111.401503,45.287368]]]}},{"id":"('way', 630737212)","type":"Feature","properties":{"amenity":"parking","highway":null,"aeroway":null,"base_elevation":827},"geometry":{"type":"Polygon","coordinates":[[[-111.40288,45.290026],[-111.402436,45.289445],[-111.401869,45.288448],[-111.401789,45.28824],[-111.401999,45.288262],[-111.402208,45.288327],[-111.402338,45.288491],[-111.402505,45.288835],[-111.402615,45.289146],[-111.40268,45.28932],[-111.40283,45.289484],[-111.403034,45.289658],[-111.403144,45.289753],[-111.403293,45.289879],[-111.40288,45.290026]]]}},{"id":"('way', 630737214)","type":"Feature","properties":{"amenity":"parking","highway":null,"aeroway":null,"base_elevation":827},"geometry":{"type":"Polygon","coordinates":[[[-111.401725,45.288051],[-111.401598,45.287633],[-111.40162,45.28757],[-111.401709,45.287555],[-111.40186,45.287585],[-111.402042,45.287624],[-111.402205,45.287667],[-111.402248,45.287748],[-111.402224,45.287845],[-111.402094,45.287917],[-111.40206,45.288001],[-111.401814,45.288042],[-111.401725,45.288051]]]}},{"id":"('way', 630747530)","type":"Feature","properties":{"amenity":"parking","highway":null,"aeroway":null,"base_elevation":415},"geometry":{"type":"Polygon","coordinates":[[[-111.292126,45.270546],[-111.292192,45.270636],[-111.29221,45.27074],[-111.292179,45.270813],[-111.292159,45.270854],[-111.292104,45.270816],[-111.292082,45.270822],[-111.29208,45.270842],[-111.292126,45.270871],[-111.292071,45.270915],[-111.291966,45.270965],[-111.291821,45.270989],[-111.29171,45.270975],[-111.291695,45.270932],[-111.291687,45.270916],[-111.291661,45.270919],[-111.291647,45.270948],[-111.291642,45.270965],[-111.291293,45.270911],[-111.291293,45.270876],[-111.291283,45.270862],[-111.291258,45.270856],[-111.291236,45.270862],[-111.291212,45.270891],[-111.291122,45.270858],[-111.291151,45.270839],[-111.291143,45.270818],[-111.291143,45.270798],[-111.291122,45.270768],[-111.291104,45.270735],[-111.291088,45.270683],[-111.291179,45.270677],[-111.291181,45.270715],[-111.291203,45.270768],[-111.29127,45.270795],[-111.291317,45.270795],[-111.29133,45.270772],[-111.291366,45.270761],[-111.291669,45.270805],[-111.291679,45.270851],[-111.291689,45.270861],[-111.291718,45.270861],[-111.291738,45.270841],[-111.291746,45.270822],[-111.291854,45.270818],[-111.291903,45.2708],[-111.291941,45.270773],[-111.29197,45.270755],[-111.291972,45.270726],[-111.291964,45.27069],[-111.291956,45.270668],[-111.291951,45.270656],[-111.292002,45.27065],[-111.292008,45.270637],[-111.292008,45.270625],[-111.291998,45.270612],[-111.291974,45.27059],[-111.291943,45.27058],[-111.291913,45.270579],[-111.291964,45.2705],[-111.29199,45.27053],[-111.292035,45.270559],[-111.292075,45.27058],[-111.292126,45.270546]]]}},{"id":"('way', 630747531)","type":"Feature","properties":{"amenity":"parking","highway":null,"aeroway":null,"base_elevation":413},"geometry":{"type":"Polygon","coordinates":[[[-111.290856,45.270666],[-111.290486,45.27064],[-111.290149,45.270635],[-111.289795,45.270648],[-111.289844,45.270748],[-111.289931,45.270732],[-111.290033,45.27072],[-111.290132,45.27071],[-111.290138,45.270673],[-111.290163,45.270656],[-111.290189,45.270673],[-111.290195,45.270703],[-111.290197,45.270716],[-111.290486,45.270722],[-111.290496,45.270682],[-111.290516,45.270668],[-111.290555,45.270689],[-111.290549,45.270726],[-111.290805,45.270749],[-111.290817,45.270697],[-111.290836,45.270679],[-111.290856,45.270666]]]}},{"id":"('way', 630747532)","type":"Feature","properties":{"amenity":"parking","highway":null,"aeroway":null,"base_elevation":413},"geometry":{"type":"Polygon","coordinates":[[[-111.289722,45.270641],[-111.289691,45.27071],[-111.28962,45.270768],[-111.289646,45.270807],[-111.28948,45.270853],[-111.289348,45.270873],[-111.289329,45.270824],[-111.289307,45.270818],[-111.289287,45.270827],[-111.289281,45.270871],[-111.289136,45.270874],[-111.288949,45.270853],[-111.288947,45.270815],[-111.288943,45.2708],[-111.288915,45.270795],[-111.288886,45.270838],[-111.288806,45.270817],[-111.288669,45.270791],[-111.288622,45.27077],[-111.288646,45.270741],[-111.288654,45.270725],[-111.28863,45.270695],[-111.288595,45.270684],[-111.288662,45.270643],[-111.288724,45.270688],[-111.288782,45.270649],[-111.289097,45.270705],[-111.289103,45.270751],[-111.289134,45.270764],[-111.289162,45.270753],[-111.289165,45.270705],[-111.289297,45.270712],[-111.289427,45.270697],[-111.289491,45.270677],[-111.289519,45.270723],[-111.289571,45.270721],[-111.289611,45.270697],[-111.289624,45.270669],[-111.289605,45.270632],[-111.289722,45.270641]]]}},{"id":"('way', 630747537)","type":"Feature","properties":{"amenity":"parking","highway":null,"aeroway":null,"base_elevation":434},"geometry":{"type":"Polygon","coordinates":[[[-111.302727,45.26634],[-111.303183,45.266262],[-111.303245,45.266229],[-111.303257,45.26621],[-111.303251,45.266149],[-111.303208,45.266019],[-111.303121,45.265859],[-111.303054,45.265802],[-111.302961,45.265768],[-111.302764,45.265716],[-111.302672,45.265672],[-111.302598,45.26562],[-111.302573,45.265542],[-111.302437,45.265429],[-111.302382,45.265399],[-111.302302,45.265476],[-111.302268,45.265521],[-111.302363,45.265572],[-111.302554,45.26575],[-111.302536,45.265876],[-111.302542,45.26595],[-111.302536,45.266024],[-111.302672,45.266262],[-111.302727,45.26634]]]}},{"id":"('way', 630747538)","type":"Feature","properties":{"amenity":"parking","highway":null,"aeroway":null,"base_elevation":392},"geometry":{"type":"Polygon","coordinates":[[[-111.250492,45.22373],[-111.250429,45.223727],[-111.25042,45.223677],[-111.249969,45.223684],[-111.250012,45.223843],[-111.250163,45.223815],[-111.250252,45.223998],[-111.250296,45.223989],[-111.250325,45.224076],[-111.250501,45.224071],[-111.250492,45.22373]]]}},{"id":"('way', 686316361)","type":"Feature","properties":{"amenity":"parking","highway":null,"aeroway":null,"base_elevation":444},"geometry":{"type":"Polygon","coordinates":[[[-111.302372,45.260821],[-111.302271,45.260808],[-111.302353,45.260495],[-111.30237,45.260598],[-111.302415,45.260655],[-111.302372,45.260821]]]}},{"id":"('way', 686316362)","type":"Feature","properties":{"amenity":"parking","highway":null,"aeroway":null,"base_elevation":441},"geometry":{"type":"Polygon","coordinates":[[[-111.301598,45.26104],[-111.301836,45.260922],[-111.302053,45.260739],[-111.301987,45.260696],[-111.302036,45.260657],[-111.301777,45.260531],[-111.301743,45.260567],[-111.30167,45.260535],[-111.30165,45.260563],[-111.301615,45.260597],[-111.301662,45.260619],[-111.301636,45.260655],[-111.301596,45.260633],[-111.301487,45.26072],[-111.301327,45.260781],[-111.301361,45.26083],[-111.301285,45.260856],[-111.301259,45.26082],[-111.30114,45.26085],[-111.301159,45.260884],[-111.301117,45.260898],[-111.301095,45.260853],[-111.301067,45.260861],[-111.301002,45.260875],[-111.301046,45.261031],[-111.301195,45.261],[-111.301342,45.260958],[-111.30131,45.260907],[-111.301374,45.260887],[-111.301476,45.261034],[-111.301559,45.260995],[-111.301598,45.26104]]]}},{"id":"('way', 686316367)","type":"Feature","properties":{"amenity":"parking","highway":null,"aeroway":null,"base_elevation":437},"geometry":{"type":"Polygon","coordinates":[[[-111.299322,45.260965],[-111.299325,45.260904],[-111.299252,45.260902],[-111.299264,45.260683],[-111.29935,45.260686],[-111.299353,45.260634],[-111.299918,45.26065],[-111.29991,45.260791],[-111.299899,45.260981],[-111.299322,45.260965]]]}},{"id":"('way', 806466240)","type":"Feature","properties":{"amenity":"parking","highway":null,"aeroway":null,"base_elevation":448},"geometry":{"type":"Polygon","coordinates":[[[-111.306128,45.261184],[-111.306282,45.261178],[-111.30628,45.261131],[-111.306337,45.261124],[-111.306337,45.261173],[-111.306655,45.261137],[-111.306655,45.261088],[-111.306685,45.261086],[-111.306687,45.261134],[-111.307039,45.261104],[-111.307038,45.261049],[-111.307071,45.261048],[-111.307077,45.2611],[-111.307197,45.261088],[-111.307427,45.26106],[-111.307421,45.261004],[-111.307455,45.260997],[-111.307507,45.26105],[-111.307746,45.260956],[-111.307711,45.260909],[-111.307751,45.260886],[-111.307794,45.260937],[-111.307977,45.260864],[-111.307926,45.260805],[-111.307929,45.260789],[-111.308002,45.260794],[-111.308062,45.26054],[-111.307896,45.260513],[-111.307868,45.260668],[-111.307857,45.260618],[-111.307849,45.26057],[-111.307808,45.260564],[-111.307736,45.260554],[-111.307742,45.260508],[-111.307749,45.260461],[-111.307152,45.260395],[-111.307141,45.260444],[-111.307091,45.260437],[-111.307065,45.260434],[-111.306969,45.260421],[-111.306978,45.260386],[-111.306772,45.260359],[-111.306763,45.260399],[-111.306747,45.260402],[-111.306711,45.260358],[-111.306493,45.260461],[-111.306519,45.260487],[-111.306481,45.260507],[-111.306456,45.260482],[-111.30634,45.26055],[-111.306363,45.260577],[-111.306284,45.260619],[-111.30627,45.260703],[-111.306198,45.260697],[-111.306163,45.260839],[-111.306235,45.260848],[-111.30623,45.260869],[-111.306157,45.260863],[-111.306128,45.260995],[-111.306186,45.260998],[-111.306149,45.261086],[-111.30613,45.261125],[-111.306128,45.261184]]]}},{"id":"('way', 806466242)","type":"Feature","properties":{"amenity":"parking","highway":null,"aeroway":null,"base_elevation":447},"geometry":{"type":"Polygon","coordinates":[[[-111.306002,45.261189],[-111.306013,45.261085],[-111.305098,45.261077],[-111.305151,45.260827],[-111.305192,45.260816],[-111.305234,45.260856],[-111.305335,45.260806],[-111.305295,45.260762],[-111.305256,45.260729],[-111.30524,45.260735],[-111.305201,45.260735],[-111.305149,45.260727],[-111.305154,45.260704],[-111.305159,45.260678],[-111.305221,45.260688],[-111.305266,45.260515],[-111.3052,45.260506],[-111.305207,45.260474],[-111.305258,45.26039],[-111.305309,45.260363],[-111.305128,45.260166],[-111.305041,45.260189],[-111.305019,45.260181],[-111.305029,45.260117],[-111.304849,45.260091],[-111.304836,45.260146],[-111.3047,45.260127],[-111.304565,45.260114],[-111.304565,45.260053],[-111.30439,45.260038],[-111.304378,45.26011],[-111.304295,45.260109],[-111.304203,45.260494],[-111.30426,45.260503],[-111.304231,45.260619],[-111.304201,45.26076],[-111.304124,45.260758],[-111.304038,45.261089],[-111.304128,45.261096],[-111.304136,45.261146],[-111.304478,45.261155],[-111.30448,45.261094],[-111.304512,45.261095],[-111.304512,45.261155],[-111.304836,45.261164],[-111.30484,45.261102],[-111.304869,45.261102],[-111.304867,45.261165],[-111.305223,45.261174],[-111.305226,45.261119],[-111.305251,45.26112],[-111.30525,45.261175],[-111.305572,45.261183],[-111.305576,45.261133],[-111.305642,45.261135],[-111.305639,45.261184],[-111.306002,45.261189]]]}},{"id":"('way', 838052733)","type":"Feature","properties":{"amenity":null,"highway":null,"aeroway":"runway","base_elevation":531},"geometry":{"type":"LineString","coordinates":[[-111.327596,45.246955],[-111.32869,45.246642]]}},{"id":"('way', 914286294)","type":"Feature","properties":{"amenity":"parking","highway":null,"aeroway":null,"base_elevation":467},"geometry":{"type":"Polygon","coordinates":[[[-111.314384,45.25813],[-111.313669,45.258132],[-111.313663,45.258042],[-111.314442,45.258045],[-111.314384,45.25813]]]}},{"id":"('way', 1283801282)","type":"Feature","properties":{"amenity":null,"highway":"pedestrian","aeroway":null,"base_elevation":392},"geometry":{"type":"Polygon","coordinates":[[[-111.250084,45.224035],[-111.250016,45.224039],[-111.250043,45.224093],[-111.250066,45.224091],[-111.250099,45.224195],[-111.250093,45.224222],[-111.250133,45.224311],[-111.250225,45.224303],[-111.250185,45.224247],[-111.250084,45.224035]]]}}]}