{"type":"FeatureCollection","features":[{"id":"0","type":"Feature","properties":{"landuse":"commercial","amenity":"unknown","military":"unknown","base_elevation":807},"geometry":{"type":"Polygon","coordinates":[[[-111.399907,45.285061],[-111.39947,45.286989],[-111.399027,45.287301],[-111.398927,45.287577],[-111.39914,45.288048],[-111.399785,45.288209],[-111.400659,45.287855],[-111.400692,45.287506],[-111.400999,45.286791],[-111.401299,45.286508],[-111.401696,45.286855],[-111.402125,45.28678],[-111.401902,45.286163],[-111.402578,45.28595],[-111.40234,45.28445],[-111.400993,45.283028],[-111.400571,45.28287],[-111.399499,45.283354],[-111.399883,45.283624],[-111.39896,45.284382],[-111.399907,45.285061]]]}},{"id":"1","type":"Feature","properties":{"landuse":"residential","amenity":"unknown","military":"unknown","base_elevation":1042},"geometry":{"type":"Polygon","coordinates":[[[-111.439001,45.239901],[-111.437886,45.240732],[-111.437721,45.241322],[-111.437563,45.241595],[-111.43543,45.242681],[-111.435378,45.242922],[-111.43563,45.243227],[-111.436215,45.243687],[-111.436323,45.244046],[-111.435546,45.244647],[-111.434193,45.245256],[-111.432976,45.245621],[-111.432215,45.245662],[-111.431812,45.245519],[-111.43136,45.244102],[-111.430981,45.243933],[-111.430458,45.243504],[-111.430429,45.24288],[-111.432142,45.241454],[-111.432684,45.241174],[-111.433695,45.23988],[-111.435443,45.238573],[-111.435786,45.238051],[-111.436284,45.237709],[-111.437199,45.237458],[-111.437743,45.237174],[-111.438263,45.237047],[-111.440487,45.237516],[-111.440537,45.237665],[-111.439001,45.239901]]]}},{"id":"2","type":"Feature","properties":{"landuse":"residential","amenity":"unknown","military":"unknown","base_elevation":841},"geometry":{"type":"Polygon","coordinates":[[[-111.444157,45.257949],[-111.445129,45.260362],[-111.440893,45.260613],[-111.437534,45.261236],[-111.437095,45.260927],[-111.43686,45.260927],[-111.436676,45.261039],[-111.436391,45.261745],[-111.436349,45.262755],[-111.435918,45.263669],[-111.435429,45.264284],[-111.435142,45.264926],[-111.434658,45.265258],[-111.434028,45.265898],[-111.433939,45.266211],[-111.432624,45.268224],[-111.429087,45.268265],[-111.428469,45.268045],[-111.42751,45.267267],[-111.427501,45.265935],[-111.426811,45.263358],[-111.427446,45.262406],[-111.427276,45.260627],[-111.428259,45.258898],[-111.430349,45.25486],[-111.431664,45.253481],[-111.433166,45.25332],[-111.436478,45.253818],[-111.437546,45.255593],[-111.440857,45.256926],[-111.444157,45.257949]]]}},{"id":"3","type":"Feature","properties":{"landuse":"residential","amenity":"unknown","military":"unknown","base_elevation":969},"geometry":{"type":"Polygon","coordinates":[[[-111.398556,45.268931],[-111.398624,45.26724],[-111.398376,45.26697],[-111.396752,45.265918],[-111.395536,45.264474],[-111.392425,45.262481],[-111.392732,45.261063],[-111.393797,45.258759],[-111.392938,45.257626],[-111.395397,45.254829],[-111.396627,45.254019],[-111.400809,45.252907],[-111.40638,45.252726],[-111.409532,45.252251],[-111.410155,45.255334],[-111.407087,45.256985],[-111.405172,45.258186],[-111.404791,45.259562],[-111.407299,45.25887],[-111.409041,45.258178],[-111.411283,45.257494],[-111.415184,45.254634],[-111.416671,45.254007],[-111.418109,45.253982],[-111.418947,45.254612],[-111.419868,45.254728],[-111.421782,45.257722],[-111.423363,45.259467],[-111.42205,45.259904],[-111.421489,45.260006],[-111.416521,45.263027],[-111.412916,45.26339],[-111.410157,45.26344],[-111.404541,45.267595],[-111.399449,45.270135],[-111.399234,45.270122],[-111.399,45.269989],[-111.398939,45.269451],[-111.398556,45.268931]]]}},{"id":"4","type":"Feature","properties":{"landuse":"residential","amenity":"unknown","military":"unknown","base_elevation":1057},"geometry":{"type":"Polygon","coordinates":[[[-111.425759,45.267916],[-111.421541,45.269866],[-111.42097,45.269672],[-111.420676,45.26934],[-111.420512,45.268351],[-111.4198,45.267924],[-111.418582,45.266905],[-111.416772,45.266049],[-111.415576,45.265057],[-111.416391,45.264102],[-111.417983,45.263205],[-111.418681,45.262084],[-111.419493,45.261821],[-111.419844,45.262185],[-111.421331,45.263087],[-111.421756,45.2636],[-111.422086,45.264722],[-111.423801,45.264849],[-111.424791,45.265946],[-111.42497,45.266788],[-111.425433,45.267345],[-111.425759,45.267916]]]}},{"id":"5","type":"Feature","properties":{"landuse":"residential","amenity":"unknown","military":"unknown","base_elevation":845},"geometry":{"type":"Polygon","coordinates":[[[-111.409204,45.290982],[-111.408284,45.290982],[-111.408115,45.291366],[-111.407754,45.291665],[-111.407894,45.292107],[-111.408993,45.291532],[-111.409256,45.291643],[-111.409639,45.291632],[-111.410304,45.291861],[-111.41067,45.292144],[-111.410853,45.292633],[-111.411042,45.292813],[-111.411097,45.293102],[-111.411471,45.293887],[-111.410105,45.294179],[-111.409521,45.294176],[-111.408513,45.293143],[-111.407721,45.292164],[-111.406308,45.292495],[-111.405544,45.292245],[-111.405269,45.291957],[-111.405261,45.291299],[-111.404524,45.290883],[-111.404279,45.290581],[-111.404288,45.290316],[-111.404921,45.289212],[-111.405188,45.289],[-111.40556,45.288942],[-111.405955,45.28916],[-111.407124,45.289235],[-111.407645,45.289504],[-111.409243,45.289541],[-111.409452,45.28973],[-111.409645,45.290075],[-111.409434,45.290399],[-111.409356,45.290818],[-111.409204,45.290982]]]}},{"id":"6","type":"Feature","properties":{"landuse":"residential","amenity":"unknown","military":"unknown","base_elevation":907},"geometry":{"type":"Polygon","coordinates":[[[-111.423292,45.290242],[-111.423728,45.290492],[-111.423747,45.290816],[-111.423619,45.291658],[-111.423182,45.292173],[-111.422507,45.29269],[-111.42025,45.293295],[-111.419061,45.29338],[-111.415644,45.292868],[-111.414047,45.292874],[-111.413474,45.29203],[-111.413428,45.290895],[-111.413617,45.290152],[-111.413934,45.290069],[-111.418091,45.289861],[-111.4214,45.289855],[-111.421729,45.289822],[-111.421809,45.289743],[-111.422551,45.290148],[-111.423292,45.290242]]]}},{"id":"7","type":"Feature","properties":{"landuse":"residential","amenity":"unknown","military":"unknown","base_elevation":911},"geometry":{"type":"Polygon","coordinates":[[[-111.431544,45.295282],[-111.432455,45.296541],[-111.432811,45.296863],[-111.432516,45.297631],[-111.432616,45.297963],[-111.434187,45.297788],[-111.434294,45.297696],[-111.434341,45.297238],[-111.434681,45.296993],[-111.435379,45.297068],[-111.435115,45.297657],[-111.435206,45.298229],[-111.434619,45.298474],[-111.43441,45.298129],[-111.433586,45.298117],[-111.433648,45.298234],[-111.433596,45.298353],[-111.433342,45.298395],[-111.433112,45.298618],[-111.43311,45.298777],[-111.433447,45.299155],[-111.433285,45.299507],[-111.431141,45.300565],[-111.431012,45.300298],[-111.431078,45.29973],[-111.430722,45.29942],[-111.430622,45.299193],[-111.430335,45.299357],[-111.429409,45.298969],[-111.428866,45.299009],[-111.428449,45.298896],[-111.427928,45.300038],[-111.428119,45.300101],[-111.428206,45.300231],[-111.428271,45.300635],[-111.428129,45.30084],[-111.427765,45.300964],[-111.427258,45.300728],[-111.42688,45.300711],[-111.426755,45.300805],[-111.426508,45.302175],[-111.42631,45.302147],[-111.426099,45.302005],[-111.425946,45.302101],[-111.422773,45.30164],[-111.418888,45.300912],[-111.418183,45.300522],[-111.416906,45.29977],[-111.41646,45.29921],[-111.416412,45.298812],[-111.416729,45.298313],[-111.417377,45.297828],[-111.418344,45.297296],[-111.41952,45.296961],[-111.42108,45.296748],[-111.420649,45.296072],[-111.420012,45.296188],[-111.419474,45.29618],[-111.417534,45.295895],[-111.415898,45.296268],[-111.415639,45.29604],[-111.415622,45.295793],[-111.415797,45.295548],[-111.416761,45.295195],[-111.417513,45.295198],[-111.418488,45.294827],[-111.420703,45.294676],[-111.421316,45.294706],[-111.421118,45.295075],[-111.422121,45.295478],[-111.422776,45.2955],[-111.426437,45.295166],[-111.427477,45.295153],[-111.429096,45.295408],[-111.430153,45.294893],[-111.431544,45.295282]]]}},{"id":"8","type":"Feature","properties":{"landuse":"residential","amenity":"unknown","military":"unknown","base_elevation":741},"geometry":{"type":"Polygon","coordinates":[[[-111.416311,45.299791],[-111.417804,45.300776],[-111.417719,45.300899],[-111.417144,45.301068],[-111.417,45.301192],[-111.417028,45.301709],[-111.416907,45.302704],[-111.417628,45.30355],[-111.417726,45.303917],[-111.417518,45.304294],[-111.416883,45.30469],[-111.415878,45.304663],[-111.415825,45.304865],[-111.41593,45.305143],[-111.416735,45.305647],[-111.417906,45.305934],[-111.418558,45.306274],[-111.419089,45.306752],[-111.419282,45.307122],[-111.419271,45.307406],[-111.419561,45.307745],[-111.423128,45.307788],[-111.423801,45.308623],[-111.423531,45.311213],[-111.421339,45.311334],[-111.420642,45.311068],[-111.418788,45.309685],[-111.416674,45.309076],[-111.413108,45.308738],[-111.411557,45.307304],[-111.408572,45.306864],[-111.408485,45.304878],[-111.404782,45.304349],[-111.402043,45.304163],[-111.397204,45.30482],[-111.393989,45.304807],[-111.393851,45.305909],[-111.393363,45.307071],[-111.39335,45.308106],[-111.394296,45.309951],[-111.394329,45.313027],[-111.393802,45.313346],[-111.393045,45.313239],[-111.391801,45.309963],[-111.390368,45.307571],[-111.389329,45.305067],[-111.389013,45.300823],[-111.390021,45.300155],[-111.391507,45.303008],[-111.393404,45.302838],[-111.393872,45.300253],[-111.393927,45.299138],[-111.394373,45.29851],[-111.395703,45.298402],[-111.397402,45.299066],[-111.397854,45.299535],[-111.402309,45.299952],[-111.404334,45.297415],[-111.405054,45.296736],[-111.401427,45.295448],[-111.398556,45.29599],[-111.394446,45.295444],[-111.39397,45.293323],[-111.393468,45.291552],[-111.39322,45.291878],[-111.392894,45.291667],[-111.392656,45.291418],[-111.392653,45.291098],[-111.392433,45.290776],[-111.392431,45.290614],[-111.392645,45.290227],[-111.392902,45.290089],[-111.393571,45.290045],[-111.393678,45.290198],[-111.393683,45.290723],[-111.394553,45.289797],[-111.394924,45.290012],[-111.395592,45.289936],[-111.395763,45.29008],[-111.396123,45.289945],[-111.396212,45.289865],[-111.396135,45.289448],[-111.396359,45.289306],[-111.396552,45.288922],[-111.396535,45.288288],[-111.396264,45.288191],[-111.396148,45.287701],[-111.395858,45.287452],[-111.395551,45.287378],[-111.39554,45.287273],[-111.395237,45.287108],[-111.39465,45.287053],[-111.394223,45.287132],[-111.394101,45.286996],[-111.394039,45.287062],[-111.393829,45.28702],[-111.39363,45.286842],[-111.392077,45.286923],[-111.390587,45.286679],[-111.388752,45.285852],[-111.385819,45.28494],[-111.384219,45.284171],[-111.384748,45.283491],[-111.386383,45.283314],[-111.387783,45.283563],[-111.38801,45.283934],[-111.388197,45.28453],[-111.389506,45.285174],[-111.391248,45.285512],[-111.392265,45.286045],[-111.393314,45.286394],[-111.394882,45.285734],[-111.395661,45.285817],[-111.395901,45.285574],[-111.395895,45.285371],[-111.396208,45.285337],[-111.397039,45.285034],[-111.397656,45.284912],[-111.398081,45.28501],[-111.398253,45.285142],[-111.39684,45.286678],[-111.395756,45.287289],[-111.397236,45.287778],[-111.397749,45.288915],[-111.399192,45.28966],[-111.399443,45.289701],[-111.399644,45.290046],[-111.399678,45.291159],[-111.399767,45.291341],[-111.400807,45.291483],[-111.402403,45.291415],[-111.402614,45.291945],[-111.403946,45.291543],[-111.404228,45.291636],[-111.40481,45.29247],[-111.404329,45.292826],[-111.403155,45.293287],[-111.402983,45.293882],[-111.409566,45.295398],[-111.411484,45.29701],[-111.41226,45.298025],[-111.413612,45.298258],[-111.413686,45.299582],[-111.415793,45.300442],[-111.416311,45.299791]]]}},{"id":"9","type":"Feature","properties":{"landuse":"residential","amenity":"unknown","military":"unknown","base_elevation":698},"geometry":{"type":"Polygon","coordinates":[[[-111.363279,45.264961],[-111.362734,45.264919],[-111.362075,45.265199],[-111.361013,45.265282],[-111.360233,45.264935],[-111.359716,45.264307],[-111.359844,45.264115],[-111.361718,45.264077],[-111.36216,45.263903],[-111.362908,45.263117],[-111.363822,45.263019],[-111.364873,45.262295],[-111.365448,45.262376],[-111.366709,45.262365],[-111.370387,45.26187],[-111.370526,45.262243],[-111.369817,45.262459],[-111.368966,45.262553],[-111.368438,45.26296],[-111.367404,45.263474],[-111.365098,45.263991],[-111.364568,45.264239],[-111.364167,45.264609],[-111.363279,45.264961]]]}},{"id":"10","type":"Feature","properties":{"landuse":"residential","amenity":"unknown","military":"unknown","base_elevation":810},"geometry":{"type":"Polygon","coordinates":[[[-111.397568,45.284175],[-111.399499,45.283354],[-111.399883,45.283624],[-111.399253,45.284084],[-111.398272,45.285],[-111.398112,45.28486],[-111.397327,45.284677],[-111.397313,45.284602],[-111.397624,45.284402],[-111.397568,45.284175]]]}},{"id":"11","type":"Feature","properties":{"landuse":"residential","amenity":"unknown","military":"unknown","base_elevation":800},"geometry":{"type":"Polygon","coordinates":[[[-111.397391,45.286812],[-111.397922,45.286088],[-111.398784,45.285389],[-111.39926,45.285075],[-111.399562,45.28503],[-111.399659,45.285302],[-111.398415,45.286193],[-111.398024,45.286749],[-111.397531,45.287108],[-111.397348,45.287102],[-111.397391,45.286812]]]}},{"id":"12","type":"Feature","properties":{"landuse":"residential","amenity":"unknown","military":"unknown","base_elevation":831},"geometry":{"type":"Polygon","coordinates":[[[-111.405501,45.288558],[-111.405602,45.288511],[-111.405744,45.28877],[-111.40445,45.288992],[-111.404641,45.289052],[-111.404605,45.28934],[-111.404314,45.289516],[-111.404157,45.289732],[-111.403914,45.289778],[-111.403719,45.289966],[-111.403396,45.289802],[-111.403482,45.289754],[-111.403184,45.289485],[-111.403258,45.289387],[-111.403142,45.289217],[-111.40289,45.28916],[-111.402674,45.288303],[-111.402709,45.287968],[-111.402912,45.287741],[-111.402789,45.28761],[-111.403125,45.286938],[-111.403612,45.286969],[-111.403914,45.287174],[-111.404895,45.287351],[-111.404871,45.287722],[-111.405369,45.288036],[-111.405357,45.28832],[-111.405501,45.288558]]]}},{"id":"13","type":"Feature","properties":{"landuse":"residential","amenity":"unknown","military":"unknown","base_elevation":801},"geometry":{"type":"Polygon","coordinates":[[[-111.39055,45.288453],[-111.392482,45.288401],[-111.393021,45.289118],[-111.393357,45.289257],[-111.393501,45.289526],[-111.393276,45.289803],[-111.392928,45.289902],[-111.392425,45.289281],[-111.39193,45.289565],[-111.392136,45.289831],[-111.391155,45.289992],[-111.39121,45.291832],[-111.39091,45.292358],[-111.391532,45.294062],[-111.392406,45.29563],[-111.391873,45.29709],[-111.390727,45.298247],[-111.389519,45.298419],[-111.388697,45.297847],[-111.388203,45.296853],[-111.388417,45.294669],[-111.386966,45.291611],[-111.389454,45.290051],[-111.389935,45.289354],[-111.389709,45.288728],[-111.390046,45.288557],[-111.39055,45.288453]]]}},{"id":"14","type":"Feature","properties":{"landuse":"unknown","amenity":"hospital","military":"unknown","base_elevation":435},"geometry":{"type":"Polygon","coordinates":[[[-111.299035,45.261073],[-111.30178,45.261062],[-111.302066,45.260832],[-111.302139,45.260421],[-111.301812,45.26031],[-111.301466,45.259774],[-111.300946,45.259811],[-111.300063,45.260344],[-111.299708,45.260463],[-111.299322,45.260495],[-111.298999,45.260373],[-111.298914,45.260602],[-111.299035,45.261073]]]}},{"id":"15","type":"Feature","properties":{"landuse":"unknown","amenity":"school","military":"unknown","base_elevation":392},"geometry":{"type":"Polygon","coordinates":[[[-111.252092,45.229357],[-111.2527,45.22962],[-111.252858,45.22947],[-111.252092,45.229076],[-111.252333,45.228847],[-111.252731,45.229055],[-111.253003,45.228885],[-111.252835,45.228763],[-111.252878,45.228722],[-111.252585,45.228569],[-111.252624,45.228532],[-111.252475,45.228455],[-111.252125,45.228756],[-111.251844,45.228647],[-111.251574,45.228873],[-111.251656,45.228916],[-111.251532,45.229034],[-111.251894,45.229223],[-111.251797,45.229344],[-111.251974,45.229436],[-111.252092,45.229357]]]}},{"id":"16","type":"Feature","properties":{"landuse":"quarry","amenity":null,"military":null,"base_elevation":1403},"geometry":{"type":"Point","coordinates":[-111.261343,45.327429]}},{"id":"17","type":"Feature","properties":{"landuse":"quarry","amenity":null,"military":null,"base_elevation":482},"geometry":{"type":"Point","coordinates":[-111.248009,45.276318]}},{"id":"18","type":"Feature","properties":{"landuse":null,"amenity":"hospital","military":null,"base_elevation":441},"geometry":{"type":"Point","coordinates":[-111.301058,45.26038]}}]}