{"type":"FeatureCollection","features":[{"id":"0","type":"Feature","properties":{"barrier":null,"highway":"traffic_signals","tourism":null,"aeroway":null,"base_elevation":452,"artwork_type":null,"name":null},"geometry":{"type":"Polygon","coordinates":[[[-111.308468,45.261158],[-111.308468,45.261158],[-111.308468,45.261157],[-111.308468,45.261157],[-111.308468,45.261156],[-111.308469,45.261155],[-111.308469,45.261155],[-111.30847,45.261154],[-111.30847,45.261154],[-111.308471,45.261154],[-111.308472,45.261153],[-111.308472,45.261153],[-111.308473,45.261153],[-111.308474,45.261152],[-111.308475,45.261152],[-111.308476,45.261152],[-111.308477,45.261152],[-111.308477,45.261152],[-111.308478,45.261152],[-111.308479,45.261152],[-111.30848,45.261153],[-111.308481,45.261153],[-111.308482,45.261153],[-111.308482,45.261154],[-111.308483,45.261154],[-111.308484,45.261154],[-111.308484,45.261155],[-111.308485,45.261155],[-111.308485,45.261156],[-111.308485,45.261157],[-111.308485,45.261157],[-111.308486,45.261158],[-111.308486,45.261158],[-111.308486,45.261159],[-111.308485,45.26116],[-111.308485,45.26116],[-111.308485,45.261161],[-111.308485,45.261161],[-111.308484,45.261162],[-111.308484,45.261162],[-111.308483,45.261163],[-111.308482,45.261163],[-111.308482,45.261164],[-111.308481,45.261164],[-111.30848,45.261164],[-111.308479,45.261164],[-111.308478,45.261165],[-111.308477,45.261165],[-111.308477,45.261165],[-111.308476,45.261165],[-111.308475,45.261165],[-111.308474,45.261164],[-111.308473,45.261164],[-111.308472,45.261164],[-111.308472,45.261164],[-111.308471,45.261163],[-111.30847,45.261163],[-111.30847,45.261162],[-111.308469,45.261162],[-111.308469,45.261161],[-111.308468,45.261161],[-111.308468,45.26116],[-111.308468,45.26116],[-111.308468,45.261159],[-111.308468,45.261158]]]}},{"id":"1","type":"Feature","properties":{"barrier":null,"highway":"crossing","tourism":null,"aeroway":null,"base_elevation":453,"artwork_type":null,"name":null},"geometry":{"type":"Polygon","coordinates":[[[-111.308619,45.260461],[-111.308619,45.26046],[-111.308619,45.26046],[-111.308619,45.260459],[-111.30862,45.260459],[-111.30862,45.260458],[-111.308621,45.260457],[-111.308621,45.260457],[-111.308622,45.260457],[-111.308622,45.260456],[-111.308623,45.260456],[-111.308624,45.260455],[-111.308625,45.260455],[-111.308625,45.260455],[-111.308626,45.260455],[-111.308627,45.260455],[-111.308628,45.260455],[-111.308629,45.260455],[-111.30863,45.260455],[-111.308631,45.260455],[-111.308631,45.260455],[-111.308632,45.260455],[-111.308633,45.260456],[-111.308634,45.260456],[-111.308634,45.260457],[-111.308635,45.260457],[-111.308635,45.260457],[-111.308636,45.260458],[-111.308636,45.260459],[-111.308637,45.260459],[-111.308637,45.26046],[-111.308637,45.26046],[-111.308637,45.260461],[-111.308637,45.260462],[-111.308637,45.260462],[-111.308637,45.260463],[-111.308636,45.260463],[-111.308636,45.260464],[-111.308635,45.260465],[-111.308635,45.260465],[-111.308634,45.260465],[-111.308634,45.260466],[-111.308633,45.260466],[-111.308632,45.260467],[-111.308631,45.260467],[-111.308631,45.260467],[-111.30863,45.260467],[-111.308629,45.260467],[-111.308628,45.260467],[-111.308627,45.260467],[-111.308626,45.260467],[-111.308625,45.260467],[-111.308625,45.260467],[-111.308624,45.260467],[-111.308623,45.260466],[-111.308622,45.260466],[-111.308622,45.260465],[-111.308621,45.260465],[-111.308621,45.260465],[-111.30862,45.260464],[-111.30862,45.260463],[-111.308619,45.260463],[-111.308619,45.260462],[-111.308619,45.260462],[-111.308619,45.260461]]]}},{"id":"2","type":"Feature","properties":{"barrier":null,"highway":"crossing","tourism":null,"aeroway":null,"base_elevation":456,"artwork_type":null,"name":null},"geometry":{"type":"Polygon","coordinates":[[[-111.309598,45.259881],[-111.309598,45.25988],[-111.309598,45.25988],[-111.309598,45.259879],[-111.309599,45.259878],[-111.309599,45.259878],[-111.3096,45.259877],[-111.3096,45.259877],[-111.309601,45.259876],[-111.309601,45.259876],[-111.309602,45.259876],[-111.309603,45.259875],[-111.309604,45.259875],[-111.309604,45.259875],[-111.309605,45.259875],[-111.309606,45.259875],[-111.309607,45.259874],[-111.309608,45.259875],[-111.309609,45.259875],[-111.30961,45.259875],[-111.30961,45.259875],[-111.309611,45.259875],[-111.309612,45.259876],[-111.309613,45.259876],[-111.309613,45.259876],[-111.309614,45.259877],[-111.309614,45.259877],[-111.309615,45.259878],[-111.309615,45.259878],[-111.309616,45.259879],[-111.309616,45.25988],[-111.309616,45.25988],[-111.309616,45.259881],[-111.309616,45.259881],[-111.309616,45.259882],[-111.309616,45.259883],[-111.309615,45.259883],[-111.309615,45.259884],[-111.309614,45.259884],[-111.309614,45.259885],[-111.309613,45.259885],[-111.309613,45.259886],[-111.309612,45.259886],[-111.309611,45.259886],[-111.30961,45.259887],[-111.30961,45.259887],[-111.309609,45.259887],[-111.309608,45.259887],[-111.309607,45.259887],[-111.309606,45.259887],[-111.309605,45.259887],[-111.309604,45.259887],[-111.309604,45.259887],[-111.309603,45.259886],[-111.309602,45.259886],[-111.309601,45.259886],[-111.309601,45.259885],[-111.3096,45.259885],[-111.3096,45.259884],[-111.309599,45.259884],[-111.309599,45.259883],[-111.309598,45.259883],[-111.309598,45.259882],[-111.309598,45.259881],[-111.309598,45.259881]]]}},{"id":"3","type":"Feature","properties":{"barrier":null,"highway":"crossing","tourism":null,"aeroway":null,"base_elevation":457,"artwork_type":null,"name":null},"geometry":{"type":"Polygon","coordinates":[[[-111.310161,45.259391],[-111.310161,45.259391],[-111.310161,45.25939],[-111.310161,45.25939],[-111.310161,45.259389],[-111.310162,45.259388],[-111.310162,45.259388],[-111.310163,45.259387],[-111.310163,45.259387],[-111.310164,45.259387],[-111.310165,45.259386],[-111.310165,45.259386],[-111.310166,45.259386],[-111.310167,45.259385],[-111.310168,45.259385],[-111.310169,45.259385],[-111.31017,45.259385],[-111.310171,45.259385],[-111.310171,45.259385],[-111.310172,45.259385],[-111.310173,45.259386],[-111.310174,45.259386],[-111.310175,45.259386],[-111.310175,45.259387],[-111.310176,45.259387],[-111.310177,45.259387],[-111.310177,45.259388],[-111.310178,45.259388],[-111.310178,45.259389],[-111.310178,45.25939],[-111.310179,45.25939],[-111.310179,45.259391],[-111.310179,45.259391],[-111.310179,45.259392],[-111.310179,45.259393],[-111.310178,45.259393],[-111.310178,45.259394],[-111.310178,45.259394],[-111.310177,45.259395],[-111.310177,45.259395],[-111.310176,45.259396],[-111.310175,45.259396],[-111.310175,45.259397],[-111.310174,45.259397],[-111.310173,45.259397],[-111.310172,45.259397],[-111.310171,45.259398],[-111.310171,45.259398],[-111.31017,45.259398],[-111.310169,45.259398],[-111.310168,45.259398],[-111.310167,45.259397],[-111.310166,45.259397],[-111.310165,45.259397],[-111.310165,45.259397],[-111.310164,45.259396],[-111.310163,45.259396],[-111.310163,45.259395],[-111.310162,45.259395],[-111.310162,45.259394],[-111.310161,45.259394],[-111.310161,45.259393],[-111.310161,45.259393],[-111.310161,45.259392],[-111.310161,45.259391]]]}},{"id":"4","type":"Feature","properties":{"barrier":null,"highway":"traffic_signals","tourism":null,"aeroway":null,"base_elevation":359,"artwork_type":null,"name":null},"geometry":{"type":"Polygon","coordinates":[[[-111.253292,45.264632],[-111.253292,45.264631],[-111.253292,45.264631],[-111.253293,45.26463],[-111.253293,45.264629],[-111.253293,45.264629],[-111.253294,45.264628],[-111.253294,45.264628],[-111.253295,45.264627],[-111.253296,45.264627],[-111.253296,45.264627],[-111.253297,45.264626],[-111.253298,45.264626],[-111.253299,45.264626],[-111.2533,45.264626],[-111.2533,45.264626],[-111.253301,45.264625],[-111.253302,45.264626],[-111.253303,45.264626],[-111.253304,45.264626],[-111.253305,45.264626],[-111.253306,45.264626],[-111.253306,45.264627],[-111.253307,45.264627],[-111.253308,45.264627],[-111.253308,45.264628],[-111.253309,45.264628],[-111.253309,45.264629],[-111.25331,45.264629],[-111.25331,45.26463],[-111.25331,45.264631],[-111.25331,45.264631],[-111.25331,45.264632],[-111.25331,45.264632],[-111.25331,45.264633],[-111.25331,45.264634],[-111.25331,45.264634],[-111.253309,45.264635],[-111.253309,45.264635],[-111.253308,45.264636],[-111.253308,45.264636],[-111.253307,45.264637],[-111.253306,45.264637],[-111.253306,45.264637],[-111.253305,45.264638],[-111.253304,45.264638],[-111.253303,45.264638],[-111.253302,45.264638],[-111.253301,45.264638],[-111.2533,45.264638],[-111.2533,45.264638],[-111.253299,45.264638],[-111.253298,45.264638],[-111.253297,45.264637],[-111.253296,45.264637],[-111.253296,45.264637],[-111.253295,45.264636],[-111.253294,45.264636],[-111.253294,45.264635],[-111.253293,45.264635],[-111.253293,45.264634],[-111.253293,45.264634],[-111.253292,45.264633],[-111.253292,45.264632],[-111.253292,45.264632]]]}},{"id":"5","type":"Feature","properties":{"barrier":null,"highway":"crossing","tourism":null,"aeroway":null,"base_elevation":457,"artwork_type":null,"name":null},"geometry":{"type":"Polygon","coordinates":[[[-111.311187,45.260732],[-111.311187,45.260731],[-111.311187,45.26073],[-111.311188,45.26073],[-111.311188,45.260729],[-111.311188,45.260729],[-111.311189,45.260728],[-111.311189,45.260728],[-111.31119,45.260727],[-111.311191,45.260727],[-111.311191,45.260726],[-111.311192,45.260726],[-111.311193,45.260726],[-111.311194,45.260726],[-111.311195,45.260725],[-111.311195,45.260725],[-111.311196,45.260725],[-111.311197,45.260725],[-111.311198,45.260725],[-111.311199,45.260726],[-111.3112,45.260726],[-111.311201,45.260726],[-111.311201,45.260726],[-111.311202,45.260727],[-111.311203,45.260727],[-111.311203,45.260728],[-111.311204,45.260728],[-111.311204,45.260729],[-111.311205,45.260729],[-111.311205,45.26073],[-111.311205,45.26073],[-111.311205,45.260731],[-111.311205,45.260732],[-111.311205,45.260732],[-111.311205,45.260733],[-111.311205,45.260733],[-111.311205,45.260734],[-111.311204,45.260735],[-111.311204,45.260735],[-111.311203,45.260736],[-111.311203,45.260736],[-111.311202,45.260736],[-111.311201,45.260737],[-111.311201,45.260737],[-111.3112,45.260737],[-111.311199,45.260738],[-111.311198,45.260738],[-111.311197,45.260738],[-111.311196,45.260738],[-111.311195,45.260738],[-111.311195,45.260738],[-111.311194,45.260738],[-111.311193,45.260737],[-111.311192,45.260737],[-111.311191,45.260737],[-111.311191,45.260736],[-111.31119,45.260736],[-111.311189,45.260736],[-111.311189,45.260735],[-111.311188,45.260735],[-111.311188,45.260734],[-111.311188,45.260733],[-111.311187,45.260733],[-111.311187,45.260732],[-111.311187,45.260732]]]}},{"id":"6","type":"Feature","properties":{"barrier":null,"highway":"bus_stop","tourism":null,"aeroway":null,"base_elevation":457,"artwork_type":null,"name":null},"geometry":{"type":"Polygon","coordinates":[[[-111.310222,45.259484],[-111.310222,45.259484],[-111.310222,45.259483],[-111.310222,45.259483],[-111.310222,45.259482],[-111.310223,45.259481],[-111.310223,45.259481],[-111.310224,45.25948],[-111.310224,45.25948],[-111.310225,45.25948],[-111.310226,45.259479],[-111.310226,45.259479],[-111.310227,45.259479],[-111.310228,45.259478],[-111.310229,45.259478],[-111.31023,45.259478],[-111.31023,45.259478],[-111.310231,45.259478],[-111.310232,45.259478],[-111.310233,45.259478],[-111.310234,45.259479],[-111.310235,45.259479],[-111.310235,45.259479],[-111.310236,45.25948],[-111.310237,45.25948],[-111.310237,45.25948],[-111.310238,45.259481],[-111.310238,45.259481],[-111.310239,45.259482],[-111.310239,45.259483],[-111.310239,45.259483],[-111.310239,45.259484],[-111.310239,45.259484],[-111.310239,45.259485],[-111.310239,45.259486],[-111.310239,45.259486],[-111.310239,45.259487],[-111.310238,45.259487],[-111.310238,45.259488],[-111.310237,45.259488],[-111.310237,45.259489],[-111.310236,45.259489],[-111.310235,45.25949],[-111.310235,45.25949],[-111.310234,45.25949],[-111.310233,45.25949],[-111.310232,45.259491],[-111.310231,45.259491],[-111.31023,45.259491],[-111.31023,45.259491],[-111.310229,45.259491],[-111.310228,45.25949],[-111.310227,45.25949],[-111.310226,45.25949],[-111.310226,45.25949],[-111.310225,45.259489],[-111.310224,45.259489],[-111.310224,45.259488],[-111.310223,45.259488],[-111.310223,45.259487],[-111.310222,45.259487],[-111.310222,45.259486],[-111.310222,45.259486],[-111.310222,45.259485],[-111.310222,45.259484]]]}},{"id":"7","type":"Feature","properties":{"barrier":null,"highway":"crossing","tourism":null,"aeroway":null,"base_elevation":826,"artwork_type":null,"name":null},"geometry":{"type":"Polygon","coordinates":[[[-111.401663,45.287468],[-111.401663,45.287467],[-111.401663,45.287466],[-111.401663,45.287466],[-111.401664,45.287465],[-111.401664,45.287465],[-111.401664,45.287464],[-111.401665,45.287464],[-111.401665,45.287463],[-111.401666,45.287463],[-111.401667,45.287462],[-111.401668,45.287462],[-111.401668,45.287462],[-111.401669,45.287462],[-111.40167,45.287462],[-111.401671,45.287461],[-111.401672,45.287461],[-111.401673,45.287461],[-111.401674,45.287462],[-111.401674,45.287462],[-111.401675,45.287462],[-111.401676,45.287462],[-111.401677,45.287462],[-111.401677,45.287463],[-111.401678,45.287463],[-111.401679,45.287464],[-111.401679,45.287464],[-111.40168,45.287465],[-111.40168,45.287465],[-111.40168,45.287466],[-111.401681,45.287466],[-111.401681,45.287467],[-111.401681,45.287468],[-111.401681,45.287468],[-111.401681,45.287469],[-111.40168,45.28747],[-111.40168,45.28747],[-111.40168,45.287471],[-111.401679,45.287471],[-111.401679,45.287472],[-111.401678,45.287472],[-111.401677,45.287473],[-111.401677,45.287473],[-111.401676,45.287473],[-111.401675,45.287474],[-111.401674,45.287474],[-111.401674,45.287474],[-111.401673,45.287474],[-111.401672,45.287474],[-111.401671,45.287474],[-111.40167,45.287474],[-111.401669,45.287474],[-111.401668,45.287474],[-111.401668,45.287473],[-111.401667,45.287473],[-111.401666,45.287473],[-111.401665,45.287472],[-111.401665,45.287472],[-111.401664,45.287471],[-111.401664,45.287471],[-111.401664,45.28747],[-111.401663,45.28747],[-111.401663,45.287469],[-111.401663,45.287468],[-111.401663,45.287468]]]}},{"id":"8","type":"Feature","properties":{"barrier":null,"highway":"crossing","tourism":null,"aeroway":null,"base_elevation":459,"artwork_type":null,"name":null},"geometry":{"type":"Polygon","coordinates":[[[-111.310378,45.258631],[-111.310378,45.258631],[-111.310378,45.25863],[-111.310378,45.25863],[-111.310378,45.258629],[-111.310379,45.258628],[-111.310379,45.258628],[-111.31038,45.258627],[-111.31038,45.258627],[-111.310381,45.258627],[-111.310382,45.258626],[-111.310382,45.258626],[-111.310383,45.258626],[-111.310384,45.258625],[-111.310385,45.258625],[-111.310386,45.258625],[-111.310387,45.258625],[-111.310388,45.258625],[-111.310388,45.258625],[-111.310389,45.258625],[-111.31039,45.258626],[-111.310391,45.258626],[-111.310392,45.258626],[-111.310392,45.258627],[-111.310393,45.258627],[-111.310394,45.258627],[-111.310394,45.258628],[-111.310395,45.258628],[-111.310395,45.258629],[-111.310395,45.25863],[-111.310396,45.25863],[-111.310396,45.258631],[-111.310396,45.258631],[-111.310396,45.258632],[-111.310396,45.258633],[-111.310395,45.258633],[-111.310395,45.258634],[-111.310395,45.258634],[-111.310394,45.258635],[-111.310394,45.258635],[-111.310393,45.258636],[-111.310392,45.258636],[-111.310392,45.258637],[-111.310391,45.258637],[-111.31039,45.258637],[-111.310389,45.258637],[-111.310388,45.258638],[-111.310388,45.258638],[-111.310387,45.258638],[-111.310386,45.258638],[-111.310385,45.258638],[-111.310384,45.258637],[-111.310383,45.258637],[-111.310382,45.258637],[-111.310382,45.258637],[-111.310381,45.258636],[-111.31038,45.258636],[-111.31038,45.258635],[-111.310379,45.258635],[-111.310379,45.258634],[-111.310378,45.258634],[-111.310378,45.258633],[-111.310378,45.258633],[-111.310378,45.258632],[-111.310378,45.258631]]]}},{"id":"9","type":"Feature","properties":{"barrier":null,"highway":"crossing","tourism":null,"aeroway":null,"base_elevation":458,"artwork_type":null,"name":null},"geometry":{"type":"Polygon","coordinates":[[[-111.31031,45.258893],[-111.31031,45.258892],[-111.31031,45.258892],[-111.31031,45.258891],[-111.310311,45.258891],[-111.310311,45.25889],[-111.310311,45.25889],[-111.310312,45.258889],[-111.310312,45.258889],[-111.310313,45.258888],[-111.310314,45.258888],[-111.310315,45.258888],[-111.310315,45.258887],[-111.310316,45.258887],[-111.310317,45.258887],[-111.310318,45.258887],[-111.310319,45.258887],[-111.31032,45.258887],[-111.310321,45.258887],[-111.310321,45.258887],[-111.310322,45.258887],[-111.310323,45.258888],[-111.310324,45.258888],[-111.310324,45.258888],[-111.310325,45.258889],[-111.310326,45.258889],[-111.310326,45.25889],[-111.310327,45.25889],[-111.310327,45.258891],[-111.310327,45.258891],[-111.310328,45.258892],[-111.310328,45.258892],[-111.310328,45.258893],[-111.310328,45.258894],[-111.310328,45.258894],[-111.310327,45.258895],[-111.310327,45.258896],[-111.310327,45.258896],[-111.310326,45.258897],[-111.310326,45.258897],[-111.310325,45.258898],[-111.310324,45.258898],[-111.310324,45.258898],[-111.310323,45.258899],[-111.310322,45.258899],[-111.310321,45.258899],[-111.310321,45.258899],[-111.31032,45.258899],[-111.310319,45.258899],[-111.310318,45.258899],[-111.310317,45.258899],[-111.310316,45.258899],[-111.310315,45.258899],[-111.310315,45.258899],[-111.310314,45.258898],[-111.310313,45.258898],[-111.310312,45.258898],[-111.310312,45.258897],[-111.310311,45.258897],[-111.310311,45.258896],[-111.310311,45.258896],[-111.31031,45.258895],[-111.31031,45.258894],[-111.31031,45.258894],[-111.31031,45.258893]]]}},{"id":"10","type":"Feature","properties":{"barrier":null,"highway":"crossing","tourism":null,"aeroway":null,"base_elevation":439,"artwork_type":null,"name":null},"geometry":{"type":"Polygon","coordinates":[[[-111.300275,45.261168],[-111.300275,45.261167],[-111.300275,45.261167],[-111.300275,45.261166],[-111.300275,45.261166],[-111.300276,45.261165],[-111.300276,45.261164],[-111.300277,45.261164],[-111.300277,45.261164],[-111.300278,45.261163],[-111.300279,45.261163],[-111.300279,45.261162],[-111.30028,45.261162],[-111.300281,45.261162],[-111.300282,45.261162],[-111.300283,45.261162],[-111.300284,45.261162],[-111.300284,45.261162],[-111.300285,45.261162],[-111.300286,45.261162],[-111.300287,45.261162],[-111.300288,45.261162],[-111.300288,45.261163],[-111.300289,45.261163],[-111.30029,45.261164],[-111.30029,45.261164],[-111.300291,45.261164],[-111.300291,45.261165],[-111.300292,45.261166],[-111.300292,45.261166],[-111.300292,45.261167],[-111.300292,45.261167],[-111.300292,45.261168],[-111.300292,45.261169],[-111.300292,45.261169],[-111.300292,45.26117],[-111.300292,45.26117],[-111.300291,45.261171],[-111.300291,45.261172],[-111.30029,45.261172],[-111.30029,45.261172],[-111.300289,45.261173],[-111.300288,45.261173],[-111.300288,45.261174],[-111.300287,45.261174],[-111.300286,45.261174],[-111.300285,45.261174],[-111.300284,45.261174],[-111.300284,45.261174],[-111.300283,45.261174],[-111.300282,45.261174],[-111.300281,45.261174],[-111.30028,45.261174],[-111.300279,45.261174],[-111.300279,45.261173],[-111.300278,45.261173],[-111.300277,45.261172],[-111.300277,45.261172],[-111.300276,45.261172],[-111.300276,45.261171],[-111.300275,45.26117],[-111.300275,45.26117],[-111.300275,45.261169],[-111.300275,45.261169],[-111.300275,45.261168]]]}},{"id":"11","type":"Feature","properties":{"barrier":null,"highway":"bus_stop","tourism":null,"aeroway":null,"base_elevation":423,"artwork_type":null,"name":"Skyline Meadow Village"},"geometry":{"type":"Polygon","coordinates":[[[-111.292809,45.267145],[-111.292809,45.267145],[-111.292809,45.267144],[-111.29281,45.267144],[-111.29281,45.267143],[-111.29281,45.267142],[-111.292811,45.267142],[-111.292811,45.267141],[-111.292812,45.267141],[-111.292813,45.267141],[-111.292813,45.26714],[-111.292814,45.26714],[-111.292815,45.26714],[-111.292816,45.267139],[-111.292816,45.267139],[-111.292817,45.267139],[-111.292818,45.267139],[-111.292819,45.267139],[-111.29282,45.267139],[-111.292821,45.267139],[-111.292822,45.26714],[-111.292822,45.26714],[-111.292823,45.26714],[-111.292824,45.267141],[-111.292825,45.267141],[-111.292825,45.267141],[-111.292826,45.267142],[-111.292826,45.267142],[-111.292826,45.267143],[-111.292827,45.267144],[-111.292827,45.267144],[-111.292827,45.267145],[-111.292827,45.267145],[-111.292827,45.267146],[-111.292827,45.267147],[-111.292827,45.267147],[-111.292826,45.267148],[-111.292826,45.267148],[-111.292826,45.267149],[-111.292825,45.267149],[-111.292825,45.26715],[-111.292824,45.26715],[-111.292823,45.267151],[-111.292822,45.267151],[-111.292822,45.267151],[-111.292821,45.267151],[-111.29282,45.267152],[-111.292819,45.267152],[-111.292818,45.267152],[-111.292817,45.267152],[-111.292816,45.267152],[-111.292816,45.267151],[-111.292815,45.267151],[-111.292814,45.267151],[-111.292813,45.267151],[-111.292813,45.26715],[-111.292812,45.26715],[-111.292811,45.267149],[-111.292811,45.267149],[-111.29281,45.267148],[-111.29281,45.267148],[-111.29281,45.267147],[-111.292809,45.267147],[-111.292809,45.267146],[-111.292809,45.267145]]]}},{"id":"12","type":"Feature","properties":{"barrier":null,"highway":"crossing","tourism":null,"aeroway":null,"base_elevation":701,"artwork_type":null,"name":null},"geometry":{"type":"Polygon","coordinates":[[[-111.246696,45.379071],[-111.246696,45.37907],[-111.246696,45.37907],[-111.246696,45.379069],[-111.246697,45.379069],[-111.246697,45.379068],[-111.246697,45.379067],[-111.246698,45.379067],[-111.246699,45.379067],[-111.246699,45.379066],[-111.2467,45.379066],[-111.246701,45.379065],[-111.246701,45.379065],[-111.246702,45.379065],[-111.246703,45.379065],[-111.246704,45.379065],[-111.246705,45.379065],[-111.246706,45.379065],[-111.246707,45.379065],[-111.246708,45.379065],[-111.246708,45.379065],[-111.246709,45.379065],[-111.24671,45.379066],[-111.246711,45.379066],[-111.246711,45.379067],[-111.246712,45.379067],[-111.246712,45.379067],[-111.246713,45.379068],[-111.246713,45.379069],[-111.246713,45.379069],[-111.246714,45.37907],[-111.246714,45.37907],[-111.246714,45.379071],[-111.246714,45.379072],[-111.246714,45.379072],[-111.246713,45.379073],[-111.246713,45.379073],[-111.246713,45.379074],[-111.246712,45.379075],[-111.246712,45.379075],[-111.246711,45.379075],[-111.246711,45.379076],[-111.24671,45.379076],[-111.246709,45.379077],[-111.246708,45.379077],[-111.246708,45.379077],[-111.246707,45.379077],[-111.246706,45.379077],[-111.246705,45.379077],[-111.246704,45.379077],[-111.246703,45.379077],[-111.246702,45.379077],[-111.246701,45.379077],[-111.246701,45.379077],[-111.2467,45.379076],[-111.246699,45.379076],[-111.246699,45.379075],[-111.246698,45.379075],[-111.246697,45.379075],[-111.246697,45.379074],[-111.246697,45.379073],[-111.246696,45.379073],[-111.246696,45.379072],[-111.246696,45.379072],[-111.246696,45.379071]]]}},{"id":"13","type":"Feature","properties":{"barrier":null,"highway":"crossing","tourism":null,"aeroway":null,"base_elevation":444,"artwork_type":null,"name":null},"geometry":{"type":"Polygon","coordinates":[[[-111.301842,45.260137],[-111.301842,45.260136],[-111.301842,45.260135],[-111.301843,45.260135],[-111.301843,45.260134],[-111.301843,45.260134],[-111.301844,45.260133],[-111.301844,45.260133],[-111.301845,45.260132],[-111.301846,45.260132],[-111.301846,45.260131],[-111.301847,45.260131],[-111.301848,45.260131],[-111.301849,45.260131],[-111.30185,45.26013],[-111.30185,45.26013],[-111.301851,45.26013],[-111.301852,45.26013],[-111.301853,45.26013],[-111.301854,45.260131],[-111.301855,45.260131],[-111.301856,45.260131],[-111.301856,45.260131],[-111.301857,45.260132],[-111.301858,45.260132],[-111.301858,45.260133],[-111.301859,45.260133],[-111.301859,45.260134],[-111.30186,45.260134],[-111.30186,45.260135],[-111.30186,45.260135],[-111.30186,45.260136],[-111.30186,45.260137],[-111.30186,45.260137],[-111.30186,45.260138],[-111.30186,45.260138],[-111.30186,45.260139],[-111.301859,45.26014],[-111.301859,45.26014],[-111.301858,45.260141],[-111.301858,45.260141],[-111.301857,45.260141],[-111.301856,45.260142],[-111.301856,45.260142],[-111.301855,45.260142],[-111.301854,45.260143],[-111.301853,45.260143],[-111.301852,45.260143],[-111.301851,45.260143],[-111.30185,45.260143],[-111.30185,45.260143],[-111.301849,45.260143],[-111.301848,45.260142],[-111.301847,45.260142],[-111.301846,45.260142],[-111.301846,45.260141],[-111.301845,45.260141],[-111.301844,45.260141],[-111.301844,45.26014],[-111.301843,45.26014],[-111.301843,45.260139],[-111.301843,45.260138],[-111.301842,45.260138],[-111.301842,45.260137],[-111.301842,45.260137]]]}},{"id":"14","type":"Feature","properties":{"barrier":null,"highway":"crossing","tourism":null,"aeroway":null,"base_elevation":442,"artwork_type":null,"name":null},"geometry":{"type":"Polygon","coordinates":[[[-111.301522,45.260566],[-111.301522,45.260566],[-111.301522,45.260565],[-111.301523,45.260565],[-111.301523,45.260564],[-111.301523,45.260563],[-111.301524,45.260563],[-111.301524,45.260562],[-111.301525,45.260562],[-111.301525,45.260562],[-111.301526,45.260561],[-111.301527,45.260561],[-111.301528,45.260561],[-111.301528,45.26056],[-111.301529,45.26056],[-111.30153,45.26056],[-111.301531,45.26056],[-111.301532,45.26056],[-111.301533,45.26056],[-111.301534,45.26056],[-111.301535,45.260561],[-111.301535,45.260561],[-111.301536,45.260561],[-111.301537,45.260562],[-111.301537,45.260562],[-111.301538,45.260562],[-111.301539,45.260563],[-111.301539,45.260563],[-111.301539,45.260564],[-111.30154,45.260565],[-111.30154,45.260565],[-111.30154,45.260566],[-111.30154,45.260566],[-111.30154,45.260567],[-111.30154,45.260568],[-111.30154,45.260568],[-111.301539,45.260569],[-111.301539,45.260569],[-111.301539,45.26057],[-111.301538,45.26057],[-111.301537,45.260571],[-111.301537,45.260571],[-111.301536,45.260572],[-111.301535,45.260572],[-111.301535,45.260572],[-111.301534,45.260572],[-111.301533,45.260573],[-111.301532,45.260573],[-111.301531,45.260573],[-111.30153,45.260573],[-111.301529,45.260573],[-111.301528,45.260572],[-111.301528,45.260572],[-111.301527,45.260572],[-111.301526,45.260572],[-111.301525,45.260571],[-111.301525,45.260571],[-111.301524,45.26057],[-111.301524,45.26057],[-111.301523,45.260569],[-111.301523,45.260569],[-111.301523,45.260568],[-111.301522,45.260568],[-111.301522,45.260567],[-111.301522,45.260566]]]}},{"id":"15","type":"Feature","properties":{"barrier":null,"highway":"crossing","tourism":null,"aeroway":null,"base_elevation":441,"artwork_type":null,"name":null},"geometry":{"type":"Polygon","coordinates":[[[-111.301232,45.260725],[-111.301232,45.260725],[-111.301232,45.260724],[-111.301232,45.260724],[-111.301233,45.260723],[-111.301233,45.260723],[-111.301234,45.260722],[-111.301234,45.260721],[-111.301235,45.260721],[-111.301235,45.260721],[-111.301236,45.26072],[-111.301237,45.26072],[-111.301238,45.26072],[-111.301238,45.260719],[-111.301239,45.260719],[-111.30124,45.260719],[-111.301241,45.260719],[-111.301242,45.260719],[-111.301243,45.260719],[-111.301244,45.260719],[-111.301244,45.26072],[-111.301245,45.26072],[-111.301246,45.26072],[-111.301247,45.260721],[-111.301247,45.260721],[-111.301248,45.260721],[-111.301248,45.260722],[-111.301249,45.260723],[-111.301249,45.260723],[-111.30125,45.260724],[-111.30125,45.260724],[-111.30125,45.260725],[-111.30125,45.260725],[-111.30125,45.260726],[-111.30125,45.260727],[-111.30125,45.260727],[-111.301249,45.260728],[-111.301249,45.260728],[-111.301248,45.260729],[-111.301248,45.26073],[-111.301247,45.26073],[-111.301247,45.26073],[-111.301246,45.260731],[-111.301245,45.260731],[-111.301244,45.260731],[-111.301244,45.260732],[-111.301243,45.260732],[-111.301242,45.260732],[-111.301241,45.260732],[-111.30124,45.260732],[-111.301239,45.260732],[-111.301238,45.260732],[-111.301238,45.260731],[-111.301237,45.260731],[-111.301236,45.260731],[-111.301235,45.26073],[-111.301235,45.26073],[-111.301234,45.26073],[-111.301234,45.260729],[-111.301233,45.260728],[-111.301233,45.260728],[-111.301232,45.260727],[-111.301232,45.260727],[-111.301232,45.260726],[-111.301232,45.260725]]]}},{"id":"16","type":"Feature","properties":{"barrier":null,"highway":"crossing","tourism":null,"aeroway":null,"base_elevation":439,"artwork_type":null,"name":null},"geometry":{"type":"Polygon","coordinates":[[[-111.300401,45.260816],[-111.300401,45.260815],[-111.300401,45.260815],[-111.300401,45.260814],[-111.300402,45.260814],[-111.300402,45.260813],[-111.300402,45.260813],[-111.300403,45.260812],[-111.300403,45.260812],[-111.300404,45.260811],[-111.300405,45.260811],[-111.300406,45.260811],[-111.300406,45.26081],[-111.300407,45.26081],[-111.300408,45.26081],[-111.300409,45.26081],[-111.30041,45.26081],[-111.300411,45.26081],[-111.300412,45.26081],[-111.300412,45.26081],[-111.300413,45.26081],[-111.300414,45.260811],[-111.300415,45.260811],[-111.300415,45.260811],[-111.300416,45.260812],[-111.300417,45.260812],[-111.300417,45.260813],[-111.300418,45.260813],[-111.300418,45.260814],[-111.300418,45.260814],[-111.300419,45.260815],[-111.300419,45.260815],[-111.300419,45.260816],[-111.300419,45.260817],[-111.300419,45.260817],[-111.300418,45.260818],[-111.300418,45.260819],[-111.300418,45.260819],[-111.300417,45.26082],[-111.300417,45.26082],[-111.300416,45.260821],[-111.300415,45.260821],[-111.300415,45.260821],[-111.300414,45.260822],[-111.300413,45.260822],[-111.300412,45.260822],[-111.300412,45.260822],[-111.300411,45.260822],[-111.30041,45.260822],[-111.300409,45.260822],[-111.300408,45.260822],[-111.300407,45.260822],[-111.300406,45.260822],[-111.300406,45.260822],[-111.300405,45.260821],[-111.300404,45.260821],[-111.300403,45.260821],[-111.300403,45.26082],[-111.300402,45.26082],[-111.300402,45.260819],[-111.300402,45.260819],[-111.300401,45.260818],[-111.300401,45.260817],[-111.300401,45.260817],[-111.300401,45.260816]]]}},{"id":"17","type":"Feature","properties":{"barrier":null,"highway":"crossing","tourism":null,"aeroway":null,"base_elevation":439,"artwork_type":null,"name":null},"geometry":{"type":"Polygon","coordinates":[[[-111.30029,45.261048],[-111.30029,45.261048],[-111.30029,45.261047],[-111.300291,45.261046],[-111.300291,45.261046],[-111.300291,45.261045],[-111.300292,45.261045],[-111.300292,45.261044],[-111.300293,45.261044],[-111.300294,45.261043],[-111.300294,45.261043],[-111.300295,45.261043],[-111.300296,45.261042],[-111.300297,45.261042],[-111.300298,45.261042],[-111.300298,45.261042],[-111.300299,45.261042],[-111.3003,45.261042],[-111.300301,45.261042],[-111.300302,45.261042],[-111.300303,45.261042],[-111.300304,45.261043],[-111.300304,45.261043],[-111.300305,45.261043],[-111.300306,45.261044],[-111.300306,45.261044],[-111.300307,45.261045],[-111.300307,45.261045],[-111.300308,45.261046],[-111.300308,45.261046],[-111.300308,45.261047],[-111.300308,45.261048],[-111.300308,45.261048],[-111.300308,45.261049],[-111.300308,45.261049],[-111.300308,45.26105],[-111.300308,45.261051],[-111.300307,45.261051],[-111.300307,45.261052],[-111.300306,45.261052],[-111.300306,45.261053],[-111.300305,45.261053],[-111.300304,45.261053],[-111.300304,45.261054],[-111.300303,45.261054],[-111.300302,45.261054],[-111.300301,45.261054],[-111.3003,45.261054],[-111.300299,45.261055],[-111.300298,45.261054],[-111.300298,45.261054],[-111.300297,45.261054],[-111.300296,45.261054],[-111.300295,45.261054],[-111.300294,45.261053],[-111.300294,45.261053],[-111.300293,45.261053],[-111.300292,45.261052],[-111.300292,45.261052],[-111.300291,45.261051],[-111.300291,45.261051],[-111.300291,45.26105],[-111.30029,45.261049],[-111.30029,45.261049],[-111.30029,45.261048]]]}},{"id":"18","type":"Feature","properties":{"barrier":null,"highway":"crossing","tourism":null,"aeroway":null,"base_elevation":448,"artwork_type":null,"name":null},"geometry":{"type":"Polygon","coordinates":[[[-111.306065,45.261085],[-111.306065,45.261085],[-111.306065,45.261084],[-111.306065,45.261084],[-111.306065,45.261083],[-111.306066,45.261083],[-111.306066,45.261082],[-111.306067,45.261081],[-111.306067,45.261081],[-111.306068,45.261081],[-111.306069,45.26108],[-111.306069,45.26108],[-111.30607,45.26108],[-111.306071,45.261079],[-111.306072,45.261079],[-111.306073,45.261079],[-111.306074,45.261079],[-111.306075,45.261079],[-111.306075,45.261079],[-111.306076,45.261079],[-111.306077,45.26108],[-111.306078,45.26108],[-111.306079,45.26108],[-111.306079,45.261081],[-111.30608,45.261081],[-111.306081,45.261081],[-111.306081,45.261082],[-111.306082,45.261083],[-111.306082,45.261083],[-111.306082,45.261084],[-111.306083,45.261084],[-111.306083,45.261085],[-111.306083,45.261085],[-111.306083,45.261086],[-111.306083,45.261087],[-111.306082,45.261087],[-111.306082,45.261088],[-111.306082,45.261088],[-111.306081,45.261089],[-111.306081,45.26109],[-111.30608,45.26109],[-111.306079,45.26109],[-111.306079,45.261091],[-111.306078,45.261091],[-111.306077,45.261091],[-111.306076,45.261092],[-111.306075,45.261092],[-111.306075,45.261092],[-111.306074,45.261092],[-111.306073,45.261092],[-111.306072,45.261092],[-111.306071,45.261092],[-111.30607,45.261091],[-111.306069,45.261091],[-111.306069,45.261091],[-111.306068,45.26109],[-111.306067,45.26109],[-111.306067,45.26109],[-111.306066,45.261089],[-111.306066,45.261088],[-111.306065,45.261088],[-111.306065,45.261087],[-111.306065,45.261087],[-111.306065,45.261086],[-111.306065,45.261085]]]}},{"id":"19","type":"Feature","properties":{"barrier":null,"highway":"crossing","tourism":null,"aeroway":null,"base_elevation":459,"artwork_type":null,"name":null},"geometry":{"type":"Polygon","coordinates":[[[-111.309481,45.257777],[-111.309481,45.257776],[-111.309481,45.257776],[-111.309481,45.257775],[-111.309481,45.257775],[-111.309482,45.257774],[-111.309482,45.257773],[-111.309483,45.257773],[-111.309483,45.257773],[-111.309484,45.257772],[-111.309485,45.257772],[-111.309485,45.257771],[-111.309486,45.257771],[-111.309487,45.257771],[-111.309488,45.257771],[-111.309489,45.257771],[-111.309489,45.257771],[-111.30949,45.257771],[-111.309491,45.257771],[-111.309492,45.257771],[-111.309493,45.257771],[-111.309494,45.257771],[-111.309494,45.257772],[-111.309495,45.257772],[-111.309496,45.257773],[-111.309496,45.257773],[-111.309497,45.257773],[-111.309497,45.257774],[-111.309498,45.257775],[-111.309498,45.257775],[-111.309498,45.257776],[-111.309498,45.257776],[-111.309498,45.257777],[-111.309498,45.257778],[-111.309498,45.257778],[-111.309498,45.257779],[-111.309498,45.257779],[-111.309497,45.25778],[-111.309497,45.257781],[-111.309496,45.257781],[-111.309496,45.257781],[-111.309495,45.257782],[-111.309494,45.257782],[-111.309494,45.257783],[-111.309493,45.257783],[-111.309492,45.257783],[-111.309491,45.257783],[-111.30949,45.257783],[-111.309489,45.257783],[-111.309489,45.257783],[-111.309488,45.257783],[-111.309487,45.257783],[-111.309486,45.257783],[-111.309485,45.257783],[-111.309485,45.257782],[-111.309484,45.257782],[-111.309483,45.257781],[-111.309483,45.257781],[-111.309482,45.257781],[-111.309482,45.25778],[-111.309481,45.257779],[-111.309481,45.257779],[-111.309481,45.257778],[-111.309481,45.257778],[-111.309481,45.257777]]]}},{"id":"20","type":"Feature","properties":{"barrier":null,"highway":"crossing","tourism":null,"aeroway":null,"base_elevation":465,"artwork_type":null,"name":null},"geometry":{"type":"Polygon","coordinates":[[[-111.310666,45.255735],[-111.310666,45.255734],[-111.310666,45.255733],[-111.310666,45.255733],[-111.310666,45.255732],[-111.310667,45.255732],[-111.310667,45.255731],[-111.310668,45.25573],[-111.310668,45.25573],[-111.310669,45.25573],[-111.31067,45.255729],[-111.31067,45.255729],[-111.310671,45.255729],[-111.310672,45.255728],[-111.310673,45.255728],[-111.310674,45.255728],[-111.310675,45.255728],[-111.310676,45.255728],[-111.310676,45.255728],[-111.310677,45.255728],[-111.310678,45.255729],[-111.310679,45.255729],[-111.31068,45.255729],[-111.31068,45.25573],[-111.310681,45.25573],[-111.310682,45.25573],[-111.310682,45.255731],[-111.310683,45.255732],[-111.310683,45.255732],[-111.310683,45.255733],[-111.310684,45.255733],[-111.310684,45.255734],[-111.310684,45.255735],[-111.310684,45.255735],[-111.310684,45.255736],[-111.310683,45.255736],[-111.310683,45.255737],[-111.310683,45.255737],[-111.310682,45.255738],[-111.310682,45.255739],[-111.310681,45.255739],[-111.31068,45.255739],[-111.31068,45.25574],[-111.310679,45.25574],[-111.310678,45.25574],[-111.310677,45.255741],[-111.310676,45.255741],[-111.310676,45.255741],[-111.310675,45.255741],[-111.310674,45.255741],[-111.310673,45.255741],[-111.310672,45.255741],[-111.310671,45.25574],[-111.31067,45.25574],[-111.31067,45.25574],[-111.310669,45.255739],[-111.310668,45.255739],[-111.310668,45.255739],[-111.310667,45.255738],[-111.310667,45.255737],[-111.310666,45.255737],[-111.310666,45.255736],[-111.310666,45.255736],[-111.310666,45.255735],[-111.310666,45.255735]]]}},{"id":"21","type":"Feature","properties":{"barrier":null,"highway":"crossing","tourism":null,"aeroway":null,"base_elevation":475,"artwork_type":null,"name":null},"geometry":{"type":"Polygon","coordinates":[[[-111.313617,45.252825],[-111.313617,45.252824],[-111.313617,45.252823],[-111.313618,45.252823],[-111.313618,45.252822],[-111.313618,45.252822],[-111.313619,45.252821],[-111.313619,45.252821],[-111.31362,45.25282],[-111.313621,45.25282],[-111.313621,45.252819],[-111.313622,45.252819],[-111.313623,45.252819],[-111.313624,45.252819],[-111.313624,45.252818],[-111.313625,45.252818],[-111.313626,45.252818],[-111.313627,45.252818],[-111.313628,45.252818],[-111.313629,45.252819],[-111.31363,45.252819],[-111.31363,45.252819],[-111.313631,45.252819],[-111.313632,45.25282],[-111.313633,45.25282],[-111.313633,45.252821],[-111.313634,45.252821],[-111.313634,45.252822],[-111.313634,45.252822],[-111.313635,45.252823],[-111.313635,45.252823],[-111.313635,45.252824],[-111.313635,45.252825],[-111.313635,45.252825],[-111.313635,45.252826],[-111.313635,45.252827],[-111.313634,45.252827],[-111.313634,45.252828],[-111.313634,45.252828],[-111.313633,45.252829],[-111.313633,45.252829],[-111.313632,45.25283],[-111.313631,45.25283],[-111.31363,45.25283],[-111.31363,45.252831],[-111.313629,45.252831],[-111.313628,45.252831],[-111.313627,45.252831],[-111.313626,45.252831],[-111.313625,45.252831],[-111.313624,45.252831],[-111.313624,45.252831],[-111.313623,45.252831],[-111.313622,45.25283],[-111.313621,45.25283],[-111.313621,45.25283],[-111.31362,45.252829],[-111.313619,45.252829],[-111.313619,45.252828],[-111.313618,45.252828],[-111.313618,45.252827],[-111.313618,45.252827],[-111.313617,45.252826],[-111.313617,45.252825],[-111.313617,45.252825]]]}},{"id":"22","type":"Feature","properties":{"barrier":null,"highway":"crossing","tourism":null,"aeroway":null,"base_elevation":483,"artwork_type":null,"name":null},"geometry":{"type":"Polygon","coordinates":[[[-111.316076,45.251907],[-111.316076,45.251906],[-111.316076,45.251906],[-111.316077,45.251905],[-111.316077,45.251904],[-111.316077,45.251904],[-111.316078,45.251903],[-111.316078,45.251903],[-111.316079,45.251902],[-111.31608,45.251902],[-111.31608,45.251902],[-111.316081,45.251901],[-111.316082,45.251901],[-111.316083,45.251901],[-111.316084,45.251901],[-111.316084,45.251901],[-111.316085,45.251901],[-111.316086,45.251901],[-111.316087,45.251901],[-111.316088,45.251901],[-111.316089,45.251901],[-111.31609,45.251901],[-111.31609,45.251902],[-111.316091,45.251902],[-111.316092,45.251902],[-111.316092,45.251903],[-111.316093,45.251903],[-111.316093,45.251904],[-111.316094,45.251904],[-111.316094,45.251905],[-111.316094,45.251906],[-111.316094,45.251906],[-111.316094,45.251907],[-111.316094,45.251908],[-111.316094,45.251908],[-111.316094,45.251909],[-111.316094,45.251909],[-111.316093,45.25191],[-111.316093,45.25191],[-111.316092,45.251911],[-111.316092,45.251911],[-111.316091,45.251912],[-111.31609,45.251912],[-111.31609,45.251912],[-111.316089,45.251913],[-111.316088,45.251913],[-111.316087,45.251913],[-111.316086,45.251913],[-111.316085,45.251913],[-111.316084,45.251913],[-111.316084,45.251913],[-111.316083,45.251913],[-111.316082,45.251913],[-111.316081,45.251912],[-111.31608,45.251912],[-111.31608,45.251912],[-111.316079,45.251911],[-111.316078,45.251911],[-111.316078,45.25191],[-111.316077,45.25191],[-111.316077,45.251909],[-111.316077,45.251909],[-111.316076,45.251908],[-111.316076,45.251908],[-111.316076,45.251907]]]}},{"id":"23","type":"Feature","properties":{"barrier":null,"highway":"crossing","tourism":null,"aeroway":null,"base_elevation":491,"artwork_type":null,"name":null},"geometry":{"type":"Polygon","coordinates":[[[-111.319127,45.24976],[-111.319127,45.249759],[-111.319127,45.249758],[-111.319128,45.249758],[-111.319128,45.249757],[-111.319128,45.249757],[-111.319129,45.249756],[-111.319129,45.249756],[-111.31913,45.249755],[-111.319131,45.249755],[-111.319131,45.249754],[-111.319132,45.249754],[-111.319133,45.249754],[-111.319134,45.249754],[-111.319135,45.249753],[-111.319135,45.249753],[-111.319136,45.249753],[-111.319137,45.249753],[-111.319138,45.249753],[-111.319139,45.249754],[-111.31914,45.249754],[-111.319141,45.249754],[-111.319141,45.249754],[-111.319142,45.249755],[-111.319143,45.249755],[-111.319143,45.249756],[-111.319144,45.249756],[-111.319144,45.249757],[-111.319145,45.249757],[-111.319145,45.249758],[-111.319145,45.249758],[-111.319145,45.249759],[-111.319145,45.24976],[-111.319145,45.24976],[-111.319145,45.249761],[-111.319145,45.249762],[-111.319145,45.249762],[-111.319144,45.249763],[-111.319144,45.249763],[-111.319143,45.249764],[-111.319143,45.249764],[-111.319142,45.249765],[-111.319141,45.249765],[-111.319141,45.249765],[-111.31914,45.249766],[-111.319139,45.249766],[-111.319138,45.249766],[-111.319137,45.249766],[-111.319136,45.249766],[-111.319135,45.249766],[-111.319135,45.249766],[-111.319134,45.249766],[-111.319133,45.249766],[-111.319132,45.249765],[-111.319131,45.249765],[-111.319131,45.249765],[-111.31913,45.249764],[-111.319129,45.249764],[-111.319129,45.249763],[-111.319128,45.249763],[-111.319128,45.249762],[-111.319128,45.249762],[-111.319127,45.249761],[-111.319127,45.24976],[-111.319127,45.24976]]]}},{"id":"24","type":"Feature","properties":{"barrier":null,"highway":"crossing","tourism":null,"aeroway":null,"base_elevation":560,"artwork_type":null,"name":null},"geometry":{"type":"Polygon","coordinates":[[[-111.308097,45.278165],[-111.308097,45.278165],[-111.308097,45.278164],[-111.308097,45.278164],[-111.308098,45.278163],[-111.308098,45.278163],[-111.308098,45.278162],[-111.308099,45.278161],[-111.308099,45.278161],[-111.3081,45.278161],[-111.308101,45.27816],[-111.308102,45.27816],[-111.308102,45.27816],[-111.308103,45.278159],[-111.308104,45.278159],[-111.308105,45.278159],[-111.308106,45.278159],[-111.308107,45.278159],[-111.308108,45.278159],[-111.308108,45.278159],[-111.308109,45.27816],[-111.30811,45.27816],[-111.308111,45.27816],[-111.308111,45.278161],[-111.308112,45.278161],[-111.308113,45.278161],[-111.308113,45.278162],[-111.308114,45.278163],[-111.308114,45.278163],[-111.308114,45.278164],[-111.308115,45.278164],[-111.308115,45.278165],[-111.308115,45.278165],[-111.308115,45.278166],[-111.308115,45.278167],[-111.308114,45.278167],[-111.308114,45.278168],[-111.308114,45.278168],[-111.308113,45.278169],[-111.308113,45.27817],[-111.308112,45.27817],[-111.308111,45.27817],[-111.308111,45.278171],[-111.30811,45.278171],[-111.308109,45.278171],[-111.308108,45.278172],[-111.308108,45.278172],[-111.308107,45.278172],[-111.308106,45.278172],[-111.308105,45.278172],[-111.308104,45.278172],[-111.308103,45.278172],[-111.308102,45.278171],[-111.308102,45.278171],[-111.308101,45.278171],[-111.3081,45.27817],[-111.308099,45.27817],[-111.308099,45.27817],[-111.308098,45.278169],[-111.308098,45.278168],[-111.308098,45.278168],[-111.308097,45.278167],[-111.308097,45.278167],[-111.308097,45.278166],[-111.308097,45.278165]]]}},{"id":"25","type":"Feature","properties":{"barrier":null,"highway":null,"tourism":"artwork","aeroway":null,"base_elevation":456,"artwork_type":"sculpture","name":null},"geometry":{"type":"Polygon","coordinates":[[[-111.309628,45.259996],[-111.309628,45.259995],[-111.309628,45.259995],[-111.309628,45.259994],[-111.309629,45.259994],[-111.309629,45.259993],[-111.30963,45.259992],[-111.30963,45.259992],[-111.309631,45.259992],[-111.309631,45.259991],[-111.309632,45.259991],[-111.309633,45.25999],[-111.309634,45.25999],[-111.309634,45.25999],[-111.309635,45.25999],[-111.309636,45.25999],[-111.309637,45.25999],[-111.309638,45.25999],[-111.309639,45.25999],[-111.30964,45.25999],[-111.30964,45.25999],[-111.309641,45.25999],[-111.309642,45.259991],[-111.309643,45.259991],[-111.309643,45.259992],[-111.309644,45.259992],[-111.309644,45.259992],[-111.309645,45.259993],[-111.309645,45.259994],[-111.309646,45.259994],[-111.309646,45.259995],[-111.309646,45.259995],[-111.309646,45.259996],[-111.309646,45.259997],[-111.309646,45.259997],[-111.309646,45.259998],[-111.309645,45.259998],[-111.309645,45.259999],[-111.309644,45.26],[-111.309644,45.26],[-111.309643,45.26],[-111.309643,45.260001],[-111.309642,45.260001],[-111.309641,45.260002],[-111.30964,45.260002],[-111.30964,45.260002],[-111.309639,45.260002],[-111.309638,45.260002],[-111.309637,45.260002],[-111.309636,45.260002],[-111.309635,45.260002],[-111.309634,45.260002],[-111.309634,45.260002],[-111.309633,45.260002],[-111.309632,45.260001],[-111.309631,45.260001],[-111.309631,45.26],[-111.30963,45.26],[-111.30963,45.26],[-111.309629,45.259999],[-111.309629,45.259998],[-111.309628,45.259998],[-111.309628,45.259997],[-111.309628,45.259997],[-111.309628,45.259996]]]}},{"id":"26","type":"Feature","properties":{"barrier":null,"highway":"crossing","tourism":null,"aeroway":null,"base_elevation":753,"artwork_type":null,"name":null},"geometry":{"type":"Polygon","coordinates":[[[-111.413787,45.238274],[-111.413787,45.238273],[-111.413787,45.238273],[-111.413787,45.238272],[-111.413787,45.238272],[-111.413788,45.238271],[-111.413788,45.238271],[-111.413789,45.23827],[-111.413789,45.23827],[-111.41379,45.238269],[-111.413791,45.238269],[-111.413791,45.238269],[-111.413792,45.238268],[-111.413793,45.238268],[-111.413794,45.238268],[-111.413795,45.238268],[-111.413796,45.238268],[-111.413797,45.238268],[-111.413797,45.238268],[-111.413798,45.238268],[-111.413799,45.238268],[-111.4138,45.238269],[-111.413801,45.238269],[-111.413801,45.238269],[-111.413802,45.23827],[-111.413803,45.23827],[-111.413803,45.238271],[-111.413804,45.238271],[-111.413804,45.238272],[-111.413804,45.238272],[-111.413805,45.238273],[-111.413805,45.238273],[-111.413805,45.238274],[-111.413805,45.238275],[-111.413805,45.238275],[-111.413804,45.238276],[-111.413804,45.238277],[-111.413804,45.238277],[-111.413803,45.238278],[-111.413803,45.238278],[-111.413802,45.238279],[-111.413801,45.238279],[-111.413801,45.238279],[-111.4138,45.23828],[-111.413799,45.23828],[-111.413798,45.23828],[-111.413797,45.23828],[-111.413797,45.23828],[-111.413796,45.23828],[-111.413795,45.23828],[-111.413794,45.23828],[-111.413793,45.23828],[-111.413792,45.23828],[-111.413791,45.23828],[-111.413791,45.238279],[-111.41379,45.238279],[-111.413789,45.238279],[-111.413789,45.238278],[-111.413788,45.238278],[-111.413788,45.238277],[-111.413787,45.238277],[-111.413787,45.238276],[-111.413787,45.238275],[-111.413787,45.238275],[-111.413787,45.238274]]]}},{"id":"27","type":"Feature","properties":{"barrier":null,"highway":"crossing","tourism":null,"aeroway":null,"base_elevation":703,"artwork_type":null,"name":null},"geometry":{"type":"Polygon","coordinates":[[[-111.408335,45.241051],[-111.408335,45.24105],[-111.408335,45.24105],[-111.408335,45.241049],[-111.408336,45.241048],[-111.408336,45.241048],[-111.408336,45.241047],[-111.408337,45.241047],[-111.408337,45.241046],[-111.408338,45.241046],[-111.408339,45.241046],[-111.40834,45.241045],[-111.40834,45.241045],[-111.408341,45.241045],[-111.408342,45.241045],[-111.408343,45.241045],[-111.408344,45.241045],[-111.408345,45.241045],[-111.408346,45.241045],[-111.408346,45.241045],[-111.408347,45.241045],[-111.408348,45.241045],[-111.408349,45.241046],[-111.408349,45.241046],[-111.40835,45.241046],[-111.408351,45.241047],[-111.408351,45.241047],[-111.408352,45.241048],[-111.408352,45.241048],[-111.408352,45.241049],[-111.408353,45.24105],[-111.408353,45.24105],[-111.408353,45.241051],[-111.408353,45.241052],[-111.408353,45.241052],[-111.408352,45.241053],[-111.408352,45.241053],[-111.408352,45.241054],[-111.408351,45.241054],[-111.408351,45.241055],[-111.40835,45.241055],[-111.408349,45.241056],[-111.408349,45.241056],[-111.408348,45.241056],[-111.408347,45.241057],[-111.408346,45.241057],[-111.408346,45.241057],[-111.408345,45.241057],[-111.408344,45.241057],[-111.408343,45.241057],[-111.408342,45.241057],[-111.408341,45.241057],[-111.40834,45.241057],[-111.40834,45.241056],[-111.408339,45.241056],[-111.408338,45.241056],[-111.408337,45.241055],[-111.408337,45.241055],[-111.408336,45.241054],[-111.408336,45.241054],[-111.408336,45.241053],[-111.408335,45.241053],[-111.408335,45.241052],[-111.408335,45.241052],[-111.408335,45.241051]]]}},{"id":"28","type":"Feature","properties":{"barrier":null,"highway":"crossing","tourism":null,"aeroway":null,"base_elevation":690,"artwork_type":null,"name":null},"geometry":{"type":"Polygon","coordinates":[[[-111.403911,45.242241],[-111.403911,45.242241],[-111.403911,45.24224],[-111.403911,45.24224],[-111.403911,45.242239],[-111.403912,45.242239],[-111.403912,45.242238],[-111.403913,45.242237],[-111.403913,45.242237],[-111.403914,45.242237],[-111.403915,45.242236],[-111.403915,45.242236],[-111.403916,45.242236],[-111.403917,45.242235],[-111.403918,45.242235],[-111.403919,45.242235],[-111.40392,45.242235],[-111.40392,45.242235],[-111.403921,45.242235],[-111.403922,45.242235],[-111.403923,45.242236],[-111.403924,45.242236],[-111.403924,45.242236],[-111.403925,45.242237],[-111.403926,45.242237],[-111.403926,45.242237],[-111.403927,45.242238],[-111.403927,45.242239],[-111.403928,45.242239],[-111.403928,45.24224],[-111.403928,45.24224],[-111.403928,45.242241],[-111.403928,45.242241],[-111.403928,45.242242],[-111.403928,45.242243],[-111.403928,45.242243],[-111.403928,45.242244],[-111.403927,45.242244],[-111.403927,45.242245],[-111.403926,45.242246],[-111.403926,45.242246],[-111.403925,45.242246],[-111.403924,45.242247],[-111.403924,45.242247],[-111.403923,45.242247],[-111.403922,45.242248],[-111.403921,45.242248],[-111.40392,45.242248],[-111.40392,45.242248],[-111.403919,45.242248],[-111.403918,45.242248],[-111.403917,45.242248],[-111.403916,45.242247],[-111.403915,45.242247],[-111.403915,45.242247],[-111.403914,45.242246],[-111.403913,45.242246],[-111.403913,45.242246],[-111.403912,45.242245],[-111.403912,45.242244],[-111.403911,45.242244],[-111.403911,45.242243],[-111.403911,45.242243],[-111.403911,45.242242],[-111.403911,45.242241]]]}},{"id":"29","type":"Feature","properties":{"barrier":null,"highway":"bus_stop","tourism":null,"aeroway":null,"base_elevation":822,"artwork_type":null,"name":null},"geometry":{"type":"Polygon","coordinates":[[[-111.40029,45.284684],[-111.40029,45.284684],[-111.40029,45.284683],[-111.40029,45.284683],[-111.400291,45.284682],[-111.400291,45.284681],[-111.400291,45.284681],[-111.400292,45.28468],[-111.400292,45.28468],[-111.400293,45.28468],[-111.400294,45.284679],[-111.400295,45.284679],[-111.400295,45.284679],[-111.400296,45.284678],[-111.400297,45.284678],[-111.400298,45.284678],[-111.400299,45.284678],[-111.4003,45.284678],[-111.400301,45.284678],[-111.400301,45.284678],[-111.400302,45.284679],[-111.400303,45.284679],[-111.400304,45.284679],[-111.400304,45.28468],[-111.400305,45.28468],[-111.400306,45.28468],[-111.400306,45.284681],[-111.400307,45.284681],[-111.400307,45.284682],[-111.400307,45.284683],[-111.400308,45.284683],[-111.400308,45.284684],[-111.400308,45.284684],[-111.400308,45.284685],[-111.400308,45.284686],[-111.400307,45.284686],[-111.400307,45.284687],[-111.400307,45.284687],[-111.400306,45.284688],[-111.400306,45.284688],[-111.400305,45.284689],[-111.400304,45.284689],[-111.400304,45.28469],[-111.400303,45.28469],[-111.400302,45.28469],[-111.400301,45.28469],[-111.400301,45.284691],[-111.4003,45.284691],[-111.400299,45.284691],[-111.400298,45.284691],[-111.400297,45.284691],[-111.400296,45.28469],[-111.400295,45.28469],[-111.400295,45.28469],[-111.400294,45.28469],[-111.400293,45.284689],[-111.400292,45.284689],[-111.400292,45.284688],[-111.400291,45.284688],[-111.400291,45.284687],[-111.400291,45.284687],[-111.40029,45.284686],[-111.40029,45.284686],[-111.40029,45.284685],[-111.40029,45.284684]]]}},{"id":"30","type":"Feature","properties":{"barrier":null,"highway":"crossing","tourism":null,"aeroway":null,"base_elevation":362,"artwork_type":null,"name":null},"geometry":{"type":"Polygon","coordinates":[[[-111.253927,45.26265],[-111.253927,45.262649],[-111.253927,45.262648],[-111.253927,45.262648],[-111.253927,45.262647],[-111.253928,45.262647],[-111.253928,45.262646],[-111.253929,45.262646],[-111.253929,45.262645],[-111.25393,45.262645],[-111.253931,45.262644],[-111.253931,45.262644],[-111.253932,45.262644],[-111.253933,45.262644],[-111.253934,45.262643],[-111.253935,45.262643],[-111.253935,45.262643],[-111.253936,45.262643],[-111.253937,45.262643],[-111.253938,45.262644],[-111.253939,45.262644],[-111.25394,45.262644],[-111.25394,45.262644],[-111.253941,45.262645],[-111.253942,45.262645],[-111.253942,45.262646],[-111.253943,45.262646],[-111.253943,45.262647],[-111.253944,45.262647],[-111.253944,45.262648],[-111.253944,45.262648],[-111.253944,45.262649],[-111.253944,45.26265],[-111.253944,45.26265],[-111.253944,45.262651],[-111.253944,45.262651],[-111.253944,45.262652],[-111.253943,45.262653],[-111.253943,45.262653],[-111.253942,45.262654],[-111.253942,45.262654],[-111.253941,45.262654],[-111.25394,45.262655],[-111.25394,45.262655],[-111.253939,45.262655],[-111.253938,45.262656],[-111.253937,45.262656],[-111.253936,45.262656],[-111.253935,45.262656],[-111.253935,45.262656],[-111.253934,45.262656],[-111.253933,45.262656],[-111.253932,45.262655],[-111.253931,45.262655],[-111.253931,45.262655],[-111.25393,45.262654],[-111.253929,45.262654],[-111.253929,45.262654],[-111.253928,45.262653],[-111.253928,45.262653],[-111.253927,45.262652],[-111.253927,45.262651],[-111.253927,45.262651],[-111.253927,45.26265],[-111.253927,45.26265]]]}},{"id":"31","type":"Feature","properties":{"barrier":"fence","highway":null,"tourism":null,"aeroway":null,"base_elevation":843,"artwork_type":null,"name":null},"geometry":{"type":"Polygon","coordinates":[[[-111.406143,45.293246],[-111.40564,45.293354],[-111.405578,45.293293],[-111.405374,45.292782],[-111.405631,45.292726],[-111.405872,45.292675],[-111.406167,45.292719],[-111.406453,45.292832],[-111.406419,45.293245],[-111.406143,45.293246]]]}},{"id":"32","type":"Feature","properties":{"barrier":"fence","highway":null,"tourism":null,"aeroway":null,"base_elevation":448,"artwork_type":null,"name":null},"geometry":{"type":"LineString","coordinates":[[-111.30568,45.260882],[-111.305865,45.260904],[-111.306034,45.260925],[-111.306123,45.260569]]}},{"id":"33","type":"Feature","properties":{"barrier":"fence","highway":null,"tourism":null,"aeroway":"aerodrome","base_elevation":821,"artwork_type":null,"name":"High Alpine Heliport"},"geometry":{"type":"Polygon","coordinates":[[[-111.375382,45.228934],[-111.3754,45.228961],[-111.375414,45.228984],[-111.37546,45.229033],[-111.375662,45.229081],[-111.375904,45.22906],[-111.375982,45.229008],[-111.375805,45.228469],[-111.375195,45.228669],[-111.375382,45.228934]]]}},{"id":"34","type":"Feature","properties":{"barrier":"wall","highway":null,"tourism":null,"aeroway":null,"base_elevation":670,"artwork_type":null,"name":null},"geometry":{"type":"Polygon","coordinates":[[[-111.34785,45.278169],[-111.347286,45.278185],[-111.347139,45.278072],[-111.34711,45.277686],[-111.347295,45.277547],[-111.34773,45.277537],[-111.347816,45.277593],[-111.34785,45.278169]]]}},{"id":"35","type":"Feature","properties":{"barrier":"fence","highway":null,"tourism":null,"aeroway":null,"base_elevation":1054,"artwork_type":null,"name":null},"geometry":{"type":"LineString","coordinates":[[-111.400849,45.221577],[-111.400843,45.221388],[-111.400579,45.221392],[-111.400585,45.221581],[-111.400849,45.221577]]}}]}