{"type":"FeatureCollection","features":[{"id":"0","type":"Feature","properties":{"leisure":"golf_course","sport":"golf","base_elevation":779},"geometry":{"type":"Polygon","coordinates":[[[-111.3923,45.226387],[-111.39626,45.226689],[-111.398987,45.231057],[-111.403116,45.230873],[-111.403956,45.233622],[-111.402368,45.235372],[-111.397512,45.237437],[-111.383576,45.231688],[-111.3923,45.226387]]]}},{"id":"1","type":"Feature","properties":{"leisure":"golf_course","sport":"golf","base_elevation":679},"geometry":{"type":"Polygon","coordinates":[[[-111.376397,45.257021],[-111.377402,45.257858],[-111.377021,45.260238],[-111.369769,45.25964],[-111.371234,45.257342],[-111.36941,45.25683],[-111.367795,45.25618],[-111.366526,45.257056],[-111.365873,45.258157],[-111.365051,45.259272],[-111.362816,45.260968],[-111.36151,45.259589],[-111.357726,45.256995],[-111.354423,45.255971],[-111.353105,45.256362],[-111.352119,45.256284],[-111.352193,45.255199],[-111.354374,45.253733],[-111.356543,45.253611],[-111.360364,45.254444],[-111.363864,45.253828],[-111.368461,45.255147],[-111.368153,45.254203],[-111.372226,45.251226],[-111.374235,45.24995],[-111.376576,45.250339],[-111.379203,45.252921],[-111.378764,45.254522],[-111.376397,45.257021]]]}},{"id":"2","type":"Feature","properties":{"leisure":"golf_course","sport":"golf","base_elevation":425},"geometry":{"type":"Polygon","coordinates":[[[-111.310051,45.262851],[-111.309003,45.262808],[-111.308483,45.262851],[-111.308198,45.262959],[-111.307699,45.26288],[-111.307435,45.26293],[-111.307099,45.263127],[-111.307063,45.263249],[-111.306982,45.26336],[-111.306758,45.263457],[-111.306534,45.263493],[-111.306284,45.263457],[-111.305826,45.263461],[-111.304849,45.263536],[-111.304401,45.263661],[-111.304009,45.263855],[-111.303632,45.264195],[-111.303556,45.264331],[-111.303342,45.264439],[-111.303001,45.264686],[-111.302914,45.264915],[-111.302685,45.265148],[-111.30243,45.265295],[-111.301565,45.265467],[-111.301209,45.265331],[-111.301041,45.265403],[-111.300384,45.265421],[-111.299788,45.265485],[-111.299096,45.265657],[-111.29845,45.265915],[-111.296983,45.266725],[-111.296637,45.266818],[-111.296383,45.266843],[-111.296235,45.266775],[-111.296301,45.266628],[-111.296683,45.26646],[-111.297503,45.265453],[-111.297335,45.26541],[-111.297238,45.265274],[-111.297304,45.265159],[-111.297472,45.265062],[-111.297788,45.265041],[-111.298811,45.264779],[-111.299132,45.264754],[-111.299437,45.264801],[-111.299631,45.264905],[-111.299997,45.264912],[-111.300068,45.264812],[-111.300308,45.264808],[-111.300501,45.264883],[-111.301815,45.264829],[-111.302369,45.264733],[-111.302492,45.264414],[-111.30269,45.264353],[-111.304289,45.26307],[-111.304212,45.262909],[-111.303983,45.262823],[-111.301921,45.2625],[-111.301687,45.262515],[-111.301092,45.262687],[-111.300791,45.262651],[-111.300598,45.262558],[-111.30046,45.262432],[-111.300104,45.262357],[-111.29987,45.262382],[-111.298424,45.262966],[-111.297971,45.263697],[-111.297976,45.263919],[-111.297895,45.264034],[-111.296719,45.264385],[-111.296067,45.264539],[-111.295812,45.264983],[-111.295497,45.265725],[-111.295483,45.266892],[-111.293623,45.266883],[-111.293542,45.265392],[-111.294423,45.263643],[-111.295059,45.262884],[-111.295558,45.262468],[-111.296113,45.262131],[-111.297014,45.261741],[-111.298506,45.261411],[-111.299137,45.261397],[-111.302914,45.261447],[-111.304253,45.26149],[-111.30576,45.261597],[-111.306941,45.261562],[-111.307318,45.261615],[-111.307552,45.261741],[-111.307898,45.26183],[-111.308163,45.261956],[-111.308275,45.262096],[-111.308244,45.262235],[-111.308091,45.262354],[-111.30832,45.262468],[-111.308494,45.262379],[-111.308855,45.262307],[-111.309267,45.262257],[-111.309649,45.262164],[-111.310046,45.262153],[-111.310657,45.262504],[-111.310866,45.262554],[-111.311029,45.262633],[-111.31111,45.262726],[-111.311024,45.26302],[-111.310789,45.263106],[-111.31055,45.263063],[-111.310051,45.262851]]]}},{"id":"3","type":"Feature","properties":{"leisure":"golf_course","sport":"golf","base_elevation":418},"geometry":{"type":"Polygon","coordinates":[[[-111.302176,45.26856],[-111.299771,45.267959],[-111.297443,45.268365],[-111.295947,45.268743],[-111.294093,45.269475],[-111.293232,45.268926],[-111.294158,45.26809],[-111.293524,45.267564],[-111.293703,45.267152],[-111.296402,45.267015],[-111.297004,45.266946],[-111.297102,45.267243],[-111.299086,45.266992],[-111.299948,45.266648],[-111.300988,45.266305],[-111.302354,45.265687],[-111.302598,45.266419],[-111.303314,45.266282],[-111.303249,45.265653],[-111.30707,45.264645],[-111.307469,45.265052],[-111.308284,45.264782],[-111.309384,45.264246],[-111.309183,45.263856],[-111.310644,45.263642],[-111.310728,45.264015],[-111.309136,45.26495],[-111.308262,45.265364],[-111.30726,45.265401],[-111.305038,45.265984],[-111.305135,45.266763],[-111.304958,45.267253],[-111.305577,45.267865],[-111.306502,45.268625],[-111.305811,45.269068],[-111.304615,45.26967],[-111.303744,45.269826],[-111.303257,45.269733],[-111.30281,45.269544],[-111.302176,45.26856]]]}},{"id":"4","type":"Feature","properties":{"leisure":"golf_course","sport":"golf","base_elevation":562},"geometry":{"type":"Polygon","coordinates":[[[-111.470426,45.313126],[-111.473964,45.315463],[-111.474765,45.316756],[-111.472856,45.320228],[-111.471055,45.322968],[-111.469536,45.324017],[-111.467733,45.325959],[-111.466386,45.326854],[-111.462353,45.32664],[-111.461332,45.325134],[-111.460239,45.323715],[-111.459395,45.322056],[-111.458865,45.322612],[-111.4587,45.323124],[-111.458448,45.323509],[-111.457804,45.323884],[-111.45697,45.324084],[-111.456482,45.324114],[-111.456203,45.32393],[-111.456182,45.323568],[-111.455956,45.322836],[-111.455667,45.322666],[-111.455034,45.321968],[-111.45484,45.321629],[-111.455126,45.320953],[-111.455361,45.319196],[-111.456031,45.318623],[-111.456015,45.318079],[-111.45505,45.318166],[-111.454181,45.317683],[-111.453437,45.317852],[-111.453237,45.317446],[-111.452067,45.317687],[-111.451273,45.318023],[-111.44998,45.318347],[-111.449042,45.318294],[-111.446067,45.317176],[-111.445397,45.316758],[-111.44692,45.31566],[-111.446883,45.3148],[-111.448841,45.313117],[-111.449345,45.313087],[-111.450992,45.314],[-111.451421,45.313796],[-111.452725,45.313864],[-111.453166,45.313746],[-111.45486,45.313744],[-111.455192,45.313947],[-111.455246,45.315411],[-111.455621,45.315411],[-111.45582,45.31486],[-111.457032,45.314694],[-111.458057,45.315166],[-111.458781,45.315298],[-111.4598,45.315886],[-111.460281,45.315793],[-111.460793,45.315642],[-111.461473,45.315365],[-111.470426,45.313126]]]}},{"id":"5","type":"Feature","properties":{"leisure":"nature_reserve","sport":null,"base_elevation":284},"geometry":{"type":"Polygon","coordinates":[[[-111.596487,45.261739],[-111.55545,45.261734],[-111.555364,45.27629],[-111.555404,45.290848],[-111.555348,45.31996],[-111.551165,45.316336],[-111.546865,45.312386],[-111.523577,45.297894],[-111.500801,45.289526],[-111.473399,45.279237],[-111.45556,45.278299],[-111.454517,45.278306],[-111.450889,45.278105],[-111.451733,45.27771],[-111.452117,45.277293],[-111.453511,45.276436],[-111.454512,45.275929],[-111.455193,45.275401],[-111.455593,45.275205],[-111.456991,45.274668],[-111.460184,45.273773],[-111.463071,45.272861],[-111.464862,45.272134],[-111.465625,45.271789],[-111.465916,45.271607],[-111.466067,45.271346],[-111.466351,45.270246],[-111.466564,45.269795],[-111.466993,45.269253],[-111.467461,45.268793],[-111.468424,45.268087],[-111.468806,45.267932],[-111.4699,45.267684],[-111.470371,45.267646],[-111.470854,45.267419],[-111.47103,45.267158],[-111.471491,45.265878],[-111.472095,45.264966],[-111.472132,45.264714],[-111.472661,45.263946],[-111.473594,45.262799],[-111.474405,45.262148],[-111.475302,45.261289],[-111.476203,45.260773],[-111.476635,45.260618],[-111.477398,45.260408],[-111.478697,45.260214],[-111.479279,45.259699],[-111.480437,45.259487],[-111.48111,45.259222],[-111.481742,45.258553],[-111.482337,45.258172],[-111.48326,45.257223],[-111.484292,45.255697],[-111.484554,45.25503],[-111.485361,45.254063],[-111.486058,45.253556],[-111.487988,45.252711],[-111.489724,45.251515],[-111.49118,45.250438],[-111.491801,45.250102],[-111.492004,45.249921],[-111.492411,45.249811],[-111.493106,45.24916],[-111.493332,45.248781],[-111.493418,45.248412],[-111.493595,45.248231],[-111.494623,45.247768],[-111.495345,45.24726],[-111.495992,45.246879],[-111.496436,45.246743],[-111.496921,45.246732],[-111.497326,45.246514],[-111.497962,45.246376],[-111.499182,45.246001],[-111.501497,45.245541],[-111.504248,45.245376],[-111.504452,45.24533],[-111.50473,45.245113],[-111.505296,45.244264],[-111.505574,45.243966],[-111.506827,45.243069],[-111.507169,45.24278],[-111.507863,45.242047],[-111.508454,45.241208],[-111.508943,45.240215],[-111.508912,45.239675],[-111.508703,45.239091],[-111.507249,45.237423],[-111.506285,45.236491],[-111.505332,45.235362],[-111.50478,45.234923],[-111.504586,45.234546],[-111.504572,45.234375],[-111.504934,45.233527],[-111.505141,45.232446],[-111.505452,45.231643],[-111.505878,45.230822],[-111.506189,45.229993],[-111.506162,45.229777],[-111.50598,45.229462],[-111.504633,45.228352],[-111.503723,45.227708],[-111.502469,45.22703],[-111.502071,45.226716],[-111.501918,45.226672],[-111.501701,45.226709],[-111.501346,45.226864],[-111.500799,45.226983],[-111.50043,45.226957],[-111.4995,45.226998],[-111.499143,45.226945],[-111.498671,45.226812],[-111.498184,45.22658],[-111.497505,45.226124],[-111.496943,45.22591],[-111.496302,45.225418],[-111.494667,45.224903],[-111.493979,45.22496],[-111.493599,45.225097],[-111.492838,45.225505],[-111.490677,45.226082],[-111.490193,45.226111],[-111.48823,45.225876],[-111.485862,45.226012],[-111.484433,45.225766],[-111.484151,45.225641],[-111.482849,45.225242],[-111.482183,45.224849],[-111.481442,45.224546],[-111.480871,45.224397],[-111.480143,45.224095],[-111.479979,45.223943],[-111.479938,45.223634],[-111.480129,45.223076],[-111.480148,45.222136],[-111.479668,45.221579],[-111.479067,45.221238],[-111.478419,45.221057],[-111.478018,45.220293],[-111.478053,45.219951],[-111.478865,45.218084],[-111.479023,45.217129],[-111.479234,45.216462],[-111.479247,45.215031],[-111.479433,45.214355],[-111.479973,45.213417],[-111.480047,45.213137],[-111.480092,45.212471],[-111.479934,45.211905],[-111.479878,45.211284],[-111.479977,45.21095],[-111.480796,45.209911],[-111.481399,45.208955],[-111.482113,45.207484],[-111.482647,45.205871],[-111.482729,45.205025],[-111.482604,45.203765],[-111.482622,45.202954],[-111.48224,45.201444],[-111.482007,45.200968],[-111.481853,45.200797],[-111.481469,45.200538],[-111.481106,45.199801],[-111.480772,45.199452],[-111.479728,45.197926],[-111.479636,45.197656],[-111.47963,45.196855],[-111.479577,45.196603],[-111.479345,45.196316],[-111.478974,45.196147],[-111.478833,45.19594],[-111.478555,45.194681],[-111.478155,45.194026],[-111.477833,45.19364],[-111.477012,45.192923],[-111.476308,45.192467],[-111.475336,45.191958],[-111.474277,45.191602],[-111.473036,45.190851],[-111.471568,45.190362],[-111.470242,45.190107],[-111.4688,45.189662],[-111.468137,45.189539],[-111.467587,45.189226],[-111.467291,45.188885],[-111.467048,45.188778],[-111.466156,45.188593],[-111.465784,45.188262],[-111.465295,45.187642],[-111.465256,45.187489],[-111.465821,45.186524],[-111.465972,45.186361],[-111.466542,45.185981],[-111.467173,45.185303],[-111.467566,45.185113],[-111.467794,45.18495],[-111.467906,45.184751],[-111.468192,45.183877],[-111.46839,45.183129],[-111.468487,45.182624],[-111.468913,45.181731],[-111.469165,45.181379],[-111.4692,45.181046],[-111.469184,45.180704],[-111.468987,45.179931],[-111.469277,45.179606],[-111.469531,45.179533],[-111.46962,45.179478],[-111.469847,45.179189],[-111.469933,45.17882],[-111.470286,45.178404],[-111.460758,45.175976],[-111.459585,45.175648],[-111.458552,45.175418],[-111.458055,45.175258],[-111.45771,45.175089],[-111.457352,45.175],[-111.456996,45.174956],[-111.455721,45.174646],[-111.454943,45.174551],[-111.454473,45.174552],[-111.45432,45.17458],[-111.454067,45.174797],[-111.453916,45.174978],[-111.453753,45.175275],[-111.453564,45.175528],[-111.452946,45.176215],[-111.452655,45.176477],[-111.452503,45.176532],[-111.451993,45.176434],[-111.451661,45.176328],[-111.451393,45.176185],[-111.450653,45.175918],[-111.449569,45.175724],[-111.449111,45.175699],[-111.448894,45.175601],[-111.448753,45.175457],[-111.4487,45.175241],[-111.447996,45.174731],[-111.447303,45.17395],[-111.446225,45.172821],[-111.445954,45.172398],[-111.445044,45.171484],[-111.444852,45.171404],[-111.444457,45.171342],[-111.444151,45.171208],[-111.443741,45.170922],[-111.443474,45.170887],[-111.442888,45.170889],[-111.44252,45.170935],[-111.44219,45.171054],[-111.441556,45.171362],[-111.440959,45.171491],[-111.440336,45.171547],[-111.439407,45.171569],[-111.439051,45.171651],[-111.438771,45.171634],[-111.438439,45.171545],[-111.438222,45.171438],[-111.437454,45.170802],[-111.437198,45.170677],[-111.435871,45.170196],[-111.435629,45.170143],[-111.435475,45.170026],[-111.435346,45.169829],[-111.43533,45.169298],[-111.435137,45.169055],[-111.435035,45.16902],[-111.434182,45.168942],[-111.43348,45.168747],[-111.43246,45.168391],[-111.432076,45.168194],[-111.430023,45.16758],[-111.42918,45.167224],[-111.428875,45.167225],[-111.428709,45.167171],[-111.42839,45.167065],[-111.428032,45.16685],[-111.427217,45.166664],[-111.426706,45.166441],[-111.426591,45.16636],[-111.426295,45.16592],[-111.426165,45.165534],[-111.426049,45.165345],[-111.4256,45.164906],[-111.42505,45.164485],[-111.424794,45.164224],[-111.424076,45.163633],[-111.423896,45.163355],[-111.422759,45.162729],[-111.422503,45.16254],[-111.42199,45.161984],[-111.421696,45.161769],[-111.420931,45.161493],[-111.42037,45.161387],[-111.419847,45.161227],[-111.419108,45.161059],[-111.418138,45.160612],[-111.417895,45.160541],[-111.41689,45.160464],[-111.415681,45.16045],[-111.415185,45.160497],[-111.414412,45.160914],[-111.414183,45.16096],[-111.413941,45.160961],[-111.412272,45.160634],[-111.409753,45.160634],[-111.409524,45.160589],[-111.409268,45.160482],[-111.409014,45.160456],[-111.407741,45.160425],[-111.407296,45.160453],[-111.406825,45.160401],[-111.40671,45.160419],[-111.406571,45.160483],[-111.40637,45.16088],[-111.406016,45.161187],[-111.405801,45.161431],[-111.405523,45.16163],[-111.405258,45.16191],[-111.405055,45.162073],[-111.404943,45.16237],[-111.404817,45.162542],[-111.404526,45.162723],[-111.404094,45.162877],[-111.403713,45.162959],[-111.402824,45.163242],[-111.40224,45.163388],[-111.401845,45.163407],[-111.401758,45.163335],[-111.401603,45.163291],[-111.401425,45.163308],[-111.400776,45.163258],[-111.400176,45.163089],[-111.399896,45.162973],[-111.399141,45.162408],[-111.398732,45.162221],[-111.396462,45.161437],[-111.395032,45.160739],[-111.394115,45.160491],[-111.393297,45.159998],[-111.39281,45.159523],[-111.392183,45.159057],[-111.39129,45.15861],[-111.389348,45.157491],[-111.388925,45.157061],[-111.388834,45.156719],[-111.389199,45.156177],[-111.389286,45.155853],[-111.389295,45.155322],[-111.388986,45.154684],[-111.388754,45.154343],[-111.388396,45.153975],[-111.387961,45.153652],[-111.387626,45.153077],[-111.387357,45.152799],[-111.387063,45.152602],[-111.386282,45.151803],[-111.386014,45.15166],[-111.385363,45.151429],[-111.384801,45.151061],[-111.384237,45.150469],[-111.384006,45.150164],[-111.383813,45.149768],[-111.383237,45.149275],[-111.382918,45.149096],[-111.382392,45.148495],[-111.382212,45.148207],[-111.381957,45.148028],[-111.381598,45.147615],[-111.381367,45.147418],[-111.380218,45.146765],[-111.379245,45.145859],[-111.378655,45.14515],[-111.378374,45.144908],[-111.377288,45.144209],[-111.376777,45.143788],[-111.376598,45.14368],[-111.376165,45.143546],[-111.375947,45.143385],[-111.375792,45.143044],[-111.375499,45.142856],[-111.374932,45.141822],[-111.374099,45.140808],[-111.373049,45.139839],[-111.372191,45.138888],[-111.371923,45.138663],[-111.371286,45.138548],[-111.371055,45.13827],[-111.371027,45.137928],[-111.371175,45.137198],[-111.371097,45.136884],[-111.370608,45.135967],[-111.370275,45.135653],[-111.369967,45.135213],[-111.369748,45.134791],[-111.369605,45.134359],[-111.36955,45.133693],[-111.369676,45.133522],[-111.370411,45.133069],[-111.370702,45.132834],[-111.371231,45.132058],[-111.371293,45.129772],[-111.371329,45.129565],[-111.371506,45.129312],[-111.37181,45.129122],[-111.37228,45.129021],[-111.372776,45.129038],[-111.3734,45.129189],[-111.373872,45.129403],[-111.374509,45.129599],[-111.374967,45.129706],[-111.375654,45.129748],[-111.375609,45.128623],[-111.375691,45.127651],[-111.375661,45.126895],[-111.375571,45.126697],[-111.37474,45.125998],[-111.375322,45.125618],[-111.375601,45.125536],[-111.375957,45.125553],[-111.376529,45.125497],[-111.377202,45.125377],[-111.377545,45.125259],[-111.377748,45.125178],[-111.378305,45.12478],[-111.379293,45.124272],[-111.380828,45.123682],[-111.381513,45.123464],[-111.381792,45.12331],[-111.38216,45.12321],[-111.382869,45.122829],[-111.382945,45.122739],[-111.38279,45.122415],[-111.382316,45.12176],[-111.382358,45.120544],[-111.382114,45.120086],[-111.381267,45.119],[-111.379965,45.11823],[-111.37949,45.117511],[-111.379208,45.117215],[-111.379092,45.116928],[-111.37913,45.116846],[-111.379383,45.116683],[-111.380701,45.116031],[-111.380993,45.115976],[-111.381486,45.115659],[-111.382561,45.114773],[-111.383356,45.113781],[-111.383608,45.113564],[-111.384393,45.113003],[-111.385128,45.112685],[-111.385293,45.112568],[-111.385317,45.112442],[-111.385202,45.112307],[-111.384959,45.112182],[-111.383839,45.11188],[-111.382654,45.111478],[-111.382105,45.111138],[-111.381887,45.110941],[-111.381784,45.110761],[-111.381781,45.110248],[-111.381992,45.109446],[-111.382016,45.109257],[-111.381887,45.108925],[-111.381923,45.108618],[-111.382086,45.108375],[-111.38206,45.108177],[-111.381713,45.107584],[-111.381505,45.106999],[-111.38085,45.105939],[-111.380632,45.105679],[-111.380096,45.105339],[-111.380057,45.105258],[-111.38012,45.105078],[-111.381888,45.103442],[-111.382306,45.103171],[-111.38299,45.102863],[-111.383636,45.102455],[-111.38409,45.102022],[-111.384291,45.101607],[-111.384824,45.099652],[-111.385137,45.098832],[-111.385109,45.098417],[-111.384633,45.097663],[-111.384695,45.097339],[-111.384934,45.097104],[-111.385251,45.096959],[-111.386457,45.096676],[-111.386812,45.096539],[-111.387394,45.096168],[-111.388041,45.09595],[-111.388816,45.095903],[-111.389337,45.095955],[-111.390546,45.096158],[-111.392328,45.096638],[-111.394364,45.096919],[-111.396337,45.097326],[-111.397125,45.097431],[-111.399961,45.097655],[-111.402049,45.098089],[-111.402877,45.098437],[-111.403325,45.098877],[-111.403569,45.099182],[-111.403672,45.099416],[-111.403864,45.099586],[-111.40417,45.099747],[-111.40487,45.099916],[-111.4066,45.100108],[-111.40767,45.10041],[-111.409235,45.100629],[-111.410119,45.100672],[-111.410519,45.100661],[-111.411731,45.100494],[-111.412017,45.10043],[-111.412182,45.10034],[-111.412579,45.099824],[-111.413071,45.099453],[-111.41303,45.072142],[-111.41321,45.014168],[-111.413214,44.99967],[-111.352184,44.99972],[-111.352437,44.983316],[-111.364518,44.97613],[-111.369996,44.968164],[-111.367214,44.957361],[-111.366993,44.956623],[-111.367066,44.956092],[-111.366815,44.954517],[-111.366801,44.954265],[-111.366848,44.953761],[-111.366756,44.95314],[-111.366839,44.952303],[-111.366721,44.951736],[-111.366516,44.951323],[-111.366286,44.951062],[-111.366246,44.950693],[-111.366228,44.949919],[-111.366061,44.949524],[-111.365995,44.949209],[-111.365752,44.94875],[-111.365479,44.947806],[-111.36526,44.947267],[-111.365167,44.946511],[-111.365177,44.94616],[-111.3651,44.945944],[-111.364895,44.945575],[-111.364739,44.945009],[-111.364379,44.944164],[-111.364275,44.943849],[-111.364028,44.942769],[-111.363934,44.94205],[-111.363574,44.941195],[-111.363127,44.940558],[-111.36305,44.940396],[-111.363085,44.940054],[-111.362273,44.9338],[-111.362373,44.933664],[-111.362435,44.933448],[-111.362434,44.93325],[-111.36252,44.93271],[-111.362565,44.931908],[-111.362369,44.930901],[-111.362415,44.930279],[-111.362553,44.929937],[-111.362552,44.929766],[-111.362449,44.929568],[-111.361787,44.929084],[-111.361697,44.928931],[-111.361618,44.92841],[-111.36165,44.927473],[-111.361712,44.927257],[-111.3619,44.926923],[-111.362506,44.92648],[-111.362746,44.926389],[-111.363809,44.926161],[-111.363935,44.926107],[-111.364137,44.925926],[-111.364591,44.925636],[-111.364767,44.925447],[-111.364842,44.925159],[-111.364841,44.925024],[-111.364723,44.924493],[-111.364507,44.924286],[-111.364088,44.92418],[-111.363923,44.924108],[-111.363858,44.923901],[-111.363475,44.923425],[-111.363372,44.923246],[-111.363218,44.922823],[-111.363126,44.922301],[-111.362922,44.922185],[-111.362642,44.921952],[-111.362501,44.921754],[-111.362373,44.921448],[-111.362194,44.921215],[-111.36147,44.920893],[-111.361444,44.920839],[-111.361456,44.920749],[-111.361885,44.920388],[-111.361959,44.920216],[-111.36192,44.920054],[-111.361741,44.919749],[-111.361702,44.919596],[-111.361789,44.919308],[-111.361788,44.919128],[-111.361558,44.918741],[-111.361467,44.918489],[-111.361492,44.918363],[-111.361681,44.918165],[-111.362057,44.917569],[-111.362258,44.917344],[-111.362356,44.916695],[-111.362656,44.916208],[-111.362643,44.916109],[-111.362363,44.915876],[-111.362261,44.915705],[-111.362221,44.915453],[-111.362029,44.915121],[-111.361875,44.914752],[-111.361961,44.914374],[-111.361931,44.913708],[-111.361968,44.913546],[-111.362258,44.913266],[-111.363432,44.912641],[-111.36352,44.91256],[-111.363583,44.912397],[-111.363557,44.91228],[-111.363442,44.912137],[-111.363351,44.911885],[-111.363389,44.911759],[-111.363995,44.911415],[-111.364158,44.91127],[-111.364334,44.911045],[-111.364371,44.910846],[-111.364306,44.910496],[-111.364277,44.91001],[-111.3644,44.909451],[-111.364362,44.909325],[-111.364234,44.909154],[-111.364182,44.909028],[-111.364244,44.908812],[-111.365115,44.908224],[-111.365555,44.907827],[-111.365732,44.907745],[-111.366024,44.907735],[-111.366265,44.907798],[-111.366455,44.907797],[-111.366682,44.907697],[-111.367122,44.907219],[-111.367249,44.907137],[-111.367325,44.907137],[-111.367642,44.907244],[-111.367882,44.907225],[-111.368718,44.907061],[-111.369008,44.906934],[-111.369134,44.906825],[-111.369296,44.906455],[-111.369344,44.905996],[-111.369493,44.905474],[-111.369592,44.905194],[-111.369693,44.905086],[-111.373528,44.90258],[-111.373603,44.902462],[-111.37369,44.902192],[-111.374216,44.90129],[-111.374278,44.901074],[-111.374362,44.900371],[-111.374448,44.900038],[-111.374434,44.899768],[-111.374546,44.899498],[-111.375821,44.897166],[-111.376036,44.896882],[-111.376124,44.896684],[-111.376237,44.89653],[-111.376664,44.89607],[-111.376752,44.895916],[-111.37685,44.895358],[-111.376937,44.895187],[-111.376998,44.89479],[-111.377285,44.89415],[-111.377284,44.893934],[-111.377231,44.893655],[-111.377242,44.89343],[-111.377353,44.892899],[-111.377528,44.892502],[-111.377791,44.892105],[-111.378005,44.891861],[-111.378433,44.891491],[-111.379023,44.890697],[-111.379098,44.890507],[-111.379107,44.890021],[-111.379546,44.889354],[-111.379735,44.889182],[-111.38,44.889037],[-111.380189,44.888982],[-111.380531,44.888909],[-111.381151,44.888835],[-111.381721,44.888815],[-111.382037,44.88876],[-111.382289,44.888669],[-111.382856,44.888109],[-111.383145,44.887883],[-111.384179,44.887223],[-111.384671,44.886933],[-111.385429,44.88657],[-111.38577,44.886434],[-111.386048,44.886397],[-111.386136,44.886289],[-111.386198,44.886072],[-111.386456,44.884964],[-111.386807,44.884432],[-111.386917,44.883792],[-111.387042,44.883585],[-111.387269,44.88344],[-111.387573,44.883367],[-111.388599,44.883436],[-111.389269,44.883388],[-111.390281,44.883223],[-111.391003,44.883157],[-111.392065,44.882992],[-111.392659,44.882819],[-111.393241,44.882753],[-111.394038,44.882607],[-111.39443,44.882488],[-111.396589,44.881662],[-111.397614,44.881541],[-111.398398,44.881376],[-111.398803,44.88133],[-111.399156,44.881212],[-111.399699,44.880895],[-111.399951,44.880705],[-111.400076,44.880551],[-111.400249,44.879911],[-111.400393,44.878786],[-111.400379,44.878579],[-111.400466,44.878344],[-111.400792,44.87792],[-111.400993,44.877721],[-111.401599,44.877332],[-111.40209,44.876952],[-111.402202,44.876781],[-111.402389,44.876258],[-111.402702,44.875726],[-111.403013,44.874924],[-111.403764,44.873804],[-111.403864,44.873588],[-111.40429,44.872929],[-111.404491,44.872758],[-111.404681,44.872721],[-111.404959,44.87272],[-111.405732,44.872753],[-111.40644,44.87258],[-111.407085,44.872478],[-111.408818,44.87231],[-111.409628,44.872316],[-111.410122,44.872287],[-111.410728,44.87215],[-111.411574,44.871823],[-111.41223,44.87147],[-111.412619,44.871027],[-111.413047,44.870702],[-111.413489,44.870502],[-111.414396,44.869877],[-111.41528,44.869532],[-111.415985,44.869016],[-111.416237,44.868881],[-111.416755,44.868654],[-111.41707,44.868562],[-111.417488,44.868552],[-111.418134,44.868667],[-111.419277,44.869049],[-111.419493,44.869157],[-111.419989,44.869542],[-111.420636,44.869765],[-111.421144,44.86988],[-111.421322,44.869996],[-111.421693,44.870526],[-111.421845,44.870606],[-111.422061,44.870642],[-111.422984,44.87053],[-111.423376,44.870529],[-111.423655,44.870555],[-111.424478,44.870543],[-111.424922,44.87064],[-111.425656,44.870646],[-111.427439,44.870415],[-111.428578,44.870329],[-111.428869,44.870337],[-111.429097,44.87039],[-111.429657,44.870694],[-111.430164,44.870845],[-111.430608,44.870925],[-111.431748,44.87101],[-111.431938,44.871073],[-111.432104,44.871171],[-111.432699,44.871268],[-111.433776,44.871372],[-111.434371,44.871343],[-111.435674,44.871185],[-111.436925,44.870919],[-111.437407,44.870998],[-111.437838,44.871131],[-111.438323,44.871607],[-111.438665,44.871596],[-111.438931,44.871631],[-111.440366,44.872202],[-111.441648,44.872665],[-111.442716,44.873237],[-111.442906,44.873308],[-111.443477,44.873432],[-111.444276,44.873681],[-111.4458,44.874224],[-111.446155,44.874313],[-111.446738,44.874383],[-111.447295,44.874353],[-111.448511,44.874412],[-111.44941,44.874543],[-111.450817,44.874628],[-111.451121,44.874681],[-111.451349,44.874788],[-111.45168,44.875002],[-111.451987,44.875298],[-111.452228,44.875414],[-111.452786,44.875592],[-111.453156,44.875879],[-111.453667,44.876516],[-111.454234,44.877729],[-111.454336,44.877891],[-111.454489,44.878016],[-111.454565,44.8779],[-111.45459,44.877727],[-111.454663,44.877538],[-111.455391,44.876734],[-111.45602,44.876236],[-111.456333,44.875794],[-111.456609,44.875523],[-111.456769,44.874919],[-111.457132,44.874324],[-111.45727,44.874215],[-111.458052,44.873879],[-111.458405,44.87367],[-111.458403,44.873454],[-111.458059,44.873159],[-111.457701,44.872611],[-111.45728,44.87227],[-111.456582,44.87041],[-111.455969,44.869845],[-111.455611,44.869333],[-111.455559,44.869189],[-111.455683,44.868775],[-111.455679,44.868334],[-111.456056,44.867927],[-111.45638,44.86735],[-111.456531,44.867187],[-111.457388,44.866707],[-111.458445,44.865946],[-111.459844,44.865166],[-111.460677,44.864812],[-111.461851,44.864456],[-111.462166,44.864302],[-111.461353,44.8639],[-111.460465,44.863606],[-111.460082,44.863239],[-111.459206,44.862954],[-111.458343,44.862589],[-111.457911,44.862473],[-111.456987,44.862405],[-111.456,44.862418],[-111.455253,44.862484],[-111.455101,44.86244],[-111.455024,44.862323],[-111.455085,44.862035],[-111.454996,44.861909],[-111.45413,44.861327],[-111.454002,44.861139],[-111.453417,44.859097],[-111.453096,44.858604],[-111.4527,44.858128],[-111.451719,44.857286],[-111.451173,44.857072],[-111.450704,44.856948],[-111.450525,44.856795],[-111.450397,44.856499],[-111.450256,44.856337],[-111.449633,44.856006],[-111.449135,44.855369],[-111.448969,44.855253],[-111.448373,44.855048],[-111.447549,44.854898],[-111.447308,44.854791],[-111.446149,44.853905],[-111.446161,44.853779],[-111.4464,44.853625],[-111.446639,44.853372],[-111.446801,44.853047],[-111.447081,44.851686],[-111.447014,44.851101],[-111.447098,44.850552],[-111.447496,44.849704],[-111.447822,44.849316],[-111.447809,44.849181],[-111.447565,44.848795],[-111.447323,44.848562],[-111.446904,44.848437],[-111.44684,44.848338],[-111.446977,44.848059],[-111.447,44.847735],[-111.446718,44.847187],[-111.446373,44.846819],[-111.445979,44.846577],[-111.445573,44.846417],[-111.445001,44.84605],[-111.444858,44.845565],[-111.444918,44.845177],[-111.445255,44.844591],[-111.445328,44.844185],[-111.445158,44.843547],[-111.44458,44.84237],[-111.444628,44.842063],[-111.444716,44.841919],[-111.445734,44.841024],[-111.446148,44.840554],[-111.446483,44.839707],[-111.447398,44.838596],[-111.447813,44.838342],[-111.448229,44.838169],[-111.449467,44.837885],[-111.449908,44.837641],[-111.450888,44.836682],[-111.451564,44.835806],[-111.452042,44.835381],[-111.453827,44.833997],[-111.454268,44.833716],[-111.45515,44.83329],[-111.456044,44.832773],[-111.456535,44.832411],[-111.457045,44.83192],[-111.477423,44.831949],[-111.477403,44.846454],[-111.487598,44.846466],[-111.48759,44.853719],[-111.497788,44.853726],[-111.497792,44.85735],[-111.507992,44.857361],[-111.508004,44.86824],[-111.517513,44.868253],[-111.517506,44.897231],[-111.517941,44.897231],[-111.518022,44.897587],[-111.518055,44.898478],[-111.51811,44.898946],[-111.518416,44.899151],[-111.51881,44.899293],[-111.51952,44.899389],[-111.52102,44.899995],[-111.522292,44.900601],[-111.523641,44.901369],[-111.524338,44.901411],[-111.52544,44.901379],[-111.526806,44.901201],[-111.527326,44.901208],[-111.527669,44.901323],[-111.528407,44.901707],[-111.529094,44.902001],[-111.529869,44.902295],[-111.530922,44.902524],[-111.531683,44.902592],[-111.532687,44.902975],[-111.533232,44.903008],[-111.533842,44.903176],[-111.534427,44.903408],[-111.534817,44.904567],[-111.535239,44.904997],[-111.536357,44.905343],[-111.53701,44.905469],[-111.537016,44.911818],[-111.535432,44.911817],[-111.535402,44.926501],[-111.535281,44.941026],[-111.535323,44.955745],[-111.535272,44.970237],[-111.55582,44.970252],[-111.55574,44.984784],[-111.535213,44.984816],[-111.535178,44.999583],[-111.535487,44.999583],[-111.535462,45.057458],[-111.555855,45.057451],[-111.555889,45.07193],[-111.555783,45.086734],[-111.555793,45.1012],[-111.555736,45.10843],[-111.555806,45.115682],[-111.555788,45.150593],[-111.553294,45.150685],[-111.552203,45.150987],[-111.551498,45.151738],[-111.551458,45.152872],[-111.551851,45.154068],[-111.551581,45.1564],[-111.552276,45.157234],[-111.554202,45.157684],[-111.555809,45.159202],[-111.555883,45.159202],[-111.555878,45.160046],[-111.557115,45.16263],[-111.556611,45.169536],[-111.558653,45.172447],[-111.558796,45.172792],[-111.558798,45.173596],[-111.559287,45.174099],[-111.564823,45.174103],[-111.565641,45.17738],[-111.567603,45.178373],[-111.568627,45.179394],[-111.569688,45.179854],[-111.574069,45.180738],[-111.574717,45.181403],[-111.574718,45.181357],[-111.575635,45.181359],[-111.596176,45.181436],[-111.596176,45.181483],[-111.596292,45.181483],[-111.596291,45.181542],[-111.586061,45.181481],[-111.586062,45.181445],[-111.575636,45.181405],[-111.575636,45.181506],[-111.574722,45.181507],[-111.575026,45.185928],[-111.575683,45.18593],[-111.575672,45.188652],[-111.586008,45.188688],[-111.586188,45.203205],[-111.616911,45.203281],[-111.616912,45.203446],[-111.596345,45.2034],[-111.596158,45.2179],[-111.596122,45.217979],[-111.596121,45.218277],[-111.596156,45.218199],[-111.596138,45.222295],[-111.596103,45.222295],[-111.595998,45.232242],[-111.596664,45.232242],[-111.596487,45.261739]]]}},{"id":"6","type":"Feature","properties":{"leisure":"nature_reserve","sport":null,"base_elevation":966},"geometry":{"type":"Polygon","coordinates":[[[-111.372607,45.086604],[-111.372607,45.093845],[-111.362406,45.093864],[-111.362406,45.086624],[-111.372607,45.086604]]]}},{"id":"7","type":"Feature","properties":{"leisure":"nature_reserve","sport":null,"base_elevation":1105},"geometry":{"type":"Polygon","coordinates":[[[-111.311203,45.101066],[-111.311203,45.086574],[-111.331704,45.086593],[-111.331704,45.097465],[-111.331605,45.101093],[-111.311203,45.101066]]]}},{"id":"8","type":"Feature","properties":{"leisure":"nature_reserve","sport":null,"base_elevation":439},"geometry":{"type":"Polygon","coordinates":[[[-111.24745,45.16285],[-111.245508,45.163757],[-111.245027,45.164106],[-111.244676,45.164421],[-111.244475,45.164686],[-111.243479,45.16545],[-111.243154,45.165623],[-111.242791,45.165904],[-111.242462,45.166087],[-111.242223,45.166292],[-111.24196,45.166592],[-111.24156,45.167175],[-111.241638,45.164608],[-111.242901,45.164601],[-111.243026,45.159197],[-111.248002,45.15912],[-111.247976,45.162505],[-111.24745,45.16285]]]}},{"id":"9","type":"Feature","properties":{"leisure":"nature_reserve","sport":null,"base_elevation":390},"geometry":{"type":"Polygon","coordinates":[[[-111.209653,45.232001],[-111.209751,45.217491],[-111.230247,45.217314],[-111.23017,45.231797],[-111.209653,45.232001]]]}},{"id":"10","type":"Feature","properties":{"leisure":"nature_reserve","sport":null,"base_elevation":363},"geometry":{"type":"Polygon","coordinates":[[[-111.247696,45.246572],[-111.248032,45.247054],[-111.248538,45.247529],[-111.248604,45.247632],[-111.249086,45.248058],[-111.249289,45.248329],[-111.249933,45.248944],[-111.250059,45.249425],[-111.249993,45.249965],[-111.250818,45.24996],[-111.250848,45.256646],[-111.254045,45.256657],[-111.254047,45.256821],[-111.250849,45.256811],[-111.250851,45.257202],[-111.245739,45.257236],[-111.245722,45.251804],[-111.243169,45.251821],[-111.243165,45.250011],[-111.240613,45.250027],[-111.240612,45.249122],[-111.239336,45.24913],[-111.239335,45.248225],[-111.23806,45.248233],[-111.238057,45.246423],[-111.23041,45.246473],[-111.23017,45.231797],[-111.240453,45.23177],[-111.240456,45.224524],[-111.24558,45.224509],[-111.245588,45.228133],[-111.25072,45.228118],[-111.250802,45.246339],[-111.247631,45.24636],[-111.247696,45.246572]]]}},{"id":"11","type":"Feature","properties":{"leisure":"nature_reserve","sport":null,"base_elevation":630},"geometry":{"type":"Polygon","coordinates":[[[-111.561434,45.436355],[-111.559813,45.43666],[-111.559545,45.43667],[-111.558854,45.436619],[-111.558611,45.436575],[-111.558185,45.436236],[-111.557351,45.435943],[-111.557079,45.435503],[-111.556821,45.435351],[-111.556526,45.435244],[-111.555997,45.434698],[-111.555889,45.434381],[-111.555581,45.433998],[-111.555424,45.433602],[-111.555193,45.433532],[-111.555038,45.433439],[-111.55502,45.432902],[-111.554889,45.432561],[-111.555012,45.432047],[-111.554946,45.431859],[-111.55438,45.431492],[-111.553995,45.431296],[-111.553547,45.43128],[-111.553062,45.431346],[-111.552513,45.431456],[-111.551405,45.431822],[-111.550728,45.431969],[-111.550307,45.432025],[-111.549859,45.431982],[-111.54955,45.431723],[-111.549153,45.43168],[-111.549126,45.431536],[-111.549185,45.431013],[-111.549106,45.430771],[-111.548899,45.430565],[-111.54872,45.430566],[-111.548415,45.430675],[-111.547698,45.43066],[-111.547352,45.430563],[-111.547223,45.430402],[-111.547107,45.430348],[-111.546839,45.43034],[-111.545716,45.430526],[-111.545319,45.430483],[-111.544921,45.430296],[-111.544329,45.429911],[-111.543933,45.429949],[-111.542595,45.430406],[-111.542059,45.430489],[-111.541639,45.430698],[-111.54146,45.430708],[-111.541191,45.43061],[-111.540445,45.430101],[-111.540124,45.429985],[-111.539624,45.429889],[-111.539049,45.429882],[-111.53873,45.429947],[-111.538374,45.430156],[-111.538095,45.430364],[-111.537814,45.430419],[-111.537647,45.430321],[-111.537181,45.429711],[-111.536935,45.429442],[-111.536112,45.428888],[-111.53574,45.428773],[-111.535382,45.428729],[-111.534683,45.428715],[-111.53467,45.437208],[-111.536432,45.437208],[-111.536383,45.438824],[-111.515432,45.438828],[-111.515428,45.427036],[-111.515042,45.427275],[-111.514315,45.427422],[-111.513173,45.428327],[-111.512805,45.428689],[-111.512373,45.428943],[-111.51199,45.429062],[-111.511287,45.429074],[-111.510891,45.429012],[-111.510432,45.429204],[-111.510153,45.429412],[-111.50958,45.429685],[-111.5081,45.430015],[-111.506889,45.430416],[-111.506544,45.430463],[-111.506071,45.430393],[-111.505534,45.430414],[-111.504357,45.430347],[-111.503884,45.430268],[-111.502796,45.430156],[-111.50245,45.430049],[-111.501694,45.429917],[-111.500364,45.429842],[-111.499583,45.42972],[-111.499123,45.429704],[-111.498714,45.429732],[-111.498332,45.429851],[-111.497669,45.430133],[-111.497122,45.430459],[-111.496791,45.430569],[-111.495106,45.430864],[-111.494494,45.431038],[-111.492506,45.431803],[-111.492163,45.432029],[-111.49136,45.432303],[-111.490188,45.432803],[-111.489474,45.433049],[-111.489155,45.433104],[-111.488516,45.433116],[-111.485503,45.433579],[-111.482835,45.434058],[-111.482477,45.43406],[-111.481669,45.433802],[-111.480734,45.433554],[-111.479312,45.433218],[-111.474251,45.431907],[-111.473687,45.431792],[-111.472508,45.431455],[-111.463681,45.429178],[-111.462494,45.429417],[-111.460696,45.429973],[-111.46016,45.430029],[-111.459226,45.430015],[-111.45883,45.430052],[-111.458142,45.430253],[-111.457901,45.430551],[-111.456479,45.43179],[-111.454989,45.432471],[-111.454264,45.432888],[-111.453629,45.433413],[-111.453085,45.434144],[-111.452056,45.434958],[-111.451941,45.434967],[-111.451595,45.434897],[-111.448664,45.433936],[-111.448664,45.433869],[-111.448461,45.43387],[-111.447801,45.433715],[-111.446609,45.433386],[-111.445095,45.4326],[-111.444415,45.432378],[-111.442968,45.431987],[-111.442096,45.431649],[-111.440726,45.431474],[-111.439512,45.431451],[-111.43923,45.431407],[-111.437794,45.430927],[-111.437294,45.430722],[-111.435027,45.430118],[-111.433898,45.429583],[-111.433204,45.429144],[-111.432471,45.428535],[-111.432097,45.428176],[-111.430851,45.427371],[-111.42867,45.426353],[-111.426992,45.425927],[-111.426057,45.425606],[-111.425813,45.425481],[-111.42526,45.425087],[-111.424652,45.424063],[-111.424485,45.42392],[-111.424228,45.423804],[-111.42387,45.423706],[-111.422808,45.423656],[-111.421812,45.423705],[-111.421326,45.423689],[-111.420482,45.423638],[-111.419343,45.423498],[-111.418883,45.423473],[-111.4162,45.423734],[-111.41592,45.423862],[-111.41564,45.424061],[-111.414777,45.424865],[-111.414549,45.425127],[-111.414106,45.425812],[-111.413892,45.426209],[-111.413565,45.42703],[-111.412875,45.428841],[-111.412778,45.429535],[-111.41263,45.430273],[-111.41253,45.430589],[-111.412417,45.430787],[-111.411985,45.431158],[-111.411705,45.43133],[-111.411348,45.431457],[-111.409279,45.431825],[-111.408833,45.431925],[-111.408424,45.432071],[-111.40724,45.432651],[-111.40668,45.433031],[-111.406133,45.433492],[-111.405433,45.433837],[-111.404464,45.434272],[-111.403329,45.434681],[-111.399719,45.43581],[-111.399069,45.436118],[-111.398573,45.436543],[-111.3979,45.437202],[-111.397301,45.437466],[-111.395131,45.437986],[-111.394813,45.438131],[-111.394571,45.438285],[-111.394066,45.438778],[-111.35122,45.438725],[-111.340049,45.442097],[-111.339908,45.442115],[-111.339408,45.441811],[-111.339088,45.441721],[-111.338282,45.441751],[-111.337835,45.441797],[-111.336915,45.441971],[-111.335537,45.442344],[-111.334974,45.442418],[-111.334309,45.442285],[-111.333681,45.442043],[-111.333335,45.441945],[-111.332772,45.441857],[-111.332081,45.441823],[-111.332004,45.441787],[-111.331927,45.441697],[-111.331861,45.441356],[-111.331909,45.440896],[-111.331869,45.4405],[-111.331543,45.439466],[-111.33144,45.439287],[-111.331208,45.438999],[-111.328424,45.437387],[-111.324166,45.435068],[-111.323372,45.434926],[-111.322066,45.434498],[-111.321682,45.434409],[-111.314732,45.433141],[-111.313273,45.432767],[-111.312812,45.432705],[-111.311916,45.432519],[-111.311635,45.432447],[-111.311058,45.432206],[-111.31011,45.431875],[-111.308996,45.431581],[-111.308227,45.431241],[-111.305219,45.430565],[-111.305027,45.430503],[-111.304412,45.43018],[-111.303809,45.429732],[-111.303269,45.42922],[-111.302998,45.428825],[-111.302957,45.428303],[-111.302995,45.42815],[-111.302982,45.428042],[-111.30293,45.427952],[-111.302544,45.427611],[-111.301839,45.427127],[-111.30153,45.426767],[-111.301362,45.426462],[-111.301141,45.425796],[-111.301115,45.425598],[-111.301164,45.42522],[-111.301302,45.424671],[-111.301365,45.424464],[-111.301529,45.424139],[-111.301591,45.423869],[-111.30154,45.423824],[-111.299635,45.423712],[-111.296796,45.423476],[-111.288817,45.422948],[-111.288417,45.422947],[-111.288417,45.422999],[-111.267374,45.423],[-111.257806,45.415899],[-111.257806,45.415759],[-111.257617,45.415759],[-111.247862,45.408518],[-111.235559,45.408508],[-111.228687,45.403596],[-111.21622,45.394754],[-111.185852,45.373057],[-111.185863,45.365474],[-111.18633,45.365282],[-111.186572,45.365039],[-111.186826,45.364642],[-111.186824,45.364138],[-111.18676,45.363976],[-111.186759,45.363643],[-111.186629,45.362959],[-111.186602,45.362599],[-111.186742,45.362338],[-111.187072,45.361896],[-111.187251,45.361752],[-111.187619,45.361346],[-111.18832,45.360679],[-111.188599,45.360265],[-111.189095,45.359679],[-111.189541,45.359282],[-111.190739,45.358767],[-111.19144,45.358297],[-111.191695,45.358198],[-111.192537,45.357936],[-111.194374,45.357653],[-111.195267,45.357454],[-111.195764,45.357219],[-111.196157,45.356968],[-111.196179,45.350604],[-111.188344,45.350605],[-111.188636,45.340682],[-111.188586,45.33357],[-111.18868,45.326322],[-111.188647,45.319086],[-111.209394,45.304674],[-111.215453,45.300069],[-111.215899,45.300086],[-111.216869,45.300039],[-111.217837,45.299786],[-111.217862,45.299678],[-111.217976,45.299497],[-111.218167,45.299398],[-111.218345,45.299362],[-111.21888,45.299163],[-111.219441,45.299062],[-111.219696,45.298963],[-111.219963,45.298791],[-111.220498,45.298592],[-111.220662,45.298088],[-111.220738,45.29798],[-111.221222,45.297871],[-111.221756,45.297483],[-111.221986,45.297401],[-111.221998,45.297158],[-111.222073,45.296987],[-111.222519,45.296716],[-111.222671,45.296563],[-111.222734,45.296355],[-111.222683,45.296239],[-111.222375,45.295861],[-111.222234,45.295789],[-111.222158,45.295682],[-111.222093,45.295529],[-111.222106,45.295448],[-111.222284,45.295276],[-111.223099,45.294969],[-111.223276,45.294671],[-111.223467,45.294527],[-111.22381,45.294364],[-111.223836,45.294292],[-111.223682,45.294067],[-111.223604,45.293869],[-111.223591,45.293671],[-111.223692,45.293446],[-111.223895,45.293266],[-111.224379,45.293031],[-111.224811,45.292697],[-111.225072,45.292603],[-111.225092,45.286468],[-111.23026,45.286494],[-111.230268,45.282824],[-111.25089,45.282677],[-111.271435,45.282687],[-111.291057,45.282575],[-111.291038,45.289823],[-111.301319,45.289816],[-111.301255,45.297058],[-111.321741,45.297067],[-111.321715,45.30069],[-111.331923,45.300695],[-111.331894,45.318817],[-111.352524,45.318818],[-111.352759,45.333512],[-111.373029,45.333567],[-111.372979,45.340792],[-111.401494,45.340877],[-111.401656,45.341046],[-111.402015,45.341215],[-111.40213,45.341323],[-111.402338,45.341754],[-111.402441,45.341853],[-111.403581,45.342515],[-111.403774,45.342686],[-111.403955,45.342955],[-111.404059,45.34327],[-111.40401,45.343558],[-111.404233,45.344457],[-111.404094,45.344647],[-111.404057,45.344818],[-111.404109,45.34498],[-111.404289,45.345024],[-111.404533,45.345293],[-111.405243,45.346371],[-111.405853,45.347863],[-111.406092,45.349149],[-111.405892,45.349735],[-111.405945,45.350517],[-111.45369,45.350524],[-111.45367,45.357756],[-111.474256,45.357778],[-111.474275,45.365018],[-111.494722,45.365031],[-111.494747,45.379518],[-111.51532,45.379489],[-111.515323,45.386735],[-111.534864,45.38673],[-111.534864,45.386198],[-111.547308,45.386218],[-111.547837,45.386787],[-111.548762,45.387377],[-111.54916,45.387537],[-111.549303,45.387788],[-111.549434,45.388139],[-111.54986,45.388569],[-111.550193,45.388684],[-111.551178,45.388787],[-111.55201,45.388936],[-111.552894,45.389193],[-111.553176,45.389309],[-111.554358,45.39005],[-111.555308,45.39055],[-111.556131,45.391086],[-111.556337,45.391184],[-111.556963,45.391235],[-111.557143,45.391288],[-111.557271,45.391395],[-111.557311,45.391539],[-111.557265,45.392025],[-111.557458,45.392186],[-111.558074,45.392499],[-111.558255,45.392723],[-111.558577,45.392937],[-111.558871,45.392945],[-111.559216,45.393006],[-111.559589,45.393193],[-111.559987,45.393461],[-111.560309,45.393721],[-111.560529,45.393981],[-111.560929,45.394366],[-111.561264,45.394652],[-111.561611,45.394875],[-111.562181,45.395647],[-111.562736,45.396238],[-111.56409,45.397447],[-111.564437,45.397679],[-111.564886,45.397812],[-111.567074,45.398134],[-111.567882,45.398445],[-111.56846,45.398766],[-111.569389,45.399644],[-111.570366,45.400287],[-111.570826,45.40033],[-111.571725,45.400712],[-111.571981,45.400774],[-111.57331,45.400812],[-111.574139,45.400601],[-111.57497,45.400642],[-111.575954,45.400637],[-111.575922,45.407991],[-111.575932,45.42045],[-111.575798,45.420576],[-111.575481,45.420785],[-111.575175,45.420921],[-111.574308,45.421096],[-111.573468,45.421443],[-111.573213,45.421579],[-111.572322,45.421917],[-111.571184,45.421886],[-111.570789,45.421987],[-111.570038,45.422279],[-111.569208,45.422364],[-111.568491,45.422323],[-111.56788,45.422515],[-111.566023,45.423433],[-111.564902,45.423871],[-111.563921,45.424191],[-111.563513,45.424283],[-111.563437,45.424328],[-111.563388,45.42458],[-111.563288,45.424788],[-111.562921,45.425123],[-111.562286,45.42554],[-111.562134,45.42573],[-111.562072,45.425928],[-111.5621,45.426117],[-111.561987,45.426351],[-111.561988,45.426504],[-111.562105,45.42663],[-111.562414,45.426862],[-111.562847,45.428048],[-111.563311,45.428433],[-111.563569,45.428594],[-111.563928,45.4287],[-111.563957,45.429024],[-111.564023,45.429312],[-111.563886,45.42969],[-111.563967,45.43005],[-111.563944,45.43032],[-111.563783,45.430834],[-111.563798,45.431104],[-111.563865,45.431419],[-111.563869,45.431752],[-111.563821,45.432058],[-111.563835,45.432238],[-111.563739,45.432896],[-111.563844,45.433129],[-111.563912,45.43357],[-111.564145,45.433848],[-111.564325,45.433964],[-111.564596,45.434206],[-111.564729,45.434655],[-111.564667,45.434871],[-111.564387,45.435026],[-111.564094,45.43509],[-111.563303,45.435184],[-111.562933,45.435294],[-111.562018,45.435911],[-111.561714,45.436182],[-111.561434,45.436355]]]}},{"id":"12","type":"Feature","properties":{"leisure":"nature_reserve","sport":null,"base_elevation":175},"geometry":{"type":"Polygon","coordinates":[[[-111.620188,45.473958],[-111.620242,45.473695],[-111.62032,45.473574],[-111.620507,45.473514],[-111.621069,45.47342],[-111.621318,45.473299],[-111.621513,45.473096],[-111.622128,45.472196],[-111.622222,45.472015],[-111.622253,45.471707],[-111.622408,45.47146],[-111.622463,45.471246],[-111.622649,45.471087],[-111.622805,45.470857],[-111.623507,45.470527],[-111.623756,45.470104],[-111.623912,45.470016],[-111.624465,45.469824],[-111.624621,45.469725],[-111.625182,45.469237],[-111.626007,45.468754],[-111.626358,45.468436],[-111.626514,45.468233],[-111.626927,45.468409],[-111.627629,45.468519],[-111.628315,45.468585],[-111.629173,45.468542],[-111.630047,45.468317],[-111.631061,45.468263],[-111.63149,45.468165],[-111.632137,45.468104],[-111.632628,45.468105],[-111.633424,45.468187],[-111.634086,45.46821],[-111.634539,45.468308],[-111.634796,45.468385],[-111.634952,45.468468],[-111.635248,45.46866],[-111.635856,45.469165],[-111.635973,45.46922],[-111.636168,45.46922],[-111.636417,45.469083],[-111.636597,45.469039],[-111.637212,45.469012],[-111.637177,45.469178],[-111.636693,45.469617],[-111.636459,45.46994],[-111.635967,45.470839],[-111.635888,45.471053],[-111.635881,45.471163],[-111.635748,45.471492],[-111.635748,45.471717],[-111.635849,45.471942],[-111.63588,45.472178],[-111.635872,45.472293],[-111.635723,45.472628],[-111.635754,45.472853],[-111.635723,45.473077],[-111.635512,45.473642],[-111.635192,45.474224],[-111.634872,45.474575],[-111.634825,45.474684],[-111.634715,45.474799],[-111.633358,45.475907],[-111.633171,45.476126],[-111.633045,45.47634],[-111.63303,45.47645],[-111.632866,45.476669],[-111.632718,45.476779],[-111.632086,45.477075],[-111.631555,45.47753],[-111.630892,45.477858],[-111.630744,45.477968],[-111.630673,45.478083],[-111.630362,45.478187],[-111.630205,45.47828],[-111.629363,45.47896],[-111.629183,45.479196],[-111.62905,45.479525],[-111.62894,45.479975],[-111.628573,45.48055],[-111.62844,45.480891],[-111.62844,45.481],[-111.628526,45.48134],[-111.628868,45.482026],[-111.628977,45.482147],[-111.629008,45.482257],[-111.628876,45.482476],[-111.628836,45.482811],[-111.629007,45.483261],[-111.629202,45.483612],[-111.62942,45.483831],[-111.629739,45.483996],[-111.629989,45.484215],[-111.630137,45.48466],[-111.630214,45.484781],[-111.630339,45.48489],[-111.630659,45.485066],[-111.631079,45.48539],[-111.631539,45.485675],[-111.631765,45.4859],[-111.632209,45.486466],[-111.632629,45.48725],[-111.632808,45.487706],[-111.632777,45.48793],[-111.63266,45.488166],[-111.632932,45.48832],[-111.63397,45.488414],[-111.636729,45.49],[-111.641423,45.49054],[-111.644636,45.490969],[-111.644967,45.491469],[-111.644985,45.495084],[-111.639823,45.495084],[-111.639886,45.502333],[-111.634715,45.502333],[-111.634769,45.509573],[-111.629598,45.509564],[-111.629562,45.524456],[-111.624364,45.524429],[-111.62431,45.528117],[-111.614022,45.52809],[-111.613986,45.53175],[-111.603734,45.531705],[-111.603707,45.535392],[-111.59858,45.535365],[-111.598472,45.553684],[-111.603626,45.553702],[-111.603581,45.568262],[-111.598427,45.568244],[-111.598355,45.580833],[-111.598085,45.580838],[-111.598136,45.58069],[-111.598121,45.580404],[-111.5978,45.579686],[-111.59762,45.579373],[-111.597346,45.579121],[-111.597018,45.578709],[-111.596932,45.578353],[-111.596971,45.578182],[-111.596955,45.577957],[-111.596814,45.577475],[-111.596399,45.576745],[-111.596212,45.576504],[-111.595907,45.576246],[-111.595549,45.575864],[-111.593405,45.575798],[-111.593577,45.575886],[-111.593734,45.576111],[-111.593796,45.576226],[-111.593828,45.576446],[-111.593789,45.576665],[-111.59414,45.576999],[-111.594312,45.577334],[-111.594375,45.577559],[-111.594305,45.577894],[-111.594258,45.578354],[-111.594001,45.578914],[-111.593891,45.579029],[-111.593923,45.579364],[-111.593767,45.579605],[-111.593197,45.580269],[-111.592705,45.580724],[-111.592057,45.581114],[-111.591893,45.581169],[-111.591088,45.58129],[-111.591042,45.581405],[-111.590885,45.581493],[-111.590401,45.58163],[-111.58944,45.581636],[-111.58894,45.581532],[-111.588143,45.581225],[-111.588072,45.581033],[-111.588058,45.575583],[-111.582887,45.575601],[-111.582896,45.568226],[-111.582986,45.560942],[-111.588121,45.560942],[-111.588229,45.546355],[-111.583094,45.546346],[-111.58313,45.535356],[-111.588283,45.535365],[-111.588328,45.524366],[-111.585794,45.524366],[-111.583541,45.514555],[-111.593459,45.511199],[-111.59344,45.502955],[-111.592343,45.502925],[-111.591176,45.502778],[-111.588801,45.502133],[-111.587439,45.501555],[-111.586282,45.501129],[-111.585217,45.500837],[-111.584666,45.500777],[-111.583181,45.500821],[-111.582682,45.500787],[-111.582014,45.500584],[-111.581667,45.500405],[-111.581473,45.500217],[-111.581432,45.500028],[-111.58166,45.499811],[-111.582056,45.499674],[-111.582241,45.499016],[-111.582469,45.498781],[-111.583016,45.498472],[-111.583206,45.498237],[-111.583783,45.497145],[-111.58387,45.496884],[-111.58388,45.496569],[-111.583748,45.4962],[-111.58301,45.495436],[-111.58292,45.495295],[-111.582919,45.495241],[-111.585242,45.493357],[-111.586385,45.492496],[-111.586804,45.492215],[-111.587235,45.491808],[-111.58833,45.491307],[-111.589187,45.491231],[-111.589827,45.491263],[-111.590468,45.49135],[-111.591046,45.491527],[-111.591941,45.491504],[-111.592275,45.491611],[-111.592621,45.491636],[-111.593018,45.491607],[-111.593262,45.491777],[-111.593762,45.491801],[-111.59464,45.491373],[-111.595405,45.491045],[-111.596222,45.490861],[-111.596476,45.49068],[-111.596627,45.490463],[-111.597034,45.4902],[-111.597237,45.489992],[-111.597413,45.48973],[-111.59768,45.489611],[-111.597898,45.489601],[-111.598282,45.489644],[-111.598717,45.48957],[-111.600231,45.488761],[-111.600381,45.488463],[-111.601452,45.486891],[-111.602988,45.484498],[-111.603405,45.483964],[-111.603607,45.483756],[-111.603861,45.483575],[-111.604485,45.483266],[-111.605253,45.483262],[-111.606889,45.483109],[-111.607489,45.482998],[-111.60832,45.482903],[-111.608717,45.482928],[-111.609202,45.482836],[-111.610567,45.482423],[-111.610976,45.482358],[-111.611666,45.482345],[-111.612585,45.482115],[-111.613631,45.481786],[-111.614488,45.481745],[-111.61487,45.48159],[-111.615598,45.481469],[-111.615929,45.48135],[-111.616474,45.48087],[-111.616703,45.480716],[-111.616882,45.480661],[-111.617112,45.480651],[-111.617369,45.48073],[-111.617779,45.480782],[-111.618328,45.480698],[-111.618518,45.480562],[-111.618721,45.480354],[-111.61918,45.480062],[-111.619132,45.474302],[-111.619323,45.474222],[-111.620134,45.474002],[-111.620188,45.473958]]]}},{"id":"13","type":"Feature","properties":{"leisure":"nature_reserve","sport":null,"base_elevation":458},"geometry":{"type":"Polygon","coordinates":[[[-111.099551,44.888951],[-111.100014,44.889537],[-111.10016,44.889833],[-111.100287,44.890166],[-111.100313,44.89058],[-111.100377,44.890922],[-111.100632,44.891534],[-111.100771,44.891714],[-111.101025,44.891867],[-111.101431,44.892181],[-111.101748,44.892361],[-111.102014,44.892469],[-111.102913,44.892639],[-111.103622,44.892711],[-111.10404,44.892692],[-111.104952,44.892727],[-111.105624,44.892862],[-111.105852,44.893006],[-111.106144,44.893248],[-111.106474,44.893608],[-111.107323,44.894148],[-111.108008,44.894642],[-111.108604,44.894921],[-111.108857,44.894992],[-111.10996,44.895504],[-111.110492,44.895594],[-111.110898,44.89572],[-111.112203,44.896276],[-111.112355,44.896366],[-111.113079,44.897329],[-111.113638,44.898165],[-111.113715,44.898579],[-111.113678,44.899156],[-111.113806,44.899849],[-111.113794,44.900128],[-111.113934,44.900776],[-111.114075,44.9011],[-111.114303,44.901388],[-111.115077,44.902134],[-111.115635,44.902512],[-111.116066,44.902709],[-111.116333,44.902889],[-111.117055,44.903203],[-111.117943,44.903697],[-111.120682,44.905072],[-111.121582,44.905611],[-111.121887,44.905719],[-111.122508,44.906033],[-111.122825,44.906258],[-111.122914,44.906393],[-111.123117,44.906519],[-111.123573,44.906581],[-111.124878,44.906454],[-111.125334,44.906525],[-111.12579,44.906723],[-111.126259,44.906704],[-111.127069,44.906523],[-111.127563,44.906496],[-111.128361,44.906576],[-111.129071,44.906584],[-111.130287,44.906808],[-111.132341,44.907328],[-111.132835,44.907489],[-111.133584,44.907848],[-111.134002,44.907983],[-111.134192,44.908],[-111.135522,44.907927],[-111.136231,44.907746],[-111.136497,44.907719],[-111.137522,44.90751],[-111.138054,44.907519],[-111.138587,44.907608],[-111.140096,44.908281],[-111.140781,44.908677],[-111.140857,44.908758],[-111.140833,44.909136],[-111.140985,44.909469],[-111.141125,44.909639],[-111.141367,44.909918],[-111.141646,44.910161],[-111.142496,44.910745],[-111.143371,44.911149],[-111.144677,44.911417],[-111.145551,44.911677],[-111.145856,44.911821],[-111.146084,44.911983],[-111.146618,44.912594],[-111.147075,44.912846],[-111.148178,44.913186],[-111.148533,44.913276],[-111.148888,44.91332],[-111.1498,44.913319],[-111.150851,44.913219],[-111.151535,44.913047],[-111.151927,44.91301],[-111.152511,44.913361],[-111.153247,44.913909],[-111.153869,44.914142],[-111.154705,44.91433],[-111.155352,44.914689],[-111.15657,44.915084],[-111.157609,44.915325],[-111.157837,44.915406],[-111.159283,44.915665],[-111.159764,44.915664],[-111.1606,44.915555],[-111.16155,44.915536],[-111.162564,44.915678],[-111.163134,44.915489],[-111.163476,44.915506],[-111.163831,44.915658],[-111.164822,44.916494],[-111.164986,44.916602],[-111.165887,44.917051],[-111.167269,44.917427],[-111.168436,44.917587],[-111.168968,44.917775],[-111.169463,44.918117],[-111.169946,44.918593],[-111.170517,44.918898],[-111.171253,44.919168],[-111.172254,44.919382],[-111.172913,44.91939],[-111.173344,44.919326],[-111.174396,44.919469],[-111.174992,44.919513],[-111.175916,44.919457],[-111.177183,44.919438],[-111.177753,44.919347],[-111.178057,44.919265],[-111.17912,44.918795],[-111.179968,44.918605],[-111.18055,44.918415],[-111.181474,44.917963],[-111.181676,44.9179],[-111.182867,44.917709],[-111.183829,44.9175],[-111.184854,44.917148],[-111.185246,44.916877],[-111.185372,44.916706],[-111.185637,44.916165],[-111.185724,44.915724],[-111.186216,44.914949],[-111.18681,44.914759],[-111.187152,44.914695],[-111.189661,44.914736],[-111.190092,44.914727],[-111.190826,44.914626],[-111.190889,44.914545],[-111.190914,44.914374],[-111.190899,44.913825],[-111.191899,44.913535],[-111.192633,44.913111],[-111.192721,44.913021],[-111.192873,44.912957],[-111.19305,44.912804],[-111.193265,44.912678],[-111.193467,44.912605],[-111.194024,44.912478],[-111.195025,44.912351],[-111.197243,44.912635],[-111.197534,44.912625],[-111.198572,44.912353],[-111.19904,44.9122],[-111.199635,44.912099],[-111.201091,44.911683],[-111.202066,44.91169],[-111.202737,44.911617],[-111.203105,44.911751],[-111.203575,44.911975],[-111.20379,44.912002],[-111.204208,44.911902],[-111.2046,44.911866],[-111.20512,44.911856],[-111.205386,44.911909],[-111.20602,44.912205],[-111.206338,44.912304],[-111.207225,44.912491],[-111.207948,44.912823],[-111.209445,44.913171],[-111.209876,44.913449],[-111.210295,44.913665],[-111.210524,44.913979],[-111.210919,44.914357],[-111.211148,44.914761],[-111.211593,44.915121],[-111.211669,44.915283],[-111.211898,44.915471],[-111.211987,44.915588],[-111.21214,44.915669],[-111.212482,44.915749],[-111.212672,44.915758],[-111.212862,44.915721],[-111.213608,44.91545],[-111.214292,44.915359],[-111.214951,44.915357],[-111.215661,44.915401],[-111.216548,44.91539],[-111.217257,44.915434],[-111.218435,44.915414],[-111.219221,44.915457],[-111.219982,44.915582],[-111.220413,44.915725],[-111.22087,44.916021],[-111.221137,44.91612],[-111.221796,44.916263],[-111.222786,44.916603],[-111.223876,44.916889],[-111.224498,44.917184],[-111.22545,44.917525],[-111.225844,44.917812],[-111.226085,44.917938],[-111.226973,44.918296],[-111.227303,44.918484],[-111.227558,44.918709],[-111.227851,44.919149],[-111.228029,44.919329],[-111.228118,44.919473],[-111.228907,44.920291],[-111.229148,44.920452],[-111.23005,44.920909],[-111.230431,44.921134],[-111.23085,44.921457],[-111.231091,44.921564],[-111.231624,44.921725],[-111.232309,44.921787],[-111.232815,44.92175],[-111.233132,44.921803],[-111.233919,44.922054],[-111.234844,44.922214],[-111.235085,44.922231],[-111.235757,44.922203],[-111.23672,44.922354],[-111.23747,44.922748],[-111.238091,44.922963],[-111.238307,44.923098],[-111.238765,44.923529],[-111.23902,44.92388],[-111.239617,44.924256],[-111.239923,44.924688],[-111.240254,44.925038],[-111.240381,44.925218],[-111.240523,44.925677],[-111.240688,44.925866],[-111.240931,44.926297],[-111.241059,44.926666],[-111.241976,44.927771],[-111.242257,44.928194],[-111.242384,44.92832],[-111.242969,44.928723],[-111.243197,44.928813],[-111.243603,44.928911],[-111.244326,44.929189],[-111.244746,44.929548],[-111.24547,44.929906],[-111.246043,44.9304],[-111.246132,44.930517],[-111.24626,44.930787],[-111.246718,44.931272],[-111.246974,44.931812],[-111.247318,44.932396],[-111.247613,44.933079],[-111.247892,44.933268],[-111.248464,44.933537],[-111.248528,44.933636],[-111.248554,44.933816],[-111.24863,44.933942],[-111.249114,44.934319],[-111.249458,44.934723],[-111.250603,44.935828],[-111.250629,44.936062],[-111.250592,44.936188],[-111.250605,44.936323],[-111.250797,44.936655],[-111.251052,44.936997],[-111.251358,44.937617],[-111.251832,44.938742],[-111.252179,44.939767],[-111.252372,44.940478],[-111.252261,44.941099],[-111.252265,44.941963],[-111.25233,44.942359],[-111.252407,44.942602],[-111.252446,44.942863],[-111.252434,44.943007],[-111.252335,44.943494],[-111.252311,44.943899],[-111.252086,44.944575],[-111.252063,44.945214],[-111.251925,44.945484],[-111.251926,44.945601],[-111.252044,44.946519],[-111.252173,44.947068],[-111.252214,44.947689],[-111.252265,44.947833],[-111.252444,44.948112],[-111.252457,44.948237],[-111.252307,44.948688],[-111.251791,44.949706],[-111.251843,44.949904],[-111.252073,44.950426],[-111.252457,44.951064],[-111.252611,44.951487],[-111.252663,44.951865],[-111.252651,44.952081],[-111.252564,44.952477],[-111.252528,44.9529],[-111.252656,44.953197],[-111.253192,44.954006],[-111.258697,44.963131],[-111.258457,44.963213],[-111.25809,44.963466],[-111.257738,44.964106],[-111.257437,44.964835],[-111.257375,44.965106],[-111.257352,44.96561],[-111.257265,44.965997],[-111.257329,44.966285],[-111.257423,44.967455],[-111.257412,44.967653],[-111.257287,44.968103],[-111.257199,44.968266],[-111.256984,44.9685],[-111.256911,44.969086],[-111.256861,44.969248],[-111.256533,44.969807],[-111.256496,44.969942],[-111.256549,44.9705],[-111.256056,44.97078],[-111.255955,44.97096],[-111.25593,44.971095],[-111.255944,44.971338],[-111.255996,44.971554],[-111.25568,44.971735],[-111.255566,44.971762],[-111.255312,44.971745],[-111.255211,44.971781],[-111.254857,44.972106],[-111.254515,44.972242],[-111.254047,44.972585],[-111.253617,44.972793],[-111.253264,44.973127],[-111.252784,44.97374],[-111.251824,44.974444],[-111.251457,44.974814],[-111.250396,44.975681],[-111.249903,44.976186],[-111.249195,44.976673],[-111.248804,44.977124],[-111.248551,44.977359],[-111.248058,44.977594],[-111.247868,44.977793],[-111.247261,44.978199],[-111.246491,44.979065],[-111.246302,44.979353],[-111.246113,44.979552],[-111.245708,44.979823],[-111.245506,44.980003],[-111.245342,44.980265],[-111.245217,44.980544],[-111.245154,44.980832],[-111.245194,44.981156],[-111.245296,44.981435],[-111.245437,44.981687],[-111.245502,44.981948],[-111.245616,44.982092],[-111.246124,44.982135],[-111.246391,44.982225],[-111.246493,44.982378],[-111.246468,44.982504],[-111.246254,44.982918],[-111.246066,44.98345],[-111.24594,44.983711],[-111.245802,44.983882],[-111.245144,44.984415],[-111.244664,44.984875],[-111.244083,44.985336],[-111.243842,44.985471],[-111.243044,44.985698],[-111.242867,44.985878],[-111.242741,44.986095],[-111.242692,44.986374],[-111.242731,44.98659],[-111.242988,44.987363],[-111.242963,44.987525],[-111.242874,44.987571],[-111.242684,44.987553],[-111.242468,44.987473],[-111.241567,44.987276],[-111.241211,44.987268],[-111.240882,44.987368],[-111.24073,44.987494],[-111.240706,44.987701],[-111.24077,44.987908],[-111.241025,44.988241],[-111.241229,44.988366],[-111.241953,44.988581],[-111.242334,44.988778],[-111.242449,44.989003],[-111.242424,44.989183],[-111.242108,44.989283],[-111.241867,44.989409],[-111.241779,44.989562],[-111.24178,44.989688],[-111.242189,44.990552],[-111.242368,44.990839],[-111.242597,44.991046],[-111.243246,44.991468],[-111.243399,44.99172],[-111.243349,44.991837],[-111.24288,44.992],[-111.242716,44.992126],[-111.24259,44.992297],[-111.242401,44.992685],[-111.241809,44.993532],[-111.241697,44.994136],[-111.241508,44.994577],[-111.241307,44.994866],[-111.240889,44.995236],[-111.240789,44.995425],[-111.240689,44.995713],[-111.240529,44.996965],[-111.240252,44.997587],[-111.240065,44.998695],[-111.239951,44.998794],[-111.239774,44.99883],[-111.239216,44.99884],[-111.238519,44.998932],[-111.238291,44.999049],[-111.237675,44.999831],[-111.19993,44.999831],[-111.199927,44.999924],[-111.19923,45.000204],[-111.198812,45.000466],[-111.198129,45.001034],[-111.196281,45.002469],[-111.195927,45.002794],[-111.195421,45.003155],[-111.195092,45.003461],[-111.193282,45.004841],[-111.192257,45.005653],[-111.19208,45.005825],[-111.19146,45.006285],[-111.190384,45.007187],[-111.190106,45.007358],[-111.189144,45.008197],[-111.188903,45.008342],[-111.188207,45.008874],[-111.187916,45.009135],[-111.187777,45.009415],[-111.187335,45.009983],[-111.186917,45.01028],[-111.186258,45.010641],[-111.186094,45.010813],[-111.186056,45.010921],[-111.18598,45.011011],[-111.185677,45.011309],[-111.185538,45.01139],[-111.185385,45.011435],[-111.184979,45.011391],[-111.183785,45.010979],[-111.183315,45.010871],[-111.18235,45.010837],[-111.18169,45.010703],[-111.180003,45.010805],[-111.178072,45.010232],[-111.177997,45.01061],[-111.177532,45.012249],[-111.17742,45.012753],[-111.177156,45.013591],[-111.177031,45.014203],[-111.17698,45.01432],[-111.176856,45.015013],[-111.176692,45.015464],[-111.17663,45.015878],[-111.176316,45.016932],[-111.176103,45.017913],[-111.176002,45.018156],[-111.175764,45.019264],[-111.175237,45.0212],[-111.175137,45.02147],[-111.174823,45.02283],[-111.174672,45.023218],[-111.17461,45.023605],[-111.174334,45.02465],[-111.17008,45.024053],[-111.169483,45.023937],[-111.168327,45.023794],[-111.164442,45.023206],[-111.162105,45.022912],[-111.161623,45.022814],[-111.159172,45.022466],[-111.157661,45.022207],[-111.156734,45.022109],[-111.15535,45.021886],[-111.154613,45.021806],[-111.151769,45.02136],[-111.150728,45.021244],[-111.148404,45.020869],[-111.145281,45.02045],[-111.144252,45.020263],[-111.143617,45.020056],[-111.14269,45.02003],[-111.142284,45.020058],[-111.142107,45.02013],[-111.141816,45.020383],[-111.141448,45.020446],[-111.140775,45.020411],[-111.140114,45.020187],[-111.139302,45.020134],[-111.138604,45.020125],[-111.137855,45.02],[-111.137092,45.019704],[-111.136431,45.019327],[-111.136063,45.019012],[-111.135834,45.018869],[-111.134118,45.018024],[-111.133927,45.017836],[-111.133661,45.017665],[-111.133165,45.017422],[-111.132912,45.017334],[-111.132808,45.010765],[-111.127804,45.01076],[-111.112108,45.010162],[-111.112044,45.010199],[-111.112083,45.01037],[-111.11221,45.010648],[-111.112223,45.010765],[-111.112186,45.010981],[-111.112034,45.011144],[-111.111679,45.011333],[-111.111463,45.011522],[-111.111451,45.011585],[-111.111553,45.011819],[-111.111553,45.011927],[-111.111415,45.012684],[-111.111187,45.012909],[-111.110959,45.013287],[-111.110807,45.01344],[-111.110389,45.013675],[-111.109996,45.013855],[-111.109488,45.014018],[-111.108702,45.014424],[-111.10822,45.014532],[-111.107422,45.015028],[-111.106851,45.01547],[-111.106243,45.015821],[-111.105508,45.016398],[-111.105001,45.01666],[-111.104683,45.016768],[-111.104113,45.017048],[-111.103504,45.017453],[-111.102985,45.017868],[-111.102554,45.01812],[-111.102123,45.018481],[-111.101654,45.018814],[-111.101224,45.018987],[-111.096791,45.02153],[-111.096844,44.998224],[-111.097013,44.969022],[-111.097187,44.925318],[-111.097235,44.888259],[-111.097929,44.888323],[-111.098473,44.888448],[-111.098929,44.888592],[-111.09931,44.888763],[-111.099551,44.888951]]]}},{"id":"14","type":"Feature","properties":{"leisure":"nature_reserve","sport":null,"base_elevation":538},"geometry":{"type":"Polygon","coordinates":[[[-111.148498,45.043646],[-111.148444,45.029252],[-111.168626,45.029251],[-111.168617,45.043682],[-111.148498,45.043646]]]}},{"id":"15","type":"Feature","properties":{"leisure":"nature_reserve","sport":null,"base_elevation":538},"geometry":{"type":"Polygon","coordinates":[[[-111.146388,45.048929],[-111.145769,45.048775],[-111.144995,45.048401],[-111.144817,45.048264],[-111.14443,45.047852],[-111.14409,45.047638],[-111.143896,45.047589],[-111.143672,45.047578],[-111.143223,45.047687],[-111.143084,45.047693],[-111.142565,45.047627],[-111.142395,45.047467],[-111.142372,45.047111],[-111.142318,45.046973],[-111.141977,45.046737],[-111.141366,45.046671],[-111.140971,45.046698],[-111.140236,45.046879],[-111.139848,45.046786],[-111.139616,45.046654],[-111.139547,45.046517],[-111.139539,45.046325],[-111.13947,45.046264],[-111.139392,45.046253],[-111.13906,45.045836],[-111.138433,45.045545],[-111.138278,45.045507],[-111.137736,45.045479],[-111.137488,45.045643],[-111.137512,45.045786],[-111.137651,45.04594],[-111.137627,45.046055],[-111.137473,45.046132],[-111.137271,45.046137],[-111.136644,45.046044],[-111.136149,45.045928],[-111.136018,45.045857],[-111.135948,45.04578],[-111.135863,45.045577],[-111.135786,45.045505],[-111.13519,45.045209],[-111.134857,45.045148],[-111.133975,45.045104],[-111.133549,45.044978],[-111.13317,45.044764],[-111.132775,45.044434],[-111.132528,45.044154],[-111.13222,45.043614],[-111.148498,45.043646],[-111.148519,45.049978],[-111.147812,45.049582],[-111.147301,45.049132],[-111.147123,45.049028],[-111.146907,45.048978],[-111.146388,45.048929]]]}},{"id":"16","type":"Feature","properties":{"leisure":"nature_reserve","sport":null,"base_elevation":538},"geometry":{"type":"Polygon","coordinates":[[[-111.148879,45.058603],[-111.149693,45.05825],[-111.168623,45.058156],[-111.168615,45.072669],[-111.148503,45.072625],[-111.148444,45.058959],[-111.148635,45.058776],[-111.148879,45.058603]]]}},{"id":"17","type":"Feature","properties":{"leisure":"nature_reserve","sport":null,"base_elevation":538},"geometry":{"type":"Polygon","coordinates":[[[-111.132176,45.083606],[-111.135369,45.083102],[-111.136584,45.082299],[-111.137748,45.080627],[-111.138364,45.080304],[-111.14009,45.078143],[-111.141576,45.076952],[-111.140705,45.076528],[-111.140571,45.076201],[-111.140935,45.07596],[-111.141103,45.07483],[-111.141254,45.074457],[-111.141107,45.074006],[-111.140525,45.073727],[-111.140905,45.073116],[-111.140943,45.072615],[-111.148503,45.072625],[-111.148566,45.087139],[-111.129886,45.087101],[-111.129936,45.086924],[-111.129701,45.086426],[-111.130064,45.085483],[-111.131417,45.083904],[-111.132176,45.083606]]]}},{"id":"18","type":"Feature","properties":{"leisure":"nature_reserve","sport":null,"base_elevation":538},"geometry":{"type":"Polygon","coordinates":[[[-111.168746,45.101659],[-111.14833,45.101621],[-111.148248,45.087151],[-111.168615,45.087159],[-111.168746,45.101659]]]}},{"id":"19","type":"Feature","properties":{"leisure":"nature_reserve","sport":null,"base_elevation":538},"geometry":{"type":"Polygon","coordinates":[[[-111.148412,45.116084],[-111.127993,45.116014],[-111.1279,45.101579],[-111.14833,45.101621],[-111.148412,45.116084]]]}},{"id":"20","type":"Feature","properties":{"leisure":"nature_reserve","sport":null,"base_elevation":538},"geometry":{"type":"Polygon","coordinates":[[[-111.107517,45.116109],[-111.123151,45.115997],[-111.127993,45.116014],[-111.128062,45.126735],[-111.128024,45.130637],[-111.117491,45.130604],[-111.107547,45.130638],[-111.107613,45.125441],[-111.107508,45.118922],[-111.107517,45.116109]]]}},{"id":"21","type":"Feature","properties":{"leisure":"nature_reserve","sport":null,"base_elevation":538},"geometry":{"type":"Polygon","coordinates":[[[-111.168873,45.123947],[-111.168848,45.130686],[-111.148442,45.130553],[-111.148468,45.125464],[-111.148412,45.116084],[-111.168807,45.116149],[-111.168873,45.123947]]]}},{"id":"22","type":"Feature","properties":{"leisure":"nature_reserve","sport":null,"base_elevation":538},"geometry":{"type":"Polygon","coordinates":[[[-111.148405,45.144972],[-111.128061,45.145247],[-111.128024,45.130637],[-111.148442,45.130553],[-111.148405,45.144972]]]}},{"id":"23","type":"Feature","properties":{"leisure":"nature_reserve","sport":null,"base_elevation":538},"geometry":{"type":"Polygon","coordinates":[[[-111.168878,45.145182],[-111.168986,45.159689],[-111.148469,45.159529],[-111.148405,45.144972],[-111.168878,45.145182]]]}},{"id":"24","type":"Feature","properties":{"leisure":"nature_reserve","sport":null,"base_elevation":538},"geometry":{"type":"Polygon","coordinates":[[[-111.127979,45.159682],[-111.1076,45.159574],[-111.107585,45.14515],[-111.125152,45.14526],[-111.128061,45.145247],[-111.127979,45.159682]]]}},{"id":"25","type":"Feature","properties":{"leisure":"park","sport":null,"base_elevation":486},"geometry":{"type":"Polygon","coordinates":[[[-111.318639,45.250476],[-111.318812,45.250793],[-111.319113,45.251201],[-111.3196,45.251603],[-111.320071,45.251803],[-111.32048,45.252089],[-111.320271,45.252242],[-111.319912,45.252397],[-111.31977,45.252428],[-111.319336,45.251782],[-111.319181,45.251618],[-111.318145,45.251198],[-111.317881,45.251239],[-111.31762,45.251453],[-111.31735,45.251253],[-111.319363,45.249816],[-111.319445,45.249876],[-111.318639,45.250476]]]}},{"id":"26","type":"Feature","properties":{"leisure":"park","sport":null,"base_elevation":459},"geometry":{"type":"Polygon","coordinates":[[[-111.309355,45.256941],[-111.309761,45.256556],[-111.309869,45.256561],[-111.309529,45.25778],[-111.309179,45.257698],[-111.309355,45.256941]]]}},{"id":"27","type":"Feature","properties":{"leisure":"park","sport":null,"base_elevation":457},"geometry":{"type":"Polygon","coordinates":[[[-111.309162,45.257773],[-111.309555,45.257822],[-111.30936,45.2586],[-111.308962,45.25855],[-111.309162,45.257773]]]}},{"id":"28","type":"Feature","properties":{"leisure":"park","sport":null,"base_elevation":466},"geometry":{"type":"Polygon","coordinates":[[[-111.314435,45.25807],[-111.314443,45.258444],[-111.313339,45.258457],[-111.313331,45.258083],[-111.314435,45.25807]]]}},{"id":"29","type":"Feature","properties":{"leisure":"park","sport":null,"base_elevation":455},"geometry":{"type":"Polygon","coordinates":[[[-111.309979,45.259521],[-111.309054,45.259391],[-111.309035,45.259349],[-111.309179,45.258863],[-111.309175,45.258724],[-111.309216,45.258683],[-111.309319,45.258673],[-111.309353,45.2587],[-111.310162,45.258803],[-111.31022,45.258842],[-111.310111,45.259301],[-111.309979,45.259521]]]}},{"id":"30","type":"Feature","properties":{"leisure":"park","sport":null,"base_elevation":455},"geometry":{"type":"Polygon","coordinates":[[[-111.310274,45.259419],[-111.310382,45.259407],[-111.310468,45.259512],[-111.31051,45.259632],[-111.310512,45.259781],[-111.31048,45.25985],[-111.310311,45.259992],[-111.310197,45.260041],[-111.309835,45.260062],[-111.309669,45.260013],[-111.309647,45.259978],[-111.309684,45.259931],[-111.309991,45.259764],[-111.31011,45.25966],[-111.310274,45.259419]]]}},{"id":"31","type":"Feature","properties":{"leisure":"park","sport":null,"base_elevation":390},"geometry":{"type":"Polygon","coordinates":[[[-111.249599,45.224586],[-111.249139,45.224073],[-111.249359,45.223913],[-111.249448,45.223967],[-111.249623,45.223967],[-111.249717,45.224139],[-111.249989,45.224113],[-111.250026,45.224216],[-111.249956,45.224262],[-111.249973,45.224297],[-111.250083,45.224294],[-111.250095,45.224342],[-111.250481,45.224274],[-111.250493,45.224406],[-111.250225,45.224426],[-111.250249,45.224566],[-111.249599,45.224586]]]}},{"id":"32","type":"Feature","properties":{"leisure":"park","sport":null,"base_elevation":449},"geometry":{"type":"Polygon","coordinates":[[[-111.306222,45.25985],[-111.306558,45.26009],[-111.305396,45.259966],[-111.305796,45.259799],[-111.306222,45.25985]]]}},{"id":"33","type":"Feature","properties":{"leisure":"park","sport":null,"base_elevation":417},"geometry":{"type":"Polygon","coordinates":[[[-111.29221,45.27074],[-111.292161,45.270487],[-111.292567,45.270473],[-111.292604,45.270911],[-111.292468,45.270978],[-111.292468,45.271054],[-111.292159,45.270854],[-111.29221,45.27074]]]}},{"id":"34","type":"Feature","properties":{"leisure":"park","sport":null,"base_elevation":413},"geometry":{"type":"Polygon","coordinates":[[[-111.289312,45.271307],[-111.289196,45.271391],[-111.289058,45.271297],[-111.288842,45.271257],[-111.288857,45.271047],[-111.288698,45.271034],[-111.288688,45.270972],[-111.288409,45.270964],[-111.288438,45.270811],[-111.28922,45.270893],[-111.289482,45.270886],[-111.289475,45.271419],[-111.289362,45.271304],[-111.289312,45.271307]]]}},{"id":"35","type":"Feature","properties":{"leisure":"park","sport":null,"base_elevation":416},"geometry":{"type":"Polygon","coordinates":[[[-111.289571,45.270916],[-111.290824,45.270923],[-111.290838,45.271528],[-111.289631,45.271541],[-111.289574,45.271471],[-111.289571,45.270916]]]}},{"id":"36","type":"Feature","properties":{"leisure":"pitch","sport":"tennis","base_elevation":698},"geometry":{"type":"Polygon","coordinates":[[[-111.405821,45.242575],[-111.406153,45.242805],[-111.406076,45.242862],[-111.405738,45.242635],[-111.405821,45.242575]]]}},{"id":"37","type":"Feature","properties":{"leisure":"pitch","sport":"tennis","base_elevation":701},"geometry":{"type":"Polygon","coordinates":[[[-111.406516,45.242769],[-111.40631,45.242922],[-111.406212,45.242857],[-111.406418,45.242704],[-111.406516,45.242769]]]}},{"id":"38","type":"Feature","properties":{"leisure":"pitch","sport":"tennis","base_elevation":422},"geometry":{"type":"Polygon","coordinates":[[[-111.293643,45.271908],[-111.29364,45.271575],[-111.294579,45.271571],[-111.294582,45.271904],[-111.293643,45.271908]]]}},{"id":"39","type":"Feature","properties":{"leisure":"pitch","sport":"tennis","base_elevation":399},"geometry":{"type":"Polygon","coordinates":[[[-111.253821,45.227975],[-111.253937,45.22817],[-111.253809,45.228208],[-111.253693,45.228013],[-111.253821,45.227975]]]}},{"id":"40","type":"Feature","properties":{"leisure":"pitch","sport":"tennis","base_elevation":399},"geometry":{"type":"Polygon","coordinates":[[[-111.253771,45.22822],[-111.253642,45.228258],[-111.253526,45.228063],[-111.253655,45.228025],[-111.253771,45.22822]]]}},{"id":"41","type":"Feature","properties":{"leisure":"pitch","sport":"tennis","base_elevation":392},"geometry":{"type":"Polygon","coordinates":[[[-111.252212,45.230403],[-111.252069,45.230262],[-111.252061,45.230135],[-111.25209,45.230055],[-111.25217,45.229971],[-111.25228,45.229917],[-111.253582,45.229549],[-111.253766,45.229557],[-111.25387,45.229595],[-111.254,45.229698],[-111.254031,45.229764],[-111.254037,45.229908],[-111.25393,45.23004],[-111.253842,45.23008],[-111.252527,45.230454],[-111.252389,45.23047],[-111.252212,45.230403]]]}},{"id":"42","type":"Feature","properties":{"leisure":"pitch","sport":"tennis","base_elevation":416},"geometry":{"type":"Polygon","coordinates":[[[-111.289451,45.271187],[-111.289219,45.271183],[-111.289229,45.270916],[-111.289462,45.270923],[-111.289451,45.271187]]]}},{"id":"43","type":"Feature","properties":{"leisure":"pitch","sport":"tennis","base_elevation":417},"geometry":{"type":"Polygon","coordinates":[[[-111.288698,45.271034],[-111.288857,45.271047],[-111.288859,45.271196],[-111.288452,45.271187],[-111.288481,45.270966],[-111.288688,45.270972],[-111.288698,45.271034]]]}},{"id":"44","type":"Feature","properties":{"leisure":"pitch","sport":"tennis","base_elevation":416},"geometry":{"type":"Polygon","coordinates":[[[-111.291584,45.27189],[-111.29123,45.271671],[-111.291097,45.271505],[-111.291031,45.271393],[-111.291008,45.271139],[-111.292031,45.271116],[-111.292108,45.271172],[-111.292058,45.271974],[-111.291823,45.271962],[-111.291584,45.27189]]]}},{"id":"45","type":"Feature","properties":{"leisure":"pitch","sport":"tennis","base_elevation":418},"geometry":{"type":"Polygon","coordinates":[[[-111.293449,45.271132],[-111.293456,45.27126],[-111.293416,45.271382],[-111.29335,45.271505],[-111.293151,45.271689],[-111.292946,45.271829],[-111.292707,45.271913],[-111.292541,45.271964],[-111.2923,45.271981],[-111.292336,45.271223],[-111.292409,45.271151],[-111.293449,45.271132]]]}},{"id":"46","type":"Feature","properties":{"leisure":"playground","sport":null,"base_elevation":488},"geometry":{"type":"Polygon","coordinates":[[[-111.318245,45.25087],[-111.318436,45.250946],[-111.318392,45.251001],[-111.3182,45.250926],[-111.318245,45.25087]]]}},{"id":"47","type":"Feature","properties":{"leisure":"playground","sport":null,"base_elevation":488},"geometry":{"type":"Polygon","coordinates":[[[-111.318613,45.251136],[-111.318421,45.251057],[-111.318514,45.250944],[-111.318706,45.251022],[-111.318613,45.251136]]]}},{"id":"48","type":"Feature","properties":{"leisure":"playground","sport":null,"base_elevation":467},"geometry":{"type":"Polygon","coordinates":[[[-111.314258,45.258176],[-111.314396,45.258176],[-111.314396,45.258402],[-111.314258,45.258402],[-111.314258,45.258176]]]}},{"id":"49","type":"Feature","properties":{"leisure":"playground","sport":null,"base_elevation":448},"geometry":{"type":"Polygon","coordinates":[[[-111.305598,45.260006],[-111.305735,45.260015],[-111.305727,45.260101],[-111.305606,45.260096],[-111.305569,45.260059],[-111.305598,45.260006]]]}},{"id":"50","type":"Feature","properties":{"leisure":"playground","sport":null,"base_elevation":413},"geometry":{"type":"Polygon","coordinates":[[[-111.291344,45.27033],[-111.291266,45.270223],[-111.291103,45.270156],[-111.291457,45.270009],[-111.291903,45.270298],[-111.291896,45.270398],[-111.291825,45.270527],[-111.291737,45.270584],[-111.291546,45.270592],[-111.291493,45.270392],[-111.291344,45.27033]]]}},{"id":"51","type":"Feature","properties":{"leisure":"park","sport":null,"base_elevation":536},"geometry":{"type":"Point","coordinates":[-111.563578,45.182428]}},{"id":"52","type":"Feature","properties":{"leisure":"sports_centre","sport":"skiing","base_elevation":826},"geometry":{"type":"Point","coordinates":[-111.401115,45.283978]}}]}