{"type":"FeatureCollection","features":[{"id":"('way', 129498052)","type":"Feature","properties":{"aerialway":"cable_car","name":"\u957f\u6c5f\u7d22\u9053","base_elevation":61},"geometry":{"type":"LineString","coordinates":[[106.579154,29.56064],[106.589797,29.555559]]}},{"id":"('way', 1499802147)","type":"Feature","properties":{"aerialway":"cable_car","name":"\u957f\u6c5f\u7d22\u9053","base_elevation":64},"geometry":{"type":"LineString","coordinates":[[106.579117,29.560581],[106.589759,29.5555]]}}]}